{
"type": "FeatureCollection",
"name": "Faridabad_Cluster",
"crs": { "type": "name", "properties": { "name": "urn:ogc:def:crs:OGC:1.3:CRS84" } },
"features": [
{ "type": "Feature", "properties": { "Name": "IMT", "ZONE": "CONFORMING", "TOTAL IND": 190, "WHITE": 6, "ORANGE": 19, "RED": 5, "GREEN": 160, "CLU (IN HA": 510, "IND (IN HA": 49, "IND AREA %": 10, "layer": "ZONE_CONFORMING", "path": "D:\/HARYANA INDUSTRIAL SURVEY PROJECT\/FARIDABAD SEC AND CLUS POLYGON\/ZONE_CONFORMING.shp" }, "geometry": { "type": "MultiPolygon", "coordinates": [ [ [ [ 77.345554445165533, 28.334786944356839, 0.0 ], [ 77.370830660608476, 28.33468836152721, 0.0 ], [ 77.366416526987436, 28.314140504444929, 0.0 ], [ 77.351304566812686, 28.32095142643902, 0.0 ], [ 77.351374818522061, 28.32361359889159, 0.0 ], [ 77.346689660140967, 28.32374015710942, 0.0 ], [ 77.346711605111821, 28.323748179986719, 0.0 ], [ 77.345554445165533, 28.334786944356839, 0.0 ] ] ] ] } },
{ "type": "Feature", "properties": { "Name": "NIT", "ZONE": "CONFORMING", "TOTAL IND": 838, "WHITE": 77, "ORANGE": 18, "RED": 12, "GREEN": 731, "CLU (IN HA": 186, "IND (IN HA": 50, "IND AREA %": 27, "layer": "ZONE_CONFORMING", "path": "D:\/HARYANA INDUSTRIAL SURVEY PROJECT\/FARIDABAD SEC AND CLUS POLYGON\/ZONE_CONFORMING.shp" }, "geometry": { "type": "MultiPolygon", "coordinates": [ [ [ [ 77.289550702739419, 28.376805124706131, 0.0 ], [ 77.29767719838398, 28.37744563987432, 0.0 ], [ 77.306824496550391, 28.37783660156682, 0.0 ], [ 77.307946567267734, 28.370367355649989, 0.0 ], [ 77.290137901398268, 28.369436435633791, 0.0 ], [ 77.289550702739419, 28.376805124706131, 0.0 ] ] ] ] } },
{ "type": "Feature", "properties": { "Name": "HSIDC SEC 31", "ZONE": "CONFORMING", "TOTAL IND": 143, "WHITE": 8, "ORANGE": 0, "RED": 0, "GREEN": 135, "CLU (IN HA": 68, "IND (IN HA": 58, "IND AREA %": 85, "layer": "ZONE_CONFORMING", "path": "D:\/HARYANA INDUSTRIAL SURVEY PROJECT\/FARIDABAD SEC AND CLUS POLYGON\/ZONE_CONFORMING.shp" }, "geometry": { "type": "MultiPolygon", "coordinates": [ [ [ [ 77.307803287158322, 28.453057002537889, 0.0 ], [ 77.310782061916271, 28.453222128574929, 0.0 ], [ 77.311086514544087, 28.451591702225048, 0.0 ], [ 77.311545350027345, 28.449963752513838, 0.0 ], [ 77.311789846903466, 28.449112656986909, 0.0 ], [ 77.311832580027513, 28.44785017379094, 0.0 ], [ 77.311800097836027, 28.44695098228685, 0.0 ], [ 77.311830352793407, 28.446231224090241, 0.0 ], [ 77.312083954982981, 28.44561411253002, 0.0 ], [ 77.312227184918328, 28.444977801422599, 0.0 ], [ 77.312180330271474, 28.44411647843712, 0.0 ], [ 77.312169017046386, 28.443354899739369, 0.0 ], [ 77.312160275247251, 28.44125065276042, 0.0 ], [ 77.312134515872444, 28.439033406514842, 0.0 ], [ 77.308990210226682, 28.439055417360329, 0.0 ], [ 77.307803287158322, 28.453057002537889, 0.0 ] ] ] ] } },
{ "type": "Feature", "properties": { "Name": "SEC 24", "ZONE": "CONFORMING", "TOTAL IND": 317, "WHITE": 8, "ORANGE": 20, "RED": 10, "GREEN": 279, "CLU (IN HA": 242, "IND (IN HA": 216, "IND AREA %": 89, "layer": "ZONE_CONFORMING", "path": "D:\/HARYANA INDUSTRIAL SURVEY PROJECT\/FARIDABAD SEC AND CLUS POLYGON\/ZONE_CONFORMING.shp" }, "geometry": { "type": "MultiPolygon", "coordinates": [ [ [ [ 77.309814679311401, 28.363433872639838, 0.0 ], [ 77.311633787252845, 28.346344169079909, 0.0 ], [ 77.310710532194094, 28.34633258643445, 0.0 ], [ 77.309427514535315, 28.346547878957502, 0.0 ], [ 77.308313795691603, 28.346488644390821, 0.0 ], [ 77.30746296445983, 28.346046341133011, 0.0 ], [ 77.305765187209701, 28.346673762801871, 0.0 ], [ 77.300333441499163, 28.34814120009041, 0.0 ], [ 77.300647303724077, 28.35012474599792, 0.0 ], [ 77.300465909257866, 28.352120788997421, 0.0 ], [ 77.299643114819744, 28.363041502725871, 0.0 ], [ 77.309814679311401, 28.363433872639838, 0.0 ] ] ] ] } },
{ "type": "Feature", "properties": { "Name": "SECTOR 25", "ZONE": "CONFORMING", "TOTAL IND": 502, "WHITE": 11, "ORANGE": 38, "RED": 30, "GREEN": 423, "CLU (IN HA": 98, "IND (IN HA": 81, "IND AREA %": 83, "layer": "ZONE_CONFORMING", "path": "D:\/HARYANA INDUSTRIAL SURVEY PROJECT\/FARIDABAD SEC AND CLUS POLYGON\/ZONE_CONFORMING.shp" }, "geometry": { "type": "MultiPolygon", "coordinates": [ [ [ [ 77.303075100242992, 28.343457145298839, 0.0 ], [ 77.305047837611582, 28.3442075765712, 0.0 ], [ 77.307214905506001, 28.345335034627858, 0.0 ], [ 77.307645257004367, 28.345527235093389, 0.0 ], [ 77.309792923362281, 28.34509218506177, 0.0 ], [ 77.311006068427943, 28.34450129255664, 0.0 ], [ 77.312280390990523, 28.337846736218289, 0.0 ], [ 77.313032269323273, 28.330374901342839, 0.0 ], [ 77.313280170848785, 28.328021631156389, 0.0 ], [ 77.310925647339033, 28.3228986876241, 0.0 ], [ 77.305989132715794, 28.32579269733699, 0.0 ], [ 77.303668827960081, 28.326940019345571, 0.0 ], [ 77.303077210997017, 28.328184697228821, 0.0 ], [ 77.302927242836972, 28.33127232233371, 0.0 ], [ 77.302920765294758, 28.331444648822401, 0.0 ], [ 77.302930368858654, 28.331444619625671, 0.0 ], [ 77.303075100242992, 28.343457145298839, 0.0 ] ] ], [ [ [ 77.302860028178884, 28.333060479884679, 0.0 ], [ 77.302920765294758, 28.331444648822401, 0.0 ], [ 77.298305720844155, 28.33145867946531, 0.0 ], [ 77.298308451851369, 28.333172898947769, 0.0 ], [ 77.301114029046062, 28.333118317537021, 0.0 ], [ 77.302860028178884, 28.333060479884679, 0.0 ] ] ] ] } },
{ "type": "Feature", "properties": { "Name": "SEC 59", "ZONE": "CONFORMING", "TOTAL IND": 417, "WHITE": 21, "ORANGE": 26, "RED": 15, "GREEN": 355, "CLU (IN HA": 269, "IND (IN HA": 200, "IND AREA %": 74, "layer": "ZONE_CONFORMING", "path": "D:\/HARYANA INDUSTRIAL SURVEY PROJECT\/FARIDABAD SEC AND CLUS POLYGON\/ZONE_CONFORMING.shp" }, "geometry": { "type": "MultiPolygon", "coordinates": [ [ [ [ 77.313997144111312, 28.320732238377289, 0.0 ], [ 77.315437882988974, 28.305363921686041, 0.0 ], [ 77.313171740222074, 28.305190247922958, 0.0 ], [ 77.311584829478548, 28.304272135615498, 0.0 ], [ 77.309067015757606, 28.301707768369582, 0.0 ], [ 77.304417987048552, 28.296787353808451, 0.0 ], [ 77.29937059402026, 28.299816831322349, 0.0 ], [ 77.301136550245175, 28.302928398015521, 0.0 ], [ 77.301567496951691, 28.30332675041635, 0.0 ], [ 77.30415910358991, 28.307870255084229, 0.0 ], [ 77.307496917159909, 28.31411869964505, 0.0 ], [ 77.308981339725776, 28.317421565300481, 0.0 ], [ 77.31042542556763, 28.320761560096319, 0.0 ], [ 77.313997144111312, 28.320732238377289, 0.0 ] ] ] ] } },
{ "type": "Feature", "properties": { "Name": "SEC 58", "ZONE": "CONFORMING", "TOTAL IND": 485, "WHITE": 13, "ORANGE": 18, "RED": 14, "GREEN": 440, "CLU (IN HA": 259, "IND (IN HA": 198, "IND AREA %": 76, "layer": "ZONE_CONFORMING", "path": "D:\/HARYANA INDUSTRIAL SURVEY PROJECT\/FARIDABAD SEC AND CLUS POLYGON\/ZONE_CONFORMING.shp" }, "geometry": { "type": "MultiPolygon", "coordinates": [ [ [ [ 77.303626741056704, 28.32673733556198, 0.0 ], [ 77.306941273605375, 28.324856980280689, 0.0 ], [ 77.310095703108288, 28.323104385017061, 0.0 ], [ 77.310844583000147, 28.322514919065242, 0.0 ], [ 77.307739011470517, 28.316175567497709, 0.0 ], [ 77.306448550991902, 28.313549623076579, 0.0 ], [ 77.30245495362108, 28.305603575318131, 0.0 ], [ 77.29596920630199, 28.305605016198911, 0.0 ], [ 77.296536262558334, 28.312936376577451, 0.0 ], [ 77.297028076998245, 28.320338680941578, 0.0 ], [ 77.301108244289111, 28.327665948538229, 0.0 ], [ 77.303626741056704, 28.32673733556198, 0.0 ] ] ] ] } },
{ "type": "Feature", "properties": { "Name": "SECTOR 55", "ZONE": "CONFORMING", "TOTAL IND": 701, "WHITE": 51, "ORANGE": 30, "RED": 23, "GREEN": 597, "CLU (IN HA": 288, "IND (IN HA": 192, "IND AREA %": 67, "layer": "ZONE_CONFORMING", "path": "D:\/HARYANA INDUSTRIAL SURVEY PROJECT\/FARIDABAD SEC AND CLUS POLYGON\/ZONE_CONFORMING.shp" }, "geometry": { "type": "MultiPolygon", "coordinates": [ [ [ [ 77.292149884973526, 28.347591600308419, 0.0 ], [ 77.292893648779895, 28.348476553169078, 0.0 ], [ 77.293710134355152, 28.348769008988889, 0.0 ], [ 77.294774525077145, 28.348897506552941, 0.0 ], [ 77.296016846005898, 28.348574092016001, 0.0 ], [ 77.297383534612493, 28.348292761294321, 0.0 ], [ 77.298627807163072, 28.347920284535881, 0.0 ], [ 77.299911450105157, 28.347870734743019, 0.0 ], [ 77.301103045468665, 28.347694533689399, 0.0 ], [ 77.302731274446614, 28.34722535500844, 0.0 ], [ 77.3026933763215, 28.344089519833989, 0.0 ], [ 77.292338471968975, 28.34088007839749, 0.0 ], [ 77.292149884973526, 28.347591600308419, 0.0 ] ] ] ] } },
{ "type": "Feature", "properties": { "Name": "SECTOR 27 ABCD", "ZONE": "CONFORMING", "TOTAL IND": 111, "WHITE": 7, "ORANGE": 1, "RED": 0, "GREEN": 103, "CLU (IN HA": 84, "IND (IN HA": 55, "IND AREA %": 65, "layer": "ZONE_CONFORMING", "path": "D:\/HARYANA INDUSTRIAL SURVEY PROJECT\/FARIDABAD SEC AND CLUS POLYGON\/ZONE_CONFORMING.shp" }, "geometry": { "type": "MultiPolygon", "coordinates": [ [ [ [ 77.300717917526981, 28.487069553556079, 0.0 ], [ 77.304061852654058, 28.48718879592213, 0.0 ], [ 77.305653653269545, 28.470633501425731, 0.0 ], [ 77.306151679475278, 28.466081655601268, 0.0 ], [ 77.306669920294027, 28.460240095454871, 0.0 ], [ 77.307049215753992, 28.453585172844669, 0.0 ], [ 77.307435562920659, 28.449466627416911, 0.0 ], [ 77.30818483528428, 28.44144264848919, 0.0 ], [ 77.308849285165309, 28.432793883694728, 0.0 ], [ 77.309302618800402, 28.427646649524942, 0.0 ], [ 77.30611174818128, 28.427521727792371, 0.0 ], [ 77.300717917526981, 28.487069553556079, 0.0 ] ] ] ] } },
{ "type": "Feature", "properties": { "Name": "SMIE", "ZONE": "CONFORMING", "TOTAL IND": 214, "WHITE": 5, "ORANGE": 13, "RED": 4, "GREEN": 192, "CLU (IN HA": 283, "IND (IN HA": 175, "IND AREA %": 62, "layer": "ZONE_CONFORMING", "path": "D:\/HARYANA INDUSTRIAL SURVEY PROJECT\/FARIDABAD SEC AND CLUS POLYGON\/ZONE_CONFORMING.shp" }, "geometry": { "type": "MultiPolygon", "coordinates": [ [ [ [ 77.312465020660682, 28.370847427231869, 0.0 ], [ 77.314279605693301, 28.3709024024913, 0.0 ], [ 77.314754334833523, 28.365184890677789, 0.0 ], [ 77.311503357474606, 28.3654763921331, 0.0 ], [ 77.311055254211396, 28.365549056391998, 0.0 ], [ 77.310812596781815, 28.36562286728611, 0.0 ], [ 77.310590040558225, 28.365674622206502, 0.0 ], [ 77.310555979041041, 28.36657813795961, 0.0 ], [ 77.310606115103838, 28.366666152462489, 0.0 ], [ 77.311087456392329, 28.366690970700748, 0.0 ], [ 77.311192448229065, 28.366202195748151, 0.0 ], [ 77.311756114688492, 28.36619492098119, 0.0 ], [ 77.312948322869815, 28.366893339160061, 0.0 ], [ 77.313171796159168, 28.367053234671111, 0.0 ], [ 77.312921604672866, 28.367975371624869, 0.0 ], [ 77.312727492912344, 28.36819999810302, 0.0 ], [ 77.312465020660682, 28.370847427231869, 0.0 ] ] ] ] } },
{ "type": "Feature", "properties": { "Name": "SECTOR 6", "ZONE": "CONFORMING", "TOTAL IND": 136, "WHITE": 2, "ORANGE": 4, "RED": 3, "GREEN": 127, "CLU (IN HA": 17, "IND (IN HA": 15, "IND AREA %": 88, "layer": "ZONE_CONFORMING", "path": "D:\/HARYANA INDUSTRIAL SURVEY PROJECT\/FARIDABAD SEC AND CLUS POLYGON\/ZONE_CONFORMING.shp" }, "geometry": { "type": "MultiPolygon", "coordinates": [ [ [ [ 77.315254612818094, 28.368149616824351, 0.0 ], [ 77.321583124985054, 28.368462663349941, 0.0 ], [ 77.322952374387867, 28.35425012082332, 0.0 ], [ 77.316373932694731, 28.35385679426847, 0.0 ], [ 77.315254612818094, 28.368149616824351, 0.0 ] ] ] ] } },
{ "type": "Feature", "properties": { "Name": "SEC 4", "ZONE": "CONFORMING", "TOTAL IND": 250, "WHITE": 4, "ORANGE": 20, "RED": 23, "GREEN": 203, "CLU (IN HA": 130, "IND (IN HA": 93, "IND AREA %": 72, "layer": "ZONE_CONFORMING", "path": "D:\/HARYANA INDUSTRIAL SURVEY PROJECT\/FARIDABAD SEC AND CLUS POLYGON\/ZONE_CONFORMING.shp" }, "geometry": { "type": "MultiPolygon", "coordinates": [ [ [ [ 77.316485983059266, 28.353715581574569, 0.0 ], [ 77.323728345509892, 28.354150755466591, 0.0 ], [ 77.324035074794523, 28.35198912438835, 0.0 ], [ 77.318436159726033, 28.348561923028001, 0.0 ], [ 77.317430624949566, 28.348057391454539, 0.0 ], [ 77.316626698621178, 28.347928346650459, 0.0 ], [ 77.316582755484418, 28.349040824983131, 0.0 ], [ 77.316485983059266, 28.353715581574569, 0.0 ] ] ] ] } },
{ "type": "Feature", "properties": { "Name": "SECTOR 57", "ZONE": "CONFORMING", "TOTAL IND": 55, "WHITE": 3, "ORANGE": 0, "RED": 0, "GREEN": 52, "CLU (IN HA": 44, "IND (IN HA": 33, "IND AREA %": 75, "layer": "ZONE_CONFORMING", "path": "D:\/HARYANA INDUSTRIAL SURVEY PROJECT\/FARIDABAD SEC AND CLUS POLYGON\/ZONE_CONFORMING.shp" }, "geometry": { "type": "MultiPolygon", "coordinates": [ [ [ [ 77.288840760469455, 28.31837638540334, 0.0 ], [ 77.296696767838469, 28.31840738847491, 0.0 ], [ 77.295738515622531, 28.305239988056769, 0.0 ], [ 77.295449833006302, 28.301106411559889, 0.0 ], [ 77.292291211717526, 28.301148340517418, 0.0 ], [ 77.291515086003827, 28.30399624567773, 0.0 ], [ 77.29025359825124, 28.303758934299111, 0.0 ], [ 77.289951337041259, 28.30599948110763, 0.0 ], [ 77.291136219305344, 28.306854058466332, 0.0 ], [ 77.291794538384991, 28.307038436047488, 0.0 ], [ 77.290128145214311, 28.314761606410858, 0.0 ], [ 77.288840760469455, 28.31837638540334, 0.0 ] ] ] ] } },
{ "type": "Feature", "properties": { "Name": "NIT ADDITIONAL", "ZONE": "CONFORMING", "TOTAL IND": 26, "WHITE": 0, "ORANGE": 2, "RED": 2, "GREEN": 22, "CLU (IN HA": 131, "IND (IN HA": 87, "IND AREA %": 66, "layer": "ZONE_CONFORMING", "path": "D:\/HARYANA INDUSTRIAL SURVEY PROJECT\/FARIDABAD SEC AND CLUS POLYGON\/ZONE_CONFORMING.shp" }, "geometry": { "type": "MultiPolygon", "coordinates": [ [ [ [ 77.30938006063019, 28.378038518038629, 0.0 ], [ 77.313504012393736, 28.378115765603049, 0.0 ], [ 77.314399292455633, 28.370957953519561, 0.0 ], [ 77.31003837005629, 28.370760947127181, 0.0 ], [ 77.30938006063019, 28.378038518038629, 0.0 ] ] ] ] } },
{ "type": "Feature", "properties": { "Name": "RAJIV  COLONY", "ZONE": "NON-CONFORMING", "TOTAL IND": 26, "WHITE": 14, "ORANGE": 2, "RED": 0, "GREEN": 10, "CLU (IN HA": 43, "IND (IN HA": 7, "IND AREA %": 16, "layer": "ZONE_NON-CONFORMING", "path": "D:\/HARYANA INDUSTRIAL SURVEY PROJECT\/FARIDABAD SEC AND CLUS POLYGON\/ZONE_NON-CONFORMING.shp" }, "geometry": { "type": "MultiPolygon", "coordinates": [ [ [ [ 77.284482422133877, 28.325992593535521, 0.0 ], [ 77.284574208838791, 28.32656966332646, 0.0 ], [ 77.287619947576516, 28.325773906447921, 0.0 ], [ 77.289373263563974, 28.325294855196731, 0.0 ], [ 77.29002554496202, 28.32505887432907, 0.0 ], [ 77.290334201992067, 28.324475609711289, 0.0 ], [ 77.29428279715232, 28.326318555945541, 0.0 ], [ 77.296269491376449, 28.327021428658441, 0.0 ], [ 77.296633127874387, 28.32755203647795, 0.0 ], [ 77.297878532566784, 28.327320583909721, 0.0 ], [ 77.299707125092681, 28.327998766070031, 0.0 ], [ 77.300193372918855, 28.327692865449329, 0.0 ], [ 77.296364187573104, 28.32545312154333, 0.0 ], [ 77.294845319208562, 28.324828131996082, 0.0 ], [ 77.29495425256701, 28.323923422374939, 0.0 ], [ 77.294455062579615, 28.32226699053421, 0.0 ], [ 77.289152349927747, 28.323083695946941, 0.0 ], [ 77.286387384889196, 28.324213019562521, 0.0 ], [ 77.284482422133877, 28.325992593535521, 0.0 ] ] ] ] } },
{ "type": "Feature", "properties": { "Name": "SGM NAGAR", "ZONE": "NON-CONFORMING", "TOTAL IND": 89, "WHITE": 9, "ORANGE": 0, "RED": 0, "GREEN": 80, "CLU (IN HA": 42, "IND (IN HA": 8, "IND AREA %": 19, "layer": "ZONE_NON-CONFORMING", "path": "D:\/HARYANA INDUSTRIAL SURVEY PROJECT\/FARIDABAD SEC AND CLUS POLYGON\/ZONE_NON-CONFORMING.shp" }, "geometry": { "type": "MultiPolygon", "coordinates": [ [ [ [ 77.283577469609469, 28.414602270236621, 0.0 ], [ 77.288309995424029, 28.41317989131192, 0.0 ], [ 77.291254560287001, 28.411627960829481, 0.0 ], [ 77.292582733270436, 28.408948702552141, 0.0 ], [ 77.29307644758849, 28.404725532472352, 0.0 ], [ 77.293351586010132, 28.403179738608429, 0.0 ], [ 77.292020278712002, 28.4014261553138, 0.0 ], [ 77.289957547325699, 28.3996150145854, 0.0 ], [ 77.288364147135653, 28.398365353775262, 0.0 ], [ 77.286105159199295, 28.397135290382469, 0.0 ], [ 77.284070444605987, 28.396435696192519, 0.0 ], [ 77.28279385564619, 28.397438584640319, 0.0 ], [ 77.283002880907077, 28.399042907162698, 0.0 ], [ 77.284079526761147, 28.398924431018319, 0.0 ], [ 77.282174001410041, 28.402757221952811, 0.0 ], [ 77.281990152078919, 28.406848051203099, 0.0 ], [ 77.283577469609469, 28.414602270236621, 0.0 ] ] ] ] } },
{ "type": "Feature", "properties": { "Name": "PARVATIYA COLONTY", "ZONE": "NON-CONFORMING", "TOTAL IND": 1057, "WHITE": 66, "ORANGE": 2, "RED": 0, "GREEN": 989, "CLU (IN HA": 206, "IND (IN HA": 59, "IND AREA %": 29, "layer": "ZONE_NON-CONFORMING", "path": "D:\/HARYANA INDUSTRIAL SURVEY PROJECT\/FARIDABAD SEC AND CLUS POLYGON\/ZONE_NON-CONFORMING.shp" }, "geometry": { "type": "MultiPolygon", "coordinates": [ [ [ [ 77.283810119790871, 28.355103766405911, 0.0 ], [ 77.283469482316505, 28.350841665598288, 0.0 ], [ 77.27799408229609, 28.352534181065039, 0.0 ], [ 77.278042443822841, 28.355225119313591, 0.0 ], [ 77.283810119790871, 28.355103766405911, 0.0 ] ] ] ] } },
{ "type": "Feature", "properties": { "Name": "SANJAY COLONY", "ZONE": "NON-CONFORMING", "TOTAL IND": 104, "WHITE": 11, "ORANGE": 1, "RED": 0, "GREEN": 92, "CLU (IN HA": 28, "IND (IN HA": 4, "IND AREA %": 14, "layer": "ZONE_NON-CONFORMING", "path": "D:\/HARYANA INDUSTRIAL SURVEY PROJECT\/FARIDABAD SEC AND CLUS POLYGON\/ZONE_NON-CONFORMING.shp" }, "geometry": { "type": "MultiPolygon", "coordinates": [ [ [ [ 77.293988078553156, 28.369181826780721, 0.0 ], [ 77.298337528053224, 28.369439443481468, 0.0 ], [ 77.2998519516822, 28.356100310045878, 0.0 ], [ 77.30022279229604, 28.351366436311299, 0.0 ], [ 77.300101432526262, 28.348084064075021, 0.0 ], [ 77.29672252710516, 28.34882691662693, 0.0 ], [ 77.293776025947523, 28.349276102403419, 0.0 ], [ 77.291505219925043, 28.349073607165622, 0.0 ], [ 77.289896730206493, 28.349123273432721, 0.0 ], [ 77.287873137786562, 28.35037207263192, 0.0 ], [ 77.283861879283293, 28.35092058027556, 0.0 ], [ 77.283980442298471, 28.354855519931789, 0.0 ], [ 77.287890686590899, 28.355037999509381, 0.0 ], [ 77.288009300864886, 28.358378214770731, 0.0 ], [ 77.288614309271424, 28.36038051757016, 0.0 ], [ 77.289174388865959, 28.36136378889552, 0.0 ], [ 77.288920381978755, 28.362569184758609, 0.0 ], [ 77.293988078553156, 28.369181826780721, 0.0 ] ] ] ] } },
{ "type": "Feature", "properties": { "Name": "JEEVAN NAGAR", "ZONE": "NON-CONFORMING", "TOTAL IND": 2122, "WHITE": 120, "ORANGE": 5, "RED": 1, "GREEN": 1996, "CLU (IN HA": 315, "IND (IN HA": 92, "IND AREA %": 29, "layer": "ZONE_NON-CONFORMING", "path": "D:\/HARYANA INDUSTRIAL SURVEY PROJECT\/FARIDABAD SEC AND CLUS POLYGON\/ZONE_NON-CONFORMING.shp" }, "geometry": { "type": "MultiPolygon", "coordinates": [ [ [ [ 77.288289486959457, 28.344967547202572, 0.0 ], [ 77.289134374479573, 28.345247777476299, 0.0 ], [ 77.28991869065743, 28.34568005676822, 0.0 ], [ 77.290730214714145, 28.34626776120551, 0.0 ], [ 77.292010702416732, 28.347290636756199, 0.0 ], [ 77.291897430716887, 28.340588518592419, 0.0 ], [ 77.288500984057421, 28.33946712495089, 0.0 ], [ 77.288289486959457, 28.344967547202572, 0.0 ] ] ] ] } },
{ "type": "Feature", "properties": { "Name": "NAVLU COLONY", "ZONE": "NON-CONFORMING", "TOTAL IND": 71, "WHITE": 1, "ORANGE": 0, "RED": 0, "GREEN": 70, "CLU (IN HA": 30, "IND (IN HA": 4, "IND AREA %": 13, "layer": "ZONE_NON-CONFORMING", "path": "D:\/HARYANA INDUSTRIAL SURVEY PROJECT\/FARIDABAD SEC AND CLUS POLYGON\/ZONE_NON-CONFORMING.shp" }, "geometry": { "type": "MultiPolygon", "coordinates": [ [ [ [ 77.31327047461653, 28.340138994763791, 0.0 ], [ 77.316232270644335, 28.338999008890958, 0.0 ], [ 77.315818215316952, 28.337668895022212, 0.0 ], [ 77.315108847005021, 28.338154391020879, 0.0 ], [ 77.3147292109727, 28.337970707189811, 0.0 ], [ 77.313352907748026, 28.338904870026148, 0.0 ], [ 77.31327047461653, 28.340138994763791, 0.0 ] ] ] ] } },
{ "type": "Feature", "properties": { "Name": "BHAKHRI", "ZONE": "NON-CONFORMING", "TOTAL IND": 350, "WHITE": 20, "ORANGE": 9, "RED": 1, "GREEN": 320, "CLU (IN HA": 73, "IND (IN HA": 61, "IND AREA %": 84, "layer": "ZONE_NON-CONFORMING", "path": "D:\/HARYANA INDUSTRIAL SURVEY PROJECT\/FARIDABAD SEC AND CLUS POLYGON\/ZONE_NON-CONFORMING.shp" }, "geometry": { "type": "MultiPolygon", "coordinates": [ [ [ [ 77.262721773692789, 28.395532783331419, 0.0 ], [ 77.263030334175156, 28.396239683677191, 0.0 ], [ 77.263307228370593, 28.396627955361531, 0.0 ], [ 77.264002795026641, 28.397148037213359, 0.0 ], [ 77.26491555259021, 28.39761821600074, 0.0 ], [ 77.265432375066936, 28.397931109118289, 0.0 ], [ 77.266143945266123, 28.397479108269671, 0.0 ], [ 77.265829833281288, 28.397199404358808, 0.0 ], [ 77.264571536902338, 28.396349032987182, 0.0 ], [ 77.264287608683077, 28.39591832208929, 0.0 ], [ 77.265427908693525, 28.39458790135291, 0.0 ], [ 77.26465358488403, 28.394010047199931, 0.0 ], [ 77.266868902235657, 28.392281681967351, 0.0 ], [ 77.265425585694217, 28.390955180602301, 0.0 ], [ 77.264921226174138, 28.3915048287808, 0.0 ], [ 77.265235871667343, 28.391705381221129, 0.0 ], [ 77.264762374437623, 28.3921169519015, 0.0 ], [ 77.263624958313557, 28.39149848341436, 0.0 ], [ 77.263068350903737, 28.392112694463471, 0.0 ], [ 77.262438013097778, 28.391791170486659, 0.0 ], [ 77.261872598749505, 28.39249251128977, 0.0 ], [ 77.261236345871055, 28.393209002880411, 0.0 ], [ 77.261864212978836, 28.393653120985899, 0.0 ], [ 77.261758790274754, 28.39384168720478, 0.0 ], [ 77.262423403543934, 28.394199165876291, 0.0 ], [ 77.262332636882974, 28.394322040192939, 0.0 ], [ 77.262526195737493, 28.394408251196651, 0.0 ], [ 77.262314375612689, 28.394685619055, 0.0 ], [ 77.262546532640755, 28.394805152299529, 0.0 ], [ 77.2629221054721, 28.395108343357212, 0.0 ], [ 77.263056089939141, 28.395172390720941, 0.0 ], [ 77.262721773692789, 28.395532783331419, 0.0 ] ] ] ] } },
{ "type": "Feature", "properties": { "Name": "MALERNA ROAD", "ZONE": "NON-CONFORMING", "TOTAL IND": 210, "WHITE": 11, "ORANGE": 1, "RED": 0, "GREEN": 198, "CLU (IN HA": 63, "IND (IN HA": 27, "IND AREA %": 43, "layer": "ZONE_NON-CONFORMING", "path": "D:\/HARYANA INDUSTRIAL SURVEY PROJECT\/FARIDABAD SEC AND CLUS POLYGON\/ZONE_NON-CONFORMING.shp" }, "geometry": { "type": "MultiPolygon", "coordinates": [ [ [ [ 77.320649174757364, 28.322047762337728, 0.0 ], [ 77.322478190862739, 28.322024951619561, 0.0 ], [ 77.323981773261579, 28.322118798092419, 0.0 ], [ 77.324991235958223, 28.32215885477596, 0.0 ], [ 77.32556111462182, 28.32211558203646, 0.0 ], [ 77.325579325233875, 28.321767795854189, 0.0 ], [ 77.325536131916678, 28.320812204778122, 0.0 ], [ 77.32554335470239, 28.320464581272109, 0.0 ], [ 77.325528752283432, 28.320126817553358, 0.0 ], [ 77.324531303148049, 28.320163948290311, 0.0 ], [ 77.324521235656363, 28.319218089385199, 0.0 ], [ 77.325562090133886, 28.319151659271011, 0.0 ], [ 77.325501375287388, 28.31860205995196, 0.0 ], [ 77.324480079138439, 28.31852602613138, 0.0 ], [ 77.324391332407302, 28.31703700855887, 0.0 ], [ 77.320543103869142, 28.317312986710711, 0.0 ], [ 77.32072150788899, 28.319070693623161, 0.0 ], [ 77.321595034446716, 28.318922142789031, 0.0 ], [ 77.321660834720092, 28.32105420264222, 0.0 ], [ 77.321648904971127, 28.321311288924591, 0.0 ], [ 77.320409910109404, 28.321398206687981, 0.0 ], [ 77.320447085570905, 28.322065310463259, 0.0 ], [ 77.320649174757364, 28.322047762337728, 0.0 ] ] ] ] } },
{ "type": "Feature", "properties": { "Name": "BHUDATT COLONY", "ZONE": "NON-CONFORMING", "TOTAL IND": 1063, "WHITE": 57, "ORANGE": 5, "RED": 3, "GREEN": 998, "CLU (IN HA": 88, "IND (IN HA": 58, "IND AREA %": 66, "layer": "ZONE_NON-CONFORMING", "path": "D:\/HARYANA INDUSTRIAL SURVEY PROJECT\/FARIDABAD SEC AND CLUS POLYGON\/ZONE_NON-CONFORMING.shp" }, "geometry": { "type": "MultiPolygon", "coordinates": [ [ [ [ 77.327194547884233, 28.33960734329402, 0.0 ], [ 77.327570387126059, 28.340005315146382, 0.0 ], [ 77.328039996149542, 28.34023541439571, 0.0 ], [ 77.328381439254727, 28.34030980384598, 0.0 ], [ 77.328963188577958, 28.340764140129021, 0.0 ], [ 77.329412356125943, 28.34100766274705, 0.0 ], [ 77.329514431596664, 28.33927417694278, 0.0 ], [ 77.328176593477281, 28.339289790000539, 0.0 ], [ 77.327276791377116, 28.33939291922988, 0.0 ], [ 77.32711482128839, 28.3394846780925, 0.0 ], [ 77.327194547884233, 28.33960734329402, 0.0 ] ] ] ] } },
{ "type": "Feature", "properties": { "Name": "PIYALA ROAD", "ZONE": "NON-CONFORMING", "TOTAL IND": 135, "WHITE": 3, "ORANGE": 3, "RED": 0, "GREEN": 129, "CLU (IN HA": 33, "IND (IN HA": 8, "IND AREA %": 24, "layer": "ZONE_NON-CONFORMING", "path": "D:\/HARYANA INDUSTRIAL SURVEY PROJECT\/FARIDABAD SEC AND CLUS POLYGON\/ZONE_NON-CONFORMING.shp" }, "geometry": { "type": "MultiPolygon", "coordinates": [ [ [ [ 77.287818154221398, 28.273195119075488, 0.0 ], [ 77.289796863217944, 28.275923719468569, 0.0 ], [ 77.293925270117782, 28.27729751641548, 0.0 ], [ 77.297998106364844, 28.278309195615911, 0.0 ], [ 77.298130588098374, 28.280832099151532, 0.0 ], [ 77.299899564624965, 28.280379778059039, 0.0 ], [ 77.299470710551219, 28.270545691749621, 0.0 ], [ 77.299727512959464, 28.267676948894909, 0.0 ], [ 77.29115356446664, 28.27119948681408, 0.0 ], [ 77.290581829568055, 28.266367670065669, 0.0 ], [ 77.287182993614152, 28.266724235043661, 0.0 ], [ 77.287818154221398, 28.273195119075488, 0.0 ] ] ] ] } },
{ "type": "Feature", "properties": { "Name": "BAJRI", "ZONE": "NON-CONFORMING", "TOTAL IND": 108, "WHITE": 18, "ORANGE": 1, "RED": 0, "GREEN": 89, "CLU (IN HA": 5, "IND (IN HA": 3, "IND AREA %": 60, "layer": "ZONE_NON-CONFORMING", "path": "D:\/HARYANA INDUSTRIAL SURVEY PROJECT\/FARIDABAD SEC AND CLUS POLYGON\/ZONE_NON-CONFORMING.shp" }, "geometry": { "type": "MultiPolygon", "coordinates": [ [ [ [ 77.248552422440468, 28.38372287663497, 0.0 ], [ 77.251238664779535, 28.386876622506691, 0.0 ], [ 77.252598605878248, 28.38799581679524, 0.0 ], [ 77.25352881917199, 28.38856358142705, 0.0 ], [ 77.255084949979747, 28.387105708832859, 0.0 ], [ 77.255259888934887, 28.38678077422156, 0.0 ], [ 77.257170730646564, 28.38470833491418, 0.0 ], [ 77.256531104703583, 28.381483582125352, 0.0 ], [ 77.258985099516352, 28.37924131463533, 0.0 ], [ 77.253490645669359, 28.376698197961051, 0.0 ], [ 77.251034775247078, 28.380144647865801, 0.0 ], [ 77.248563833468211, 28.38363056201538, 0.0 ], [ 77.248552422440468, 28.38372287663497, 0.0 ] ] ] ] } },
{ "type": "Feature", "properties": { "Name": "NAVADA", "ZONE": "NON-CONFORMING", "TOTAL IND": 168, "WHITE": 4, "ORANGE": 0, "RED": 0, "GREEN": 164, "CLU (IN HA": 16, "IND (IN HA": 15, "IND AREA %": 94, "layer": "ZONE_NON-CONFORMING", "path": "D:\/HARYANA INDUSTRIAL SURVEY PROJECT\/FARIDABAD SEC AND CLUS POLYGON\/ZONE_NON-CONFORMING.shp" }, "geometry": { "type": "MultiPolygon", "coordinates": [ [ [ [ 77.257414971439786, 28.3848020364075, 0.0 ], [ 77.257869801769971, 28.385329361917609, 0.0 ], [ 77.258288840190545, 28.386119360617268, 0.0 ], [ 77.258728312267891, 28.387066901508369, 0.0 ], [ 77.26342675081159, 28.38711869433401, 0.0 ], [ 77.263872390965858, 28.383924187083711, 0.0 ], [ 77.265838762154431, 28.383793925139699, 0.0 ], [ 77.265758758186507, 28.381448373295321, 0.0 ], [ 77.265056061031487, 28.381288441472002, 0.0 ], [ 77.262092883920104, 28.38129888110559, 0.0 ], [ 77.262053467106455, 28.380695976755071, 0.0 ], [ 77.261643737561783, 28.380652489082699, 0.0 ], [ 77.259125815760655, 28.38013220088769, 0.0 ], [ 77.25759075239452, 28.380840948192159, 0.0 ], [ 77.257207143867021, 28.381657847200721, 0.0 ], [ 77.257000157468724, 28.38363263780067, 0.0 ], [ 77.257414971439786, 28.3848020364075, 0.0 ] ] ] ] } },
{ "type": "Feature", "properties": { "Name": "DABUA", "ZONE": "NON-CONFORMING", "TOTAL IND": 74, "WHITE": 3, "ORANGE": 0, "RED": 0, "GREEN": 71, "CLU (IN HA": 24, "IND (IN HA": 12, "IND AREA %": 50, "layer": "ZONE_NON-CONFORMING", "path": "D:\/HARYANA INDUSTRIAL SURVEY PROJECT\/FARIDABAD SEC AND CLUS POLYGON\/ZONE_NON-CONFORMING.shp" }, "geometry": { "type": "MultiPolygon", "coordinates": [ [ [ [ 77.270498497252106, 28.387935210565558, 0.0 ], [ 77.270690109475666, 28.388313329486419, 0.0 ], [ 77.271678003653889, 28.389315993138108, 0.0 ], [ 77.27281883740558, 28.390208338027112, 0.0 ], [ 77.273967721749685, 28.390298666895809, 0.0 ], [ 77.274752074475771, 28.389879708314758, 0.0 ], [ 77.275697620816871, 28.389204722410241, 0.0 ], [ 77.276287741350828, 28.389583149424009, 0.0 ], [ 77.276936372563057, 28.389879177957461, 0.0 ], [ 77.277472477007805, 28.388974100176, 0.0 ], [ 77.27831957584408, 28.388318763443909, 0.0 ], [ 77.278170481982599, 28.387928720870129, 0.0 ], [ 77.275433800674776, 28.387101206243081, 0.0 ], [ 77.275010300623293, 28.386861922059278, 0.0 ], [ 77.275488070100664, 28.386272916412238, 0.0 ], [ 77.274771795877683, 28.385877154796269, 0.0 ], [ 77.273897727387549, 28.385833357587991, 0.0 ], [ 77.273855747646351, 28.384729185971921, 0.0 ], [ 77.273132689164598, 28.384750904030149, 0.0 ], [ 77.272144007557742, 28.38504960254236, 0.0 ], [ 77.270666282076348, 28.385057921259719, 0.0 ], [ 77.270628440279182, 28.385774607510651, 0.0 ], [ 77.27029422894482, 28.385733275932619, 0.0 ], [ 77.270042397264206, 28.387220280655839, 0.0 ], [ 77.270411865609518, 28.387800051827259, 0.0 ], [ 77.270498497252106, 28.387935210565558, 0.0 ] ] ] ] } },
{ "type": "Feature", "properties": { "Name": "MAWAI VILLAGE", "ZONE": "NON-CONFORMING", "TOTAL IND": 160, "WHITE": 22, "ORANGE": 1, "RED": 0, "GREEN": 137, "CLU (IN HA": 27, "IND (IN HA": 19, "IND AREA %": 70, "layer": "ZONE_NON-CONFORMING", "path": "D:\/HARYANA INDUSTRIAL SURVEY PROJECT\/FARIDABAD SEC AND CLUS POLYGON\/ZONE_NON-CONFORMING.shp" }, "geometry": { "type": "MultiPolygon", "coordinates": [ [ [ [ 77.331462340265617, 28.435714076679162, 0.0 ], [ 77.331522779252225, 28.436623922174221, 0.0 ], [ 77.331826509906946, 28.436859465038069, 0.0 ], [ 77.333366310035814, 28.436898220214911, 0.0 ], [ 77.3336959451929, 28.436807144104709, 0.0 ], [ 77.333741820806338, 28.435820246630609, 0.0 ], [ 77.334380595990041, 28.435814872505251, 0.0 ], [ 77.334438069108728, 28.434801935983909, 0.0 ], [ 77.333041064794884, 28.434793993773031, 0.0 ], [ 77.333014499431101, 28.434720095164469, 0.0 ], [ 77.332367694367349, 28.43471663131589, 0.0 ], [ 77.332396910148603, 28.433930282495439, 0.0 ], [ 77.331730158374924, 28.433934954807349, 0.0 ], [ 77.330937097037108, 28.434022302473281, 0.0 ], [ 77.331011532884261, 28.434388580392319, 0.0 ], [ 77.331062882742415, 28.43475902000954, 0.0 ], [ 77.331309499633008, 28.43527017407142, 0.0 ], [ 77.331293270004608, 28.43551709605169, 0.0 ], [ 77.331323102938313, 28.43568676755676, 0.0 ], [ 77.331462340265617, 28.435714076679162, 0.0 ] ] ] ] } },
{ "type": "Feature", "properties": { "Name": "NIT 1", "ZONE": "NON-CONFORMING", "TOTAL IND": 10, "WHITE": 1, "ORANGE": 0, "RED": 0, "GREEN": 9, "CLU (IN HA": 3, "IND (IN HA": 1, "IND AREA %": 33, "layer": "ZONE_NON-CONFORMING", "path": "D:\/HARYANA INDUSTRIAL SURVEY PROJECT\/FARIDABAD SEC AND CLUS POLYGON\/ZONE_NON-CONFORMING.shp" }, "geometry": { "type": "MultiPolygon", "coordinates": [ [ [ [ 77.297756697466596, 28.377993230338411, 0.0 ], [ 77.297636153377468, 28.379405144375689, 0.0 ], [ 77.29749385604697, 28.381553298476071, 0.0 ], [ 77.297552150672416, 28.38281051418037, 0.0 ], [ 77.297922161108502, 28.383848041003318, 0.0 ], [ 77.298473107871672, 28.384973971357869, 0.0 ], [ 77.299785781695263, 28.386392391738259, 0.0 ], [ 77.300564172864512, 28.38745626873736, 0.0 ], [ 77.301156761328897, 28.388492628312459, 0.0 ], [ 77.301493729388397, 28.389708024600441, 0.0 ], [ 77.301772433567749, 28.390617716723028, 0.0 ], [ 77.301729904112563, 28.391475032810209, 0.0 ], [ 77.302119774175367, 28.391909620007841, 0.0 ], [ 77.305469043384605, 28.392066443985051, 0.0 ], [ 77.305691149161305, 28.39188554888711, 0.0 ], [ 77.305957376625571, 28.391979494501761, 0.0 ], [ 77.306173434043259, 28.39225116584517, 0.0 ], [ 77.308333771928929, 28.392280079557651, 0.0 ], [ 77.308548359003325, 28.389091202699259, 0.0 ], [ 77.308994480512197, 28.383276760577399, 0.0 ], [ 77.309324916680325, 28.378175728990168, 0.0 ], [ 77.30243496848199, 28.377879626384289, 0.0 ], [ 77.298113249589363, 28.377655546172811, 0.0 ], [ 77.297756697466596, 28.377993230338411, 0.0 ] ] ] ] } },
{ "type": "Feature", "properties": { "Name": "NIT 4", "ZONE": "NON-CONFORMING", "TOTAL IND": 58, "WHITE": 3, "ORANGE": 1, "RED": 2, "GREEN": 52, "CLU (IN HA": 145, "IND (IN HA": 25, "IND AREA %": 17, "layer": "ZONE_NON-CONFORMING", "path": "D:\/HARYANA INDUSTRIAL SURVEY PROJECT\/FARIDABAD SEC AND CLUS POLYGON\/ZONE_NON-CONFORMING.shp" }, "geometry": { "type": "MultiPolygon", "coordinates": [ [ [ [ 77.293679268489939, 28.40210014975321, 0.0 ], [ 77.293076889774909, 28.402395068144411, 0.0 ], [ 77.293512632346449, 28.403134729789041, 0.0 ], [ 77.293157473797265, 28.405183014937439, 0.0 ], [ 77.292851201807466, 28.407849580353439, 0.0 ], [ 77.292807574906547, 28.408461927615779, 0.0 ], [ 77.292433295815243, 28.409794372183189, 0.0 ], [ 77.293201546163559, 28.411412888076129, 0.0 ], [ 77.294143200558807, 28.412549067358029, 0.0 ], [ 77.294277474053033, 28.41294555002484, 0.0 ], [ 77.29552049853217, 28.41379117353959, 0.0 ], [ 77.296422083170526, 28.414208641925509, 0.0 ], [ 77.297573000704915, 28.414393734990352, 0.0 ], [ 77.298748598458744, 28.414559722622979, 0.0 ], [ 77.299666141369727, 28.414424835555231, 0.0 ], [ 77.300810004800709, 28.414056029724492, 0.0 ], [ 77.301905905792225, 28.413705162998301, 0.0 ], [ 77.303550924596578, 28.41286041806266, 0.0 ], [ 77.303938200263843, 28.412683362810881, 0.0 ], [ 77.304846016758091, 28.414183624750638, 0.0 ], [ 77.305614534815817, 28.41445591385925, 0.0 ], [ 77.30612359924821, 28.41144883540527, 0.0 ], [ 77.306373292875264, 28.408396365253331, 0.0 ], [ 77.30473807929468, 28.40712203810936, 0.0 ], [ 77.303179306127419, 28.40690648525673, 0.0 ], [ 77.301657393377738, 28.40616573648262, 0.0 ], [ 77.299456106673233, 28.404433365763271, 0.0 ], [ 77.298414198062275, 28.402204137176611, 0.0 ], [ 77.298000332765653, 28.40063481592572, 0.0 ], [ 77.297395820817115, 28.399647947456259, 0.0 ], [ 77.294436079912671, 28.401792712440528, 0.0 ], [ 77.293694894061474, 28.40221380556363, 0.0 ], [ 77.293679268489939, 28.40210014975321, 0.0 ] ] ] ] } },
{ "type": "Feature", "properties": { "Name": "NIT 5", "ZONE": "NON-CONFORMING", "TOTAL IND": 154, "WHITE": 5, "ORANGE": 3, "RED": 0, "GREEN": 146, "CLU (IN HA": 93, "IND (IN HA": 20, "IND AREA %": 22, "layer": "ZONE_NON-CONFORMING", "path": "D:\/HARYANA INDUSTRIAL SURVEY PROJECT\/FARIDABAD SEC AND CLUS POLYGON\/ZONE_NON-CONFORMING.shp" }, "geometry": { "type": "MultiPolygon", "coordinates": [ [ [ [ 77.297574199185618, 28.399378749603429, 0.0 ], [ 77.298346636673159, 28.400646301684159, 0.0 ], [ 77.298715461272536, 28.40230152212218, 0.0 ], [ 77.299141085198627, 28.40316194112031, 0.0 ], [ 77.299867223548645, 28.40415573345382, 0.0 ], [ 77.30079781431435, 28.405082821827541, 0.0 ], [ 77.301739634094133, 28.40585482782317, 0.0 ], [ 77.302914614933144, 28.406464132781888, 0.0 ], [ 77.303886945562013, 28.406809119080741, 0.0 ], [ 77.304834347696456, 28.406879786846989, 0.0 ], [ 77.305960809663688, 28.407876591020369, 0.0 ], [ 77.306471538597336, 28.40817713411062, 0.0 ], [ 77.307376515742618, 28.40822579743822, 0.0 ], [ 77.307545538903, 28.403575827093508, 0.0 ], [ 77.307849100367534, 28.39985339778303, 0.0 ], [ 77.307990400194953, 28.397506221411511, 0.0 ], [ 77.308117856852192, 28.395042453882681, 0.0 ], [ 77.308273177895416, 28.39249955990319, 0.0 ], [ 77.306306827011269, 28.392452259815681, 0.0 ], [ 77.305908953836692, 28.392761845503639, 0.0 ], [ 77.305586401326991, 28.39262768015973, 0.0 ], [ 77.305455169709759, 28.392289654717828, 0.0 ], [ 77.303473074331663, 28.392163648474298, 0.0 ], [ 77.301951184863498, 28.392101269898589, 0.0 ], [ 77.301736900503116, 28.393257713472739, 0.0 ], [ 77.3014467143053, 28.39454667925995, 0.0 ], [ 77.300961935248935, 28.395455444921971, 0.0 ], [ 77.300084622915293, 28.396908181312561, 0.0 ], [ 77.299252664048495, 28.39803237215947, 0.0 ], [ 77.298284016729554, 28.39889601010151, 0.0 ], [ 77.297633559096141, 28.399328636081691, 0.0 ], [ 77.297574199185618, 28.399378749603429, 0.0 ] ] ] ] } },
{ "type": "Feature", "properties": { "Name": "NIT 2", "ZONE": "NON-CONFORMING", "TOTAL IND": 132, "WHITE": 3, "ORANGE": 0, "RED": 0, "GREEN": 129, "CLU (IN HA": 63, "IND (IN HA": 17, "IND AREA %": 27, "layer": "ZONE_NON-CONFORMING", "path": "D:\/HARYANA INDUSTRIAL SURVEY PROJECT\/FARIDABAD SEC AND CLUS POLYGON\/ZONE_NON-CONFORMING.shp" }, "geometry": { "type": "MultiPolygon", "coordinates": [ [ [ [ 77.297114133627645, 28.377594915310649, 0.0 ], [ 77.293193575787043, 28.377388830822561, 0.0 ], [ 77.291701644474003, 28.377453040955022, 0.0 ], [ 77.290223109982051, 28.377786392690389, 0.0 ], [ 77.289008873620858, 28.378356045359791, 0.0 ], [ 77.287659774348114, 28.37915116910964, 0.0 ], [ 77.286682994848704, 28.380254195862008, 0.0 ], [ 77.286185885444525, 28.381324369695779, 0.0 ], [ 77.285970233816258, 28.382447965608922, 0.0 ], [ 77.285732021673937, 28.383603589998319, 0.0 ], [ 77.285389629668614, 28.386343470285532, 0.0 ], [ 77.284840631657261, 28.38989088321642, 0.0 ], [ 77.285043944333907, 28.390172995425829, 0.0 ], [ 77.285572121291921, 28.390444072069261, 0.0 ], [ 77.286022920163376, 28.390509090151649, 0.0 ], [ 77.286942854204867, 28.390439170226379, 0.0 ], [ 77.288474850229264, 28.390126969501161, 0.0 ], [ 77.289008261760728, 28.389912681754438, 0.0 ], [ 77.289709662989537, 28.389525654463611, 0.0 ], [ 77.290164126365951, 28.388920367991599, 0.0 ], [ 77.291120171839722, 28.38972409988347, 0.0 ], [ 77.292144951188305, 28.390398711287752, 0.0 ], [ 77.293135944349515, 28.391002392684818, 0.0 ], [ 77.293676486810682, 28.391541440276931, 0.0 ], [ 77.294104515368204, 28.392273425889421, 0.0 ], [ 77.294159191860416, 28.392929504184231, 0.0 ], [ 77.293776199892704, 28.393588818772589, 0.0 ], [ 77.293303174132078, 28.394191787313229, 0.0 ], [ 77.293034972808925, 28.39484249532779, 0.0 ], [ 77.292925484421829, 28.395420621907721, 0.0 ], [ 77.293113905903979, 28.396069706456188, 0.0 ], [ 77.293480037660061, 28.396647520893101, 0.0 ], [ 77.293942918992471, 28.396997740550621, 0.0 ], [ 77.295178918072438, 28.395744264447188, 0.0 ], [ 77.296940093041826, 28.39688758004257, 0.0 ], [ 77.298373389660014, 28.398510967213571, 0.0 ], [ 77.299635482491908, 28.3971750000368, 0.0 ], [ 77.300904019356153, 28.395134881375551, 0.0 ], [ 77.301411256805181, 28.393728465667142, 0.0 ], [ 77.301608060401819, 28.392384886763669, 0.0 ], [ 77.301351344654378, 28.392065417085561, 0.0 ], [ 77.301460910096822, 28.39190544220849, 0.0 ], [ 77.301494152142382, 28.390684338599218, 0.0 ], [ 77.301157340644068, 28.389554937820659, 0.0 ], [ 77.300971008897164, 28.3888717409842, 0.0 ], [ 77.300109990801843, 28.387437913644071, 0.0 ], [ 77.298785042804681, 28.38567116978863, 0.0 ], [ 77.298207445696505, 28.384892886494431, 0.0 ], [ 77.297377030919833, 28.38332618840089, 0.0 ], [ 77.297236136899457, 28.382142989283, 0.0 ], [ 77.297574245569493, 28.377978358236749, 0.0 ], [ 77.297114133627645, 28.377594915310649, 0.0 ] ] ] ] } },
{ "type": "Feature", "properties": { "Name": "NIT3", "ZONE": "NON-CONFORMING", "TOTAL IND": 359, "WHITE": 22, "ORANGE": 1, "RED": 1, "GREEN": 335, "CLU (IN HA": 38, "IND (IN HA": 20, "IND AREA %": 53, "layer": "ZONE_NON-CONFORMING", "path": "D:\/HARYANA INDUSTRIAL SURVEY PROJECT\/FARIDABAD SEC AND CLUS POLYGON\/ZONE_NON-CONFORMING.shp" }, "geometry": { "type": "MultiPolygon", "coordinates": [ [ [ [ 77.290184479783591, 28.389256564491589, 0.0 ], [ 77.289478961653217, 28.389929874696911, 0.0 ], [ 77.288361724372081, 28.390290859957162, 0.0 ], [ 77.287193261598418, 28.39057085922888, 0.0 ], [ 77.286096966421383, 28.39070106896834, 0.0 ], [ 77.285310590973864, 28.390646416605431, 0.0 ], [ 77.284864589023201, 28.39071857765796, 0.0 ], [ 77.284861497883981, 28.39107945157205, 0.0 ], [ 77.285526110192208, 28.392492634836739, 0.0 ], [ 77.286563388437983, 28.394319282117522, 0.0 ], [ 77.287402671057762, 28.393784554760781, 0.0 ], [ 77.288505777708991, 28.393577790474321, 0.0 ], [ 77.289492902728014, 28.393362527918271, 0.0 ], [ 77.290113038233002, 28.395599806788251, 0.0 ], [ 77.289019601186951, 28.396014526444219, 0.0 ], [ 77.287879474912145, 28.396631235859811, 0.0 ], [ 77.288678461715392, 28.397850076851949, 0.0 ], [ 77.290555146364468, 28.39916899540864, 0.0 ], [ 77.292056289729857, 28.400100507948149, 0.0 ], [ 77.293622154037138, 28.401940061004641, 0.0 ], [ 77.293794827042419, 28.401977912553178, 0.0 ], [ 77.295034976011678, 28.401237342816842, 0.0 ], [ 77.296405993022802, 28.400015169415639, 0.0 ], [ 77.297102496987463, 28.399443751166039, 0.0 ], [ 77.298292988863622, 28.398597072247028, 0.0 ], [ 77.296712818351509, 28.396912934332821, 0.0 ], [ 77.295221504537977, 28.39588045557289, 0.0 ], [ 77.294001309823614, 28.397060190092869, 0.0 ], [ 77.294018950596424, 28.397190460967281, 0.0 ], [ 77.293407659897113, 28.39681250942029, 0.0 ], [ 77.293066516440973, 28.396363287843918, 0.0 ], [ 77.292893268369156, 28.395964975541979, 0.0 ], [ 77.292782354757378, 28.39557102759041, 0.0 ], [ 77.29281637213019, 28.394727438691771, 0.0 ], [ 77.293142207260644, 28.39412487578268, 0.0 ], [ 77.293725423440478, 28.393448311112891, 0.0 ], [ 77.294035861420028, 28.39255072830171, 0.0 ], [ 77.293496549988106, 28.391576056742309, 0.0 ], [ 77.291807862430105, 28.390374910346029, 0.0 ], [ 77.290184479783591, 28.389256564491589, 0.0 ] ] ] ] } },
{ "type": "Feature", "properties": { "Name": "INDIRA COMPLEX", "ZONE": "NON-CONFORMING", "TOTAL IND": 17, "WHITE": 0, "ORANGE": 2, "RED": 0, "GREEN": 15, "CLU (IN HA": 9, "IND (IN HA": 2, "IND AREA %": 22, "layer": "ZONE_NON-CONFORMING", "path": "D:\/HARYANA INDUSTRIAL SURVEY PROJECT\/FARIDABAD SEC AND CLUS POLYGON\/ZONE_NON-CONFORMING.shp" }, "geometry": { "type": "MultiPolygon", "coordinates": [ [ [ [ 77.333965962606925, 28.416257716067889, 0.0 ], [ 77.338110556172097, 28.416286729575379, 0.0 ], [ 77.341255398633592, 28.416241735292122, 0.0 ], [ 77.341270910316837, 28.41493357476898, 0.0 ], [ 77.335339414382517, 28.4148710148005, 0.0 ], [ 77.334100962722218, 28.414901085280668, 0.0 ], [ 77.33407773799145, 28.414901266051888, 0.0 ], [ 77.333965962606925, 28.416257716067889, 0.0 ] ] ] ] } },
{ "type": "Feature", "properties": { "Name": "RAGHUBIR COLONY", "ZONE": "NON-CONFORMING", "TOTAL IND": 43, "WHITE": 5, "ORANGE": 1, "RED": 0, "GREEN": 37, "CLU (IN HA": 69, "IND (IN HA": 10, "IND AREA %": 14, "layer": "ZONE_NON-CONFORMING", "path": "D:\/HARYANA INDUSTRIAL SURVEY PROJECT\/FARIDABAD SEC AND CLUS POLYGON\/ZONE_NON-CONFORMING.shp" }, "geometry": { "type": "MultiPolygon", "coordinates": [ [ [ [ 77.330939595950682, 28.339755249095941, 0.0 ], [ 77.332859174640845, 28.339877970082469, 0.0 ], [ 77.33388978031374, 28.33915497006133, 0.0 ], [ 77.333410369989821, 28.33829707820119, 0.0 ], [ 77.332991751984991, 28.33851592312546, 0.0 ], [ 77.332840310608745, 28.3371903779015, 0.0 ], [ 77.33107714927101, 28.337041523161808, 0.0 ], [ 77.330820391987857, 28.33773238154523, 0.0 ], [ 77.330939595950682, 28.339755249095941, 0.0 ] ] ] ] } },
{ "type": "Feature", "properties": { "Name": "DLF Indstrial Area", "ZONE": "NON-CONFORMING", "TOTAL IND": 219, "WHITE": 12, "ORANGE": 1, "RED": 0, "GREEN": 206, "CLU (IN HA": 191, "IND (IN HA": 13, "IND AREA %": 7, "layer": "ZONE_NON-CONFORMING", "path": "D:\/HARYANA INDUSTRIAL SURVEY PROJECT\/FARIDABAD SEC AND CLUS POLYGON\/ZONE_NON-CONFORMING.shp" }, "geometry": { "type": "MultiPolygon", "coordinates": [ [ [ [ 77.306865998811446, 28.464360807063901, 0.0 ], [ 77.311226303381446, 28.464452397744221, 0.0 ], [ 77.311092823198521, 28.465675270924589, 0.0 ], [ 77.312515282391161, 28.465810192026929, 0.0 ], [ 77.315098808530877, 28.45472056982733, 0.0 ], [ 77.310364641259639, 28.45465787026539, 0.0 ], [ 77.307783332397833, 28.45309499275999, 0.0 ], [ 77.306865998811446, 28.464360807063901, 0.0 ] ] ] ] } },
{ "type": "Feature", "properties": { "Name": "Gurukul Inds area", "ZONE": "NON-CONFORMING", "TOTAL IND": 36, "WHITE": 4, "ORANGE": 0, "RED": 0, "GREEN": 32, "CLU (IN HA": 179, "IND (IN HA": 0, "IND AREA %": 0, "layer": "ZONE_NON-CONFORMING", "path": "D:\/HARYANA INDUSTRIAL SURVEY PROJECT\/FARIDABAD SEC AND CLUS POLYGON\/ZONE_NON-CONFORMING.shp" }, "geometry": { "type": "MultiPolygon", "coordinates": [ [ [ [ 77.297181025386067, 28.480633748822662, 0.0 ], [ 77.298370770196357, 28.480503594147919, 0.0 ], [ 77.299249653321567, 28.480320940717629, 0.0 ], [ 77.299489326367706, 28.48060527584612, 0.0 ], [ 77.299485895954774, 28.480855617365009, 0.0 ], [ 77.300691144856614, 28.480879904310768, 0.0 ], [ 77.301697492486596, 28.473107362185271, 0.0 ], [ 77.300648078476456, 28.472572147146579, 1.058861000463367 ], [ 77.300307282113522, 28.471615571558829, 1.308438999578357 ], [ 77.297893527812562, 28.47155925770025, 1.294758000411093 ], [ 77.294324710380195, 28.471537155627988, 0.0 ], [ 77.295396425278796, 28.476223952617978, 0.0 ], [ 77.295697700446382, 28.477435994593488, 0.0 ], [ 77.296072008040227, 28.47895083126587, 0.0 ], [ 77.297181025386067, 28.480633748822662, 0.0 ] ] ] ] } },
{ "type": "Feature", "properties": { "Name": "Krishna Colony", "ZONE": "NON-CONFORMING", "TOTAL IND": 77, "WHITE": 7, "ORANGE": 0, "RED": 0, "GREEN": 70, "CLU (IN HA": 163, "IND (IN HA": 6, "IND AREA %": 4, "layer": "ZONE_NON-CONFORMING", "path": "D:\/HARYANA INDUSTRIAL SURVEY PROJECT\/FARIDABAD SEC AND CLUS POLYGON\/ZONE_NON-CONFORMING.shp" }, "geometry": { "type": "MultiPolygon", "coordinates": [ [ [ [ 77.296333717720529, 28.341019884579321, 0.0 ], [ 77.298782751360463, 28.34113654715971, 0.0 ], [ 77.299741856675467, 28.34105142609268, 0.0 ], [ 77.300122434035615, 28.341920897878371, 0.0 ], [ 77.301895354614885, 28.342047942805468, 0.0 ], [ 77.302697279454065, 28.341929781048641, 0.0 ], [ 77.30245603455694, 28.333272074434898, 0.0 ], [ 77.299799046893327, 28.333366793798561, 0.0 ], [ 77.300058051575945, 28.334688852245439, 0.01218399964273 ], [ 77.29676868349793, 28.33474614968009, 0.0 ], [ 77.296333717720529, 28.341019884579321, 0.0 ] ] ] ] } },
{ "type": "Feature", "properties": { "Name": "Mujessar", "ZONE": "NON-CONFORMING", "TOTAL IND": 167, "WHITE": 14, "ORANGE": 0, "RED": 0, "GREEN": 153, "CLU (IN HA": 293, "IND (IN HA": 9, "IND AREA %": 3, "layer": "ZONE_NON-CONFORMING", "path": "D:\/HARYANA INDUSTRIAL SURVEY PROJECT\/FARIDABAD SEC AND CLUS POLYGON\/ZONE_NON-CONFORMING.shp" }, "geometry": { "type": "MultiPolygon", "coordinates": [ [ [ [ 77.298774331930588, 28.368641037293219, 0.0 ], [ 77.304298805557835, 28.368835874805558, 0.0 ], [ 77.304102545148282, 28.369846825199691, 0.0 ], [ 77.308232645909811, 28.370141857770609, 0.0 ], [ 77.309056102781824, 28.369390887516111, 0.0 ], [ 77.30942845529988, 28.3688831322747, 0.0 ], [ 77.309858038382302, 28.363627542144449, 0.0 ], [ 77.29945958159162, 28.363157606955351, 0.0 ], [ 77.298817957688016, 28.368530112096501, 0.0 ], [ 77.298774331930588, 28.368641037293219, 0.0 ] ] ] ] } },
{ "type": "Feature", "properties": { "Name": "Mujheri", "ZONE": "NON-CONFORMING", "TOTAL IND": 62, "WHITE": 5, "ORANGE": 0, "RED": 0, "GREEN": 57, "CLU (IN HA": 98, "IND (IN HA": 3, "IND AREA %": 3, "layer": "ZONE_NON-CONFORMING", "path": "D:\/HARYANA INDUSTRIAL SURVEY PROJECT\/FARIDABAD SEC AND CLUS POLYGON\/ZONE_NON-CONFORMING.shp" }, "geometry": { "type": "MultiPolygon", "coordinates": [ [ [ [ 77.345618431585024, 28.34877018596368, 0.0 ], [ 77.350189153610231, 28.348778363332659, 0.0 ], [ 77.349980750343718, 28.345650193279429, 0.0 ], [ 77.351423238211567, 28.344629344053779, 0.0 ], [ 77.353100624886238, 28.34326745633593, 0.0 ], [ 77.354796744424348, 28.341789748242459, 0.0 ], [ 77.354413152641769, 28.34146943615729, 0.0 ], [ 77.351763916361747, 28.34165037800107, 0.0 ], [ 77.351712662024624, 28.342062358852552, 0.0 ], [ 77.350795268339311, 28.342466267696189, 0.0 ], [ 77.350727346928082, 28.343983647587809, 0.0 ], [ 77.350019967874118, 28.34399783265982, 0.0 ], [ 77.349947165269128, 28.345227379796061, 0.0 ], [ 77.345787398406188, 28.345249630890489, 0.0 ], [ 77.345789270127028, 28.345198382417319, 0.0 ], [ 77.345618431585024, 28.34877018596368, 0.0 ] ] ] ] } },
{ "type": "Feature", "properties": { "Name": "New DLF", "ZONE": "NON-CONFORMING", "TOTAL IND": 49, "WHITE": 6, "ORANGE": 0, "RED": 0, "GREEN": 43, "CLU (IN HA": 14, "IND (IN HA": 11, "IND AREA %": 79, "layer": "ZONE_NON-CONFORMING", "path": "D:\/HARYANA INDUSTRIAL SURVEY PROJECT\/FARIDABAD SEC AND CLUS POLYGON\/ZONE_NON-CONFORMING.shp" }, "geometry": { "type": "MultiPolygon", "coordinates": [ [ [ [ 77.315245321100775, 28.454536987832729, 0.0 ], [ 77.315474719709016, 28.453436775098911, 0.0 ], [ 77.31576209513382, 28.45209179507815, 0.0 ], [ 77.315000539691354, 28.452084244361249, 0.0 ], [ 77.314216746757012, 28.452045121115709, 0.0 ], [ 77.313026068845986, 28.4520541812022, 0.0 ], [ 77.311023530450868, 28.451973236292741, 0.0 ], [ 77.310946671852633, 28.45459610492254, 0.0 ], [ 77.315245321100775, 28.454536987832729, 0.0 ] ] ] ] } },
{ "type": "Feature", "properties": { "Name": "Pali village", "ZONE": "NON-CONFORMING", "TOTAL IND": 91, "WHITE": 10, "ORANGE": 0, "RED": 0, "GREEN": 81, "CLU (IN HA": 9, "IND (IN HA": 7, "IND AREA %": 78, "layer": "ZONE_NON-CONFORMING", "path": "D:\/HARYANA INDUSTRIAL SURVEY PROJECT\/FARIDABAD SEC AND CLUS POLYGON\/ZONE_NON-CONFORMING.shp" }, "geometry": { "type": "MultiPolygon", "coordinates": [ [ [ [ 77.249492541233238, 28.391372853188422, 0.0 ], [ 77.24878965345512, 28.392413007651271, 0.0 ], [ 77.248763220632483, 28.393556958159671, 0.0 ], [ 77.248807609268852, 28.394321518129001, 0.0 ], [ 77.249799562864411, 28.394465381159939, 0.0 ], [ 77.250854975452654, 28.393742726147661, 0.0 ], [ 77.251292380053982, 28.392583610815549, 0.0 ], [ 77.251569014107957, 28.391525986840669, 0.0 ], [ 77.252275390857534, 28.39079479610302, 0.0 ], [ 77.253260941411796, 28.391086711604899, 0.0 ], [ 77.254094025785889, 28.390596277395609, 0.0 ], [ 77.255186934820017, 28.390785914176728, 0.0 ], [ 77.255449206417353, 28.390069657797479, 0.0 ], [ 77.253400165780931, 28.38874764225562, 0.0 ], [ 77.251820017063167, 28.387407592956539, 0.0 ], [ 77.250557576775421, 28.386055834409429, 0.0 ], [ 77.248462723602543, 28.38411028599462, 0.0 ], [ 77.24821958274336, 28.383724410302769, 0.0 ], [ 77.246253807313067, 28.3859384949907, 0.0 ], [ 77.245312810933569, 28.386961111056831, 0.0 ], [ 77.244952047813086, 28.38799477175812, 0.0 ], [ 77.244607343474541, 28.389142589746541, 0.0 ], [ 77.244557162537234, 28.389226607508551, 0.0 ], [ 77.249492541233238, 28.391372853188422, 0.0 ] ] ] ] } },
{ "type": "Feature", "properties": { "Name": "Sikri", "ZONE": "NON-CONFORMING", "TOTAL IND": 136, "WHITE": 7, "ORANGE": 8, "RED": 2, "GREEN": 119, "CLU (IN HA": 95, "IND (IN HA": 62, "IND AREA %": 65, "layer": "ZONE_NON-CONFORMING", "path": "D:\/HARYANA INDUSTRIAL SURVEY PROJECT\/FARIDABAD SEC AND CLUS POLYGON\/ZONE_NON-CONFORMING.shp" }, "geometry": { "type": "MultiPolygon", "coordinates": [ [ [ [ 77.26541294471518, 28.274665856143422, 0.0 ], [ 77.26570117096189, 28.27466725169792, 0.0 ], [ 77.269604490498224, 28.27431530747582, 0.0 ], [ 77.272597168562882, 28.27417360122115, 0.0 ], [ 77.272655953674189, 28.275384006142161, 0.0 ], [ 77.274604500022136, 28.275666639606548, 0.0 ], [ 77.27636108501251, 28.278349513268761, 0.0 ], [ 77.28179068744528, 28.27833561585404, 0.0 ], [ 77.282247261126273, 28.272268448527289, 0.0 ], [ 77.269925709238933, 28.272638534411001, 0.0 ], [ 77.26982473813095, 28.271135619385799, 0.0 ], [ 77.265415552001699, 28.27103599365946, 0.0 ], [ 77.26541294471518, 28.274665856143422, 0.0 ] ] ] ] } },
{ "type": "Feature", "properties": { "Name": "Jajru", "ZONE": "NON-CONFORMING", "TOTAL IND": 3, "WHITE": 0, "ORANGE": 0, "RED": 0, "GREEN": 3, "CLU (IN HA": 12, "IND (IN HA": 1, "IND AREA %": 8, "layer": "ZONE_NON-CONFORMING", "path": "D:\/HARYANA INDUSTRIAL SURVEY PROJECT\/FARIDABAD SEC AND CLUS POLYGON\/ZONE_NON-CONFORMING.shp" }, "geometry": { "type": "MultiPolygon", "coordinates": [ [ [ [ 77.309090818418738, 28.297534265472599, 0.0 ], [ 77.309554140104908, 28.29865143420016, 0.0 ], [ 77.311291017805161, 28.298585196295491, 0.0 ], [ 77.312441699236999, 28.2977831491534, 0.0 ], [ 77.312788084648687, 28.296298021787401, 0.0 ], [ 77.311647362855894, 28.29546475665461, 0.0 ], [ 77.309071813221991, 28.2966953946184, 0.0 ], [ 77.308658209244214, 28.297319939714029, 0.0 ], [ 77.309090818418738, 28.297534265472599, 0.0 ] ] ] ] } },
{ "type": "Feature", "properties": { "Name": "Shahupura", "ZONE": "NON-CONFORMING", "TOTAL IND": 31, "WHITE": 0, "ORANGE": 0, "RED": 0, "GREEN": 31, "CLU (IN HA": 78, "IND (IN HA": 3, "IND AREA %": 4, "layer": "ZONE_NON-CONFORMING", "path": "D:\/HARYANA INDUSTRIAL SURVEY PROJECT\/FARIDABAD SEC AND CLUS POLYGON\/ZONE_NON-CONFORMING.shp" }, "geometry": { "type": "MultiPolygon", "coordinates": [ [ [ [ 77.330342600510193, 28.302490329083, 0.0 ], [ 77.332526780155135, 28.302469793847489, 0.0 ], [ 77.332501632242938, 28.300937180475021, 0.0 ], [ 77.336118207721711, 28.30104294955332, 0.0 ], [ 77.337482443807616, 28.301139145383651, 0.0 ], [ 77.337612798996105, 28.302221423327911, 0.0 ], [ 77.339148515398279, 28.302198009921891, 0.0 ], [ 77.339323361479487, 28.301447569555091, 0.0 ], [ 77.338134366866441, 28.30051094924038, 0.0 ], [ 77.340730754695215, 28.293912763369491, 0.0 ], [ 77.340854285307088, 28.290129077162359, 0.0 ], [ 77.338571297069748, 28.28972877767777, 0.0 ], [ 77.335881159100239, 28.294882962486739, 0.0 ], [ 77.33518384756843, 28.29743337766693, 0.0 ], [ 77.333705501371185, 28.299319820992402, 0.0 ], [ 77.33066633892966, 28.299697195733511, 0.0 ], [ 77.329901430834667, 28.302067723627282, 0.0 ], [ 77.330342600510193, 28.302490329083, 0.0 ] ] ] ] } },
{ "type": "Feature", "properties": { "Name": "Karkhanabagh", "ZONE": "NON-CONFORMING", "TOTAL IND": 396, "WHITE": 31, "ORANGE": 3, "RED": 0, "GREEN": 362, "CLU (IN HA": 51, "IND (IN HA": 37, "IND AREA %": 73, "layer": "ZONE_NON-CONFORMING", "path": "D:\/HARYANA INDUSTRIAL SURVEY PROJECT\/FARIDABAD SEC AND CLUS POLYGON\/ZONE_NON-CONFORMING.shp" }, "geometry": { "type": "MultiPolygon", "coordinates": [ [ [ [ 77.30625069178295, 28.427174036876458, 0.0 ], [ 77.309292592341393, 28.42734122116638, 0.0 ], [ 77.310217887699238, 28.416201832901361, 0.0 ], [ 77.309131114190038, 28.415803732438711, 0.0 ], [ 77.308296289448734, 28.415467609861881, 0.0 ], [ 77.307369802578179, 28.41535202760414, 0.0 ], [ 77.307263578942184, 28.415368001876612, 0.0 ], [ 77.307200202922786, 28.415366444528491, 0.0 ], [ 77.306617807601711, 28.42098634401226, 0.0 ], [ 77.306189613049341, 28.427098115473079, 0.0 ], [ 77.30625069178295, 28.427174036876458, 0.0 ] ] ] ] } },
{ "type": "Feature", "properties": { "Name": "wpur_neharpar", "ZONE": "NON-CONFORMING", "TOTAL IND": 410, "WHITE": 45, "ORANGE": 2, "RED": 0, "GREEN": 363, "CLU (IN HA": 55, "IND (IN HA": 24, "IND AREA %": 44, "layer": "ZONE_NON-CONFORMING", "path": "D:\/HARYANA INDUSTRIAL SURVEY PROJECT\/FARIDABAD SEC AND CLUS POLYGON\/ZONE_NON-CONFORMING.shp" }, "geometry": { "type": "MultiPolygon", "coordinates": [ [ [ [ 77.333829628767234, 28.42877181669434, 0.0 ], [ 77.335998693805749, 28.428755698200462, 0.0 ], [ 77.338117587171681, 28.42889438329464, 0.0 ], [ 77.347161353629645, 28.429255045042389, 0.0 ], [ 77.347292445474864, 28.42597418513823, 0.0 ], [ 77.340288428692133, 28.42635827381666, -0.330741999670863 ], [ 77.338720895694635, 28.426724893651659, 0.0 ], [ 77.337291487289818, 28.426167780759531, 0.0 ], [ 77.33616420189216, 28.425463105138469, 0.0 ], [ 77.334024660067087, 28.424906873025801, 0.0 ], [ 77.333829628767234, 28.42877181669434, 0.0 ] ] ] ] } },
{ "type": "Feature", "properties": { "Name": "Badhkal extn", "ZONE": "NON-CONFORMING", "TOTAL IND": 209, "WHITE": 16, "ORANGE": 3, "RED": 0, "GREEN": 190, "CLU (IN HA": 33, "IND (IN HA": 13, "IND AREA %": 39, "layer": "ZONE_NON-CONFORMING", "path": "D:\/HARYANA INDUSTRIAL SURVEY PROJECT\/FARIDABAD SEC AND CLUS POLYGON\/ZONE_NON-CONFORMING.shp" }, "geometry": { "type": "MultiPolygon", "coordinates": [ [ [ [ 77.271012916634078, 28.40473852714587, 0.0 ], [ 77.271842431542609, 28.405370750658701, 0.0 ], [ 77.272000976551141, 28.40547907678091, 0.0 ], [ 77.272011948320056, 28.40589231792093, 0.0 ], [ 77.273878181287003, 28.406011495532759, 0.0 ], [ 77.273938891102702, 28.406634505012349, 0.0 ], [ 77.274957180043671, 28.406758723769471, 0.0 ], [ 77.275114310999868, 28.40797823541573, 0.0 ], [ 77.276352304765268, 28.40763660923195, 0.0 ], [ 77.276572392779926, 28.407414669452759, 0.0 ], [ 77.277222386416057, 28.407427576235062, 0.0 ], [ 77.277958920609152, 28.406933076317792, 0.0 ], [ 77.27882140733, 28.406386491958639, 0.0 ], [ 77.279738226473313, 28.406139137960761, 0.0 ], [ 77.280680721889354, 28.405853967913458, 0.0 ], [ 77.280769062938305, 28.405593449122371, 0.0 ], [ 77.279400049247016, 28.405329259925161, 0.0 ], [ 77.278032954450936, 28.404494082967648, 0.0 ], [ 77.277216421647424, 28.404196509119028, 0.0 ], [ 77.276376601768263, 28.404055095200999, 0.0 ], [ 77.274786636005302, 28.403522148582919, 0.0 ], [ 77.273227406670998, 28.403039918839731, 0.0 ], [ 77.272772342215831, 28.402863560781022, 0.0 ], [ 77.272555282921147, 28.40333184256826, 0.0 ], [ 77.27064511133166, 28.404332272046041, 0.0 ], [ 77.271012916634078, 28.40473852714587, 0.0 ] ] ] ] } },
{ "type": "Feature", "properties": { "Name": "Saroorpur", "ZONE": "NON-CONFORMING", "TOTAL IND": 171, "WHITE": 13, "ORANGE": 3, "RED": 0, "GREEN": 155, "CLU (IN HA": 20, "IND (IN HA": 12, "IND AREA %": 60, "layer": "ZONE_NON-CONFORMING", "path": "D:\/HARYANA INDUSTRIAL SURVEY PROJECT\/FARIDABAD SEC AND CLUS POLYGON\/ZONE_NON-CONFORMING.shp" }, "geometry": { "type": "MultiPolygon", "coordinates": [ [ [ [ 77.260140958442378, 28.356395122440791, 0.0 ], [ 77.26018751483376, 28.35808733841462, 0.0 ], [ 77.263509691934885, 28.358147186494861, 0.0 ], [ 77.263496315432647, 28.359738644707981, 0.0 ], [ 77.266352081720058, 28.360074908992718, 0.0 ], [ 77.269877068768807, 28.35719489842316, 0.0 ], [ 77.272452673728054, 28.35554735250113, 0.0 ], [ 77.274575136570434, 28.353781435658309, 0.0 ], [ 77.274977277512519, 28.353495573187789, 0.0 ], [ 77.278207903735321, 28.35221611041565, 0.0 ], [ 77.277980283111489, 28.345846292632149, 0.0 ], [ 77.273752088352595, 28.345871411395841, 0.0 ], [ 77.273707136530675, 28.34475182559973, 0.0 ], [ 77.274866416363935, 28.344649027586328, 0.0 ], [ 77.274881885691869, 28.34377446544006, 0.0 ], [ 77.272444096317074, 28.34396874341844, 0.0 ], [ 77.271958637334649, 28.34533941408737, 0.0 ], [ 77.266582515318547, 28.345415421877469, 0.0 ], [ 77.264229611462824, 28.343124668657921, 0.0 ], [ 77.262395640278299, 28.344119754161682, 0.0 ], [ 77.264898296447612, 28.346650061880329, 0.0 ], [ 77.263114600365228, 28.349113094903188, 0.0 ], [ 77.260510270939932, 28.349496714511229, 0.0 ], [ 77.260510830112622, 28.351162349867671, 0.0 ], [ 77.262550188510502, 28.35122023981366, 0.0 ], [ 77.262267287945136, 28.35499965367444, 0.0 ], [ 77.261284103849604, 28.35508688935381, 0.0 ], [ 77.261295138148682, 28.35646213938853, 0.0 ], [ 77.260140958442378, 28.356395122440791, 0.0 ] ] ] ] } },
{ "type": "Feature", "properties": { "Name": "Gazipur", "ZONE": "NON-CONFORMING", "TOTAL IND": 517, "WHITE": 33, "ORANGE": 615, "RED": 38, "GREEN": 1203, "CLU (IN HA": 261, "IND (IN HA": 200, "IND AREA %": 77, "layer": "ZONE_NON-CONFORMING", "path": "D:\/HARYANA INDUSTRIAL SURVEY PROJECT\/FARIDABAD SEC AND CLUS POLYGON\/ZONE_NON-CONFORMING.shp" }, "geometry": { "type": "MultiPolygon", "coordinates": [ [ [ [ 77.258183047447517, 28.369977783712748, 0.0 ], [ 77.257940243810069, 28.372103965383321, 0.0 ], [ 77.260122453766002, 28.372327078094379, 0.0 ], [ 77.26026639417411, 28.37288715201586, 0.0 ], [ 77.260985602720339, 28.372869862160272, 0.0 ], [ 77.261353661967945, 28.37097690309939, 0.0 ], [ 77.259802349350096, 28.370830160039091, 0.0 ], [ 77.259908296945866, 28.368555602798171, 0.0 ], [ 77.260754616223906, 28.36797115977674, 0.0 ], [ 77.260833496230646, 28.36874547656819, 0.0 ], [ 77.262212167144753, 28.36887581734797, 0.0 ], [ 77.262348547883761, 28.368394575951449, 0.0 ], [ 77.265699248979431, 28.36838780671291, 0.0 ], [ 77.265685158025917, 28.36755164629858, 0.0 ], [ 77.263333665307925, 28.36525162592838, 0.0 ], [ 77.263596787149325, 28.364050810051602, 0.0 ], [ 77.261335541318346, 28.363394295252998, 0.0 ], [ 77.259444675804133, 28.363504681671081, 0.0 ], [ 77.257234248243492, 28.364793585087909, 0.0 ], [ 77.255870867442511, 28.36595879321618, 0.0 ], [ 77.255789399083284, 28.366462081904938, 0.0 ], [ 77.25711978636393, 28.36854746777589, 0.0 ], [ 77.258183047447517, 28.369977783712748, 0.0 ] ] ] ] } }
]
}
