{
"type": "FeatureCollection",
"name": "panipat_sec",
"crs": { "type": "name", "properties": { "name": "urn:ogc:def:crs:EPSG::3857" } },
"features": [
{ "type": "Feature", "properties": { "SECTOR_NO": "31", "LANDUSE_DE": "RESIDENTIAL", "ZONE": "NON CONFORMING", "TOTAL IND": 25, "GREEN": 22, "ORANGE": 2, "RED": 0, "WHITE": 1, "SEC(IN HAC": 100.65, "IND(IN HAC": 3.15, "AREA(%AGE)": 3.13 }, "geometry": { "type": "MultiPolygon", "coordinates": [ [ [ [ 8569131.629942307248712, 3421403.325635409448296 ], [ 8569336.451096992939711, 3420579.085613103117794 ], [ 8568918.79859765432775, 3420495.423972762655467 ], [ 8568946.679464699700475, 3420142.813588449731469 ], [ 8568262.791793154552579, 3419788.707140078768134 ], [ 8568170.291896156966686, 3420046.385426187422127 ], [ 8568078.273786129429936, 3420386.360857399180532 ], [ 8567979.870968893170357, 3420776.692304769530892 ], [ 8567899.399445945397019, 3420963.125356358941644 ], [ 8569131.629942307248712, 3421403.325635409448296 ] ] ] ] } },
{ "type": "Feature", "properties": { "SECTOR_NO": "27", "LANDUSE_DE": "RESIDENTIAL", "ZONE": "NON CONFORMING", "TOTAL IND": 37, "GREEN": 34, "ORANGE": 0, "RED": 0, "WHITE": 3, "SEC(IN HAC": 43.25, "IND(IN HAC": 2.97, "AREA(%AGE)": 6.87 }, "geometry": { "type": "MultiPolygon", "coordinates": [ [ [ [ 8569115.112194571644068, 3421470.222860878333449 ], [ 8569123.371125780045986, 3421438.838923498988152 ], [ 8567891.140476401895285, 3421007.723509320057929 ], [ 8567808.551280532032251, 3421252.187465339899063 ], [ 8567796.800481742247939, 3422057.46760286623612 ], [ 8568204.979402776807547, 3422075.601541076786816 ], [ 8568201.675729045644403, 3421467.745219976641238 ], [ 8569115.112194571644068, 3421470.222860878333449 ] ] ] ] } },
{ "type": "Feature", "properties": { "SECTOR_NO": "40", "LANDUSE_DE": "RESIDENTIAL", "ZONE": "NON CONFORMING", "TOTAL IND": 36, "GREEN": 35, "ORANGE": 0, "RED": 0, "WHITE": 1, "SEC(IN HAC": 205.18, "IND(IN HAC": 22.36, "AREA(%AGE)": 10.9 }, "geometry": { "type": "MultiPolygon", "coordinates": [ [ [ [ 8569486.04074895940721, 3431848.792319984640926 ], [ 8568388.243069501593709, 3432171.747947884257883 ], [ 8568460.405177854001522, 3434738.423600600566715 ], [ 8568506.326444201171398, 3434790.905244417022914 ], [ 8568565.368257908150554, 3434820.426092392764986 ], [ 8568659.671002618968487, 3434807.305724629200995 ], [ 8569102.484037967398763, 3434336.611838106997311 ], [ 8569856.040334472432733, 3433745.039888356812298 ], [ 8569558.719250362366438, 3433295.754815869033337 ], [ 8569419.969475695863366, 3432892.719564327038825 ], [ 8569393.540927231311798, 3432291.470250639598817 ], [ 8569486.04074895940721, 3431848.792319984640926 ] ] ] ] } },
{ "type": "Feature", "properties": { "SECTOR_NO": "19-A", "LANDUSE_DE": "RESIDENTIAL", "ZONE": "NON CONFORMING", "TOTAL IND": 11, "GREEN": 6, "ORANGE": 0, "RED": 0, "WHITE": 5, "SEC(IN HAC": 103.39, "IND(IN HAC": 1.27, "AREA(%AGE)": 1.23 }, "geometry": { "type": "MultiPolygon", "coordinates": [ [ [ [ 8569981.575881496071815, 3433576.557962717954069 ], [ 8570425.18302290700376, 3432621.121316694188863 ], [ 8571002.480019692331553, 3431643.652549949008971 ], [ 8569621.559296546503901, 3431909.340266887564212 ], [ 8569557.067466931417584, 3432271.64881081553176 ], [ 8569571.933580135926604, 3432602.005602631252259 ], [ 8569657.826266376301646, 3433028.165729647502303 ], [ 8569789.969001829624176, 3433272.629784546792507 ], [ 8569981.575881496071815, 3433576.557962717954069 ] ] ] ] } },
{ "type": "Feature", "properties": { "SECTOR_NO": "19", "LANDUSE_DE": "RESIDENTIAL", "ZONE": "NON CONFORMING", "TOTAL IND": 68, "GREEN": 64, "ORANGE": 2, "RED": 0, "WHITE": 2, "SEC(IN HAC": 226.65, "IND(IN HAC": 7.64, "AREA(%AGE)": 3.37 }, "geometry": { "type": "MultiPolygon", "coordinates": [ [ [ [ 8571250.145759519189596, 3431402.810722217895091 ], [ 8571282.928281513974071, 3430884.310089031234384 ], [ 8571063.271084792912006, 3430391.675444519147277 ], [ 8570903.972931832075119, 3430136.253910028841347 ], [ 8570706.979335125535727, 3429920.342785083223134 ], [ 8570297.627431210130453, 3429440.943688718602061 ], [ 8570123.956472037360072, 3429222.069593090564013 ], [ 8569895.270780045539141, 3428983.33178277220577 ], [ 8569771.799400642514229, 3429500.781860144343227 ], [ 8569669.388778990134597, 3429844.352913074661046 ], [ 8569638.314608326181769, 3430250.072197138331831 ], [ 8569588.758341105654836, 3431751.89567236462608 ], [ 8571250.145759519189596, 3431402.810722217895091 ] ] ] ] } },
{ "type": "Feature", "properties": { "SECTOR_NO": "18", "LANDUSE_DE": "RESIDENTIAL", "ZONE": "NON CONFORMING", "TOTAL IND": 28, "GREEN": 27, "ORANGE": 0, "RED": 0, "WHITE": 1, "SEC(IN HAC": 124.88, "IND(IN HAC": 9.21, "AREA(%AGE)": 7.38 }, "geometry": { "type": "MultiPolygon", "coordinates": [ [ [ [ 8569499.564774474129081, 3431757.324729600455612 ], [ 8569550.770069776102901, 3430450.763945335056633 ], [ 8568302.02164757810533, 3430460.674603320192546 ], [ 8568388.740262627601624, 3431851.063544934149832 ], [ 8568516.166786247864366, 3431876.53941276203841 ], [ 8568830.592424634844065, 3431836.610304508823901 ], [ 8569228.672223323956132, 3431768.887261424679309 ], [ 8569499.564774474129081, 3431757.324729600455612 ] ] ] ] } },
{ "type": "Feature", "properties": { "SECTOR_NO": "18", "LANDUSE_DE": "RESIDENTIAL", "ZONE": "NON CONFORMING", "TOTAL IND": 28, "GREEN": 27, "ORANGE": 0, "RED": 0, "WHITE": 1, "SEC(IN HAC": 124.88, "IND(IN HAC": 9.21, "AREA(%AGE)": 7.38 }, "geometry": { "type": "MultiPolygon", "coordinates": [ [ [ [ 8569071.752757536247373, 3431854.780026160180569 ], [ 8568749.65505420230329, 3431907.637059807777405 ], [ 8568358.182273110374808, 3431915.895987406373024 ], [ 8568354.878706756979227, 3432076.119028213433921 ], [ 8569071.752757536247373, 3431854.780026160180569 ] ] ] ] } },
{ "type": "Feature", "properties": { "SECTOR_NO": "17", "LANDUSE_DE": "RESIDENTIAL", "ZONE": "NON CONFORMING", "TOTAL IND": 47, "GREEN": 39, "ORANGE": 2, "RED": 0, "WHITE": 6, "SEC(IN HAC": 90.56, "IND(IN HAC": 13.69, "AREA(%AGE)": 15.12 }, "geometry": { "type": "MultiPolygon", "coordinates": [ [ [ [ 8568833.895969875156879, 3430388.82212324347347 ], [ 8568828.940627545118332, 3429551.367741581052542 ], [ 8568819.029850518330932, 3429444.001866177655756 ], [ 8568249.164528656750917, 3429467.126830027904361 ], [ 8568295.414534294977784, 3430411.94694984331727 ], [ 8568833.895969875156879, 3430388.82212324347347 ] ] ] ] } },
{ "type": "Feature", "properties": { "SECTOR_NO": "17", "LANDUSE_DE": "RESIDENTIAL", "ZONE": "NON CONFORMING", "TOTAL IND": 47, "GREEN": 39, "ORANGE": 2, "RED": 0, "WHITE": 6, "SEC(IN HAC": 90.56, "IND(IN HAC": 13.69, "AREA(%AGE)": 15.12 }, "geometry": { "type": "MultiPolygon", "coordinates": [ [ [ [ 8568824.811142878606915, 3429403.533142169006169 ], [ 8568801.273221557959914, 3428497.529789746273309 ], [ 8568758.326805600896478, 3428379.840253030415624 ], [ 8568555.157473644241691, 3428275.777943171095103 ], [ 8568211.999432796612382, 3428115.554796491749585 ], [ 8568240.079733282327652, 3429411.791999405715615 ], [ 8568824.811142878606915, 3429403.533142169006169 ] ] ] ] } },
{ "type": "Feature", "properties": { "SECTOR_NO": "13", "LANDUSE_DE": "RESIDENTIAL", "ZONE": "NON CONFORMING", "TOTAL IND": 34, "GREEN": 31, "ORANGE": 0, "RED": 0, "WHITE": 3, "SEC(IN HAC": 86.37, "IND(IN HAC": 3.27, "AREA(%AGE)": 3.79 }, "geometry": { "type": "MultiPolygon", "coordinates": [ [ [ [ 8569565.636075450107455, 3430384.692562250886112 ], [ 8569596.607043599709868, 3429806.155305427499115 ], [ 8569702.321164103224874, 3429433.678139467723668 ], [ 8568881.797672640532255, 3429442.349983287509531 ], [ 8568876.842305021360517, 3429704.983670176006854 ], [ 8568891.708473024889827, 3430402.862111766356975 ], [ 8569565.636075450107455, 3430384.692562250886112 ] ] ] ] } },
{ "type": "Feature", "properties": { "SECTOR_NO": "13", "LANDUSE_DE": "RESIDENTIAL", "ZONE": "NON CONFORMING", "TOTAL IND": 34, "GREEN": 31, "ORANGE": 0, "RED": 0, "WHITE": 3, "SEC(IN HAC": 86.37, "IND(IN HAC": 3.27, "AREA(%AGE)": 3.79 }, "geometry": { "type": "MultiPolygon", "coordinates": [ [ [ [ 8569704.385970029979944, 3429384.124645029660314 ], [ 8569813.403697405010462, 3428954.248064028099179 ], [ 8569730.814518285915256, 3428896.435488949995488 ], [ 8569639.966383934020996, 3428850.185579465702176 ], [ 8569189.442410616204143, 3428592.094368532299995 ], [ 8568827.701780145987868, 3428406.268668533768505 ], [ 8568865.69288001768291, 3429035.59834132483229 ], [ 8569440.513578027486801, 3429020.732255090493709 ], [ 8569447.120627330616117, 3429395.687132468447089 ], [ 8569704.385970029979944, 3429384.124645029660314 ] ] ] ] } },
{ "type": "Feature", "properties": { "SECTOR_NO": "14", "LANDUSE_DE": "RESIDENTIAL", "ZONE": "NON CONFORMING", "TOTAL IND": 71, "GREEN": 64, "ORANGE": 1, "RED": 0, "WHITE": 6, "SEC(IN HAC": 115.62, "IND(IN HAC": 14.95, "AREA(%AGE)": 12.93 }, "geometry": { "type": "MultiPolygon", "coordinates": [ [ [ [ 8569868.953775860369205, 3428909.363200219813734 ], [ 8570215.303282449021935, 3428603.863320840056986 ], [ 8570434.164549080654979, 3428393.260947632137686 ], [ 8570622.467866638675332, 3428153.752280964050442 ], [ 8570847.110435070469975, 3427792.837589897215366 ], [ 8569397.670305177569389, 3427381.543455903418362 ], [ 8569135.862709131091833, 3428513.841188483405858 ], [ 8569499.817652773112059, 3428718.372951964847744 ], [ 8569753.354415075853467, 3428847.933588207699358 ], [ 8569868.953775860369205, 3428909.363200219813734 ] ] ] ] } },
{ "type": "Feature", "properties": { "SECTOR_NO": "09", "LANDUSE_DE": "RESIDENTIAL", "ZONE": "NON CONFORMING", "TOTAL IND": 353, "GREEN": 294, "ORANGE": 5, "RED": 0, "WHITE": 54, "SEC(IN HAC": 145.21, "IND(IN HAC": 14.64, "AREA(%AGE)": 10.08 }, "geometry": { "type": "MultiPolygon", "coordinates": [ [ [ [ 8569076.860812740400434, 3428502.156424140557647 ], [ 8569590.507771169766784, 3426275.635483026504517 ], [ 8569303.801345350220799, 3426196.128927863202989 ], [ 8569240.696380283683538, 3426268.867172995116562 ], [ 8569081.817065579816699, 3426339.092388545162976 ], [ 8568900.599710144102573, 3426495.87751192972064 ], [ 8568684.19994055852294, 3426705.715482051484287 ], [ 8568477.701042057946324, 3426933.490782570559531 ], [ 8568153.054850092157722, 3426937.213789359200746 ], [ 8568198.888435915112495, 3428046.79929152643308 ], [ 8568519.334342146292329, 3428182.245526026468724 ], [ 8569076.860812740400434, 3428502.156424140557647 ] ] ] ] } },
{ "type": "Feature", "properties": { "SECTOR_NO": "15", "LANDUSE_DE": "RESIDENTIAL", "ZONE": "NON CONFORMING", "TOTAL IND": 270, "GREEN": 256, "ORANGE": 2, "RED": 0, "WHITE": 12, "SEC(IN HAC": 139.49, "IND(IN HAC": 15.17, "AREA(%AGE)": 10.88 }, "geometry": { "type": "MultiPolygon", "coordinates": [ [ [ [ 8570864.454141017049551, 3427761.453683348372579 ], [ 8571128.739641515538096, 3426491.232196963392198 ], [ 8569867.602779174223542, 3426212.906637170352042 ], [ 8569654.522717328742146, 3426312.013664549682289 ], [ 8569410.058674933388829, 3427328.686400667298585 ], [ 8570864.454141017049551, 3427761.453683348372579 ] ] ] ] } },
{ "type": "Feature", "properties": { "SECTOR_NO": "16", "LANDUSE_DE": "RESIDENTIAL", "ZONE": "NON CONFORMING", "TOTAL IND": 380, "GREEN": 368, "ORANGE": 5, "RED": 0, "WHITE": 7, "SEC(IN HAC": 94.58, "IND(IN HAC": 23.37, "AREA(%AGE)": 24.71 }, "geometry": { "type": "MultiPolygon", "coordinates": [ [ [ [ 8571145.670407259836793, 3426414.837206509895623 ], [ 8571104.619328372180462, 3425985.083121066913009 ], [ 8570917.515369018539786, 3425206.178514200262725 ], [ 8570837.656873403117061, 3425221.815142712090164 ], [ 8570832.781278250738978, 3425438.946968932170421 ], [ 8570783.579893831163645, 3425584.911256688181311 ], [ 8570732.738453906029463, 3425739.075726324692369 ], [ 8570655.65613298304379, 3425875.199800363741815 ], [ 8570572.013676673173904, 3425983.44300835672766 ], [ 8570498.211473874747753, 3426035.924545080401003 ], [ 8570378.488005839288235, 3426103.16648544697091 ], [ 8570025.761074183508754, 3426180.283839515410364 ], [ 8571145.670407259836793, 3426414.837206509895623 ] ] ] ] } },
{ "type": "Feature", "properties": { "SECTOR_NO": "16", "LANDUSE_DE": "RESIDENTIAL", "ZONE": "NON CONFORMING", "TOTAL IND": 380, "GREEN": 368, "ORANGE": 5, "RED": 0, "WHITE": 7, "SEC(IN HAC": 94.58, "IND(IN HAC": 23.37, "AREA(%AGE)": 24.71 }, "geometry": { "type": "MultiPolygon", "coordinates": [ [ [ [ 8569958.863937307149172, 3426138.163361282553524 ], [ 8570072.630504727363586, 3426130.523892191704363 ], [ 8570189.081227753311396, 3426101.617707593832165 ], [ 8570325.146851079538465, 3426059.497212622314692 ], [ 8570411.659067440778017, 3426029.764977757818997 ], [ 8570484.337562056258321, 3425980.005036358255893 ], [ 8570575.1856630127877, 3425889.156937387771904 ], [ 8570645.386428998783231, 3425786.540000717155635 ], [ 8570680.073876427486539, 3425707.047948450315744 ], [ 8570719.716591339558363, 3425621.155125153716654 ], [ 8570751.926498372107744, 3425537.533528212457895 ], [ 8570784.962232330814004, 3425391.970093773212284 ], [ 8570799.002269772812724, 3425238.354294575750828 ], [ 8570589.22573040612042, 3425275.519413556437939 ], [ 8570261.759666133671999, 3425239.180153843481094 ], [ 8570132.096281517297029, 3425235.340314585249871 ], [ 8570045.173645602539182, 3425225.500064755789936 ], [ 8569864.299214066937566, 3425232.573021215386689 ], [ 8569650.44818046875298, 3426206.387556758709252 ], [ 8569688.795150389894843, 3426244.362226002383977 ], [ 8569815.158764522522688, 3426143.118714358657598 ], [ 8569808.55155086889863, 3426133.208093758206815 ], [ 8569958.863937307149172, 3426138.163361282553524 ] ] ] ] } },
{ "type": "Feature", "properties": { "SECTOR_NO": "23", "LANDUSE_DE": "RESIDENTIAL", "ZONE": "NON CONFORMING", "TOTAL IND": 99, "GREEN": 92, "ORANGE": 1, "RED": 0, "WHITE": 6, "SEC(IN HAC": 148.27, "IND(IN HAC": 18.72, "AREA(%AGE)": 12.63 }, "geometry": { "type": "MultiPolygon", "coordinates": [ [ [ [ 8572222.117095924913883, 3424730.637292185798287 ], [ 8572152.153952995315194, 3424261.794966191984713 ], [ 8572125.913119740784168, 3423996.10721498914063 ], [ 8572085.019103359431028, 3422615.528330564964563 ], [ 8570869.306331505998969, 3423206.866908254101872 ], [ 8571531.671641614288092, 3424998.226179676130414 ], [ 8571809.171298410743475, 3424834.699656498618424 ], [ 8572222.117095924913883, 3424730.637292185798287 ] ] ] ] } },
{ "type": "Feature", "properties": { "SECTOR_NO": "24", "LANDUSE_DE": "RESIDENTIAL", "ZONE": "NON CONFORMING", "TOTAL IND": 32, "GREEN": 25, "ORANGE": 2, "RED": 0, "WHITE": 5, "SEC(IN HAC": 74.96, "IND(IN HAC": 3.04, "AREA(%AGE)": 4.06 }, "geometry": { "type": "MultiPolygon", "coordinates": [ [ [ [ 8571488.725241208449006, 3425023.828838672023267 ], [ 8570824.708231689408422, 3423266.331087857950479 ], [ 8570332.476594038307667, 3423507.491516206413507 ], [ 8570956.850869115442038, 3425136.150170388165861 ], [ 8571273.993313569575548, 3425106.41798387048766 ], [ 8571488.725241208449006, 3425023.828838672023267 ] ] ] ] } },
{ "type": "Feature", "properties": { "SECTOR_NO": "12", "LANDUSE_DE": "RESIDENTIAL", "ZONE": "NON CONFORMING", "TOTAL IND": 67, "GREEN": 65, "ORANGE": 1, "RED": 0, "WHITE": 1, "SEC(IN HAC": 75.65, "IND(IN HAC": 6.92, "AREA(%AGE)": 9.15 }, "geometry": { "type": "MultiPolygon", "coordinates": [ [ [ [ 8570902.342018354684114, 3425155.971488024573773 ], [ 8570275.077222598716617, 3423541.146592864301056 ], [ 8569865.641301238909364, 3423732.753455057740211 ], [ 8569613.124861652031541, 3423845.281244575977325 ], [ 8569483.459849074482918, 3423865.102606303989887 ], [ 8569318.281447026878595, 3423834.544637171551585 ], [ 8569333.973445229232311, 3423861.38615425536409 ], [ 8569367.009108806028962, 3423945.627038747537881 ], [ 8569441.339418277144432, 3424056.296650370117277 ], [ 8569500.8036233112216, 3424172.334376093000174 ], [ 8569604.338792497292161, 3424301.976097612641752 ], [ 8569809.274207644164562, 3424534.48795991204679 ], [ 8570075.211353838443756, 3424641.853796497918665 ], [ 8570499.306831810623407, 3424815.703892602119595 ], [ 8570773.50282328762114, 3425008.962884386070073 ], [ 8570830.070010447874665, 3425170.689250031951815 ], [ 8570902.342018354684114, 3425155.971488024573773 ] ] ] ] } },
{ "type": "Feature", "properties": { "SECTOR_NO": "25-II", "LANDUSE_DE": "RESIDENTIAL", "ZONE": "NON CONFORMING", "TOTAL IND": 15, "GREEN": 11, "ORANGE": 0, "RED": 0, "WHITE": 4, "SEC(IN HAC": 30.52, "IND(IN HAC": 0.38, "AREA(%AGE)": 1.25 }, "geometry": { "type": "MultiPolygon", "coordinates": [ [ [ [ 8570240.389797903597355, 3423472.391068246681243 ], [ 8569997.267800312489271, 3422829.021412786096334 ], [ 8569487.176357924938202, 3423019.802376339677721 ], [ 8569726.684937989339232, 3423737.295855456963181 ], [ 8570240.389797903597355, 3423472.391068246681243 ] ] ] ] } },
{ "type": "Feature", "properties": { "SECTOR_NO": "11", "LANDUSE_DE": "RESIDENTIAL", "ZONE": "NON CONFORMING", "TOTAL IND": 35, "GREEN": 24, "ORANGE": 1, "RED": 0, "WHITE": 10, "SEC(IN HAC": 48.81, "IND(IN HAC": 1.39, "AREA(%AGE)": 2.85 }, "geometry": { "type": "MultiPolygon", "coordinates": [ [ [ [ 8570788.781897440552711, 3425197.472701127175242 ], [ 8570730.969475898891687, 3425060.374546666629612 ], [ 8570529.451867265626788, 3424911.714020985178649 ], [ 8570100.401093674823642, 3424708.131672432646155 ], [ 8569801.841173665598035, 3424611.915342294611037 ], [ 8569443.817152794450521, 3424216.725970083847642 ], [ 8569354.620799919590354, 3424042.875895468518138 ], [ 8569263.772610228508711, 3423836.402939530089498 ], [ 8569263.772610228508711, 3423836.402939530089498 ], [ 8569024.991787409409881, 3423792.741169690154493 ], [ 8568952.829624071717262, 3423784.540935422293842 ], [ 8568905.073922613635659, 3423769.348692738916725 ], [ 8568892.8397052641958, 3423900.345519976690412 ], [ 8568906.645528074353933, 3424051.587696432135999 ], [ 8568950.214662490412593, 3424148.206047560553998 ], [ 8569185.7378393355757, 3424183.28271282510832 ], [ 8569306.043838715180755, 3424251.599659795407206 ], [ 8569374.225518004968762, 3424345.359604213386774 ], [ 8569397.637348525226116, 3424446.684716236311942 ], [ 8569397.242014760151505, 3424539.425135762896389 ], [ 8569492.72140901722014, 3424875.094345670193434 ], [ 8569663.0361602101475, 3424959.216828844510019 ], [ 8569860.997042875736952, 3424986.256578769069165 ], [ 8570087.810507602989674, 3424971.631709239445627 ], [ 8570219.243162313476205, 3424990.127002317924052 ], [ 8570332.166044561192393, 3425087.816358330193907 ], [ 8570361.159179233014584, 3425153.119977659080178 ], [ 8570357.593300692737103, 3425214.971653348300606 ], [ 8570587.264310201629996, 3425225.552970159798861 ], [ 8570788.781897440552711, 3425197.472701127175242 ] ] ] ] } },
{ "type": "Feature", "properties": { "SECTOR_NO": "26", "LANDUSE_DE": "RESIDENTIAL", "ZONE": "NON CONFORMING", "TOTAL IND": 96, "GREEN": 88, "ORANGE": 3, "RED": 0, "WHITE": 5, "SEC(IN HAC": 21.84, "IND(IN HAC": 3.97, "AREA(%AGE)": 18.18 }, "geometry": { "type": "MultiPolygon", "coordinates": [ [ [ [ 8567966.707394160330296, 3424046.196322204079479 ], [ 8568039.748754825443029, 3423865.533842168282717 ], [ 8568150.201913485303521, 3423759.422761455178261 ], [ 8568221.425748029723763, 3423690.998135204426944 ], [ 8568257.436932073906064, 3423664.168243840802461 ], [ 8568334.389258725568652, 3423612.804253951646388 ], [ 8568381.191326353698969, 3423581.564650110434741 ], [ 8568432.772913105785847, 3423547.134477355051786 ], [ 8567687.006370091810822, 3423321.555164169985801 ], [ 8567682.0510443598032, 3423847.235367684159428 ], [ 8567756.822218254208565, 3423920.06581908185035 ], [ 8567874.484322305768728, 3424006.02637784788385 ], [ 8567939.729330291971564, 3424025.628263369202614 ], [ 8567966.707394160330296, 3424046.196322204079479 ] ] ] ] } },
{ "type": "Feature", "properties": { "SECTOR_NO": "01", "LANDUSE_DE": "RESIDENTIAL", "ZONE": "NON CONFORMING", "TOTAL IND": 241, "GREEN": 224, "ORANGE": 3, "RED": 0, "WHITE": 14, "SEC(IN HAC": 96.81, "IND(IN HAC": 8.99, "AREA(%AGE)": 9.29 }, "geometry": { "type": "MultiPolygon", "coordinates": [ [ [ [ 8566022.244269475340843, 3425792.232137494254857 ], [ 8566201.174986118450761, 3425208.40293481387198 ], [ 8566243.905815955251455, 3425057.261748432181776 ], [ 8566291.679490132257342, 3424959.813789777923375 ], [ 8566325.921073071658611, 3424892.777821487281471 ], [ 8566652.774360409006476, 3424175.618271675426513 ], [ 8565853.341922428458929, 3423800.906333054415882 ], [ 8565716.242197439074516, 3424384.208421657327563 ], [ 8565462.283029869198799, 3425760.075276071205735 ], [ 8565733.232946461066604, 3425737.20010391343385 ], [ 8566022.244269475340843, 3425792.232137494254857 ] ] ] ] } },
{ "type": "Feature", "properties": { "SECTOR_NO": "01-A", "LANDUSE_DE": "RESIDENTIAL", "ZONE": "NON CONFORMING", "TOTAL IND": 92, "GREEN": 85, "ORANGE": 1, "RED": 0, "WHITE": 6, "SEC(IN HAC": 104.83, "IND(IN HAC": 18.21, "AREA(%AGE)": 17.37 }, "geometry": { "type": "MultiPolygon", "coordinates": [ [ [ [ 8565385.206289729103446, 3425757.509612263645977 ], [ 8565547.835152478888631, 3424881.621661155018955 ], [ 8565759.263223867863417, 3423777.817440102808177 ], [ 8565504.888489281758666, 3423599.424848745111376 ], [ 8565456.987005341798067, 3423886.835126004181802 ], [ 8565311.63010092638433, 3424553.329756065737456 ], [ 8565232.344467693939805, 3424910.940805287566036 ], [ 8565171.228701122105122, 3425256.576536028180271 ], [ 8565076.890529587864876, 3425770.994362654630095 ], [ 8565385.206289729103446, 3425757.509612263645977 ] ] ] ] } },
{ "type": "Feature", "properties": { "SECTOR_NO": "01-A", "LANDUSE_DE": "RESIDENTIAL", "ZONE": "NON CONFORMING", "TOTAL IND": 92, "GREEN": 85, "ORANGE": 1, "RED": 0, "WHITE": 6, "SEC(IN HAC": 104.83, "IND(IN HAC": 18.21, "AREA(%AGE)": 17.37 }, "geometry": { "type": "MultiPolygon", "coordinates": [ [ [ [ 8564995.428646571934223, 3425731.696398322004825 ], [ 8565081.320890035480261, 3425394.732309257145971 ], [ 8565127.570530949160457, 3425162.656549112871289 ], [ 8565213.46258863247931, 3424735.670303472783417 ], [ 8565282.837236361578107, 3424444.956163152586669 ], [ 8565342.300854299217463, 3424091.474203729070723 ], [ 8565406.639003714546561, 3423570.99249975848943 ], [ 8565336.844465918838978, 3423541.158729668240994 ], [ 8565268.311779230833054, 3423479.148669040296227 ], [ 8565166.655036279931664, 3423422.177113206125796 ], [ 8565035.048044167459011, 3423353.663844631519169 ], [ 8564814.72049161978066, 3423234.473280261736363 ], [ 8564995.428646571934223, 3425731.696398322004825 ] ] ] ] } },
{ "type": "Feature", "properties": { "SECTOR_NO": "08", "LANDUSE_DE": "RESIDENTIAL", "ZONE": "NON CONFORMING", "TOTAL IND": 8, "GREEN": 8, "ORANGE": 0, "RED": 0, "WHITE": 0, "SEC(IN HAC": 62.48, "IND(IN HAC": 9.76, "AREA(%AGE)": 15.62 }, "geometry": { "type": "MultiPolygon", "coordinates": [ [ [ [ 8568278.89675784483552, 3432069.511802301742136 ], [ 8568202.914618387818336, 3430463.152322776149958 ], [ 8567710.683131910860538, 3430482.97364988271147 ], [ 8567797.620567975565791, 3432241.040106771979481 ], [ 8568278.89675784483552, 3432069.511802301742136 ] ] ] ] } },
{ "type": "Feature", "properties": { "SECTOR_NO": "07", "LANDUSE_DE": "RESIDENTIAL", "ZONE": "NON CONFORMING", "TOTAL IND": 8, "GREEN": 8, "ORANGE": 0, "RED": 0, "WHITE": 0, "SEC(IN HAC": 49.67, "IND(IN HAC": 2.85, "AREA(%AGE)": 5.74 }, "geometry": { "type": "MultiPolygon", "coordinates": [ [ [ [ 8568199.198104072362185, 3430387.996210843324661 ], [ 8568146.341077897697687, 3429045.09599062660709 ], [ 8567647.502398062497377, 3429078.131672673858702 ], [ 8567710.270131638273597, 3430391.299738312605768 ], [ 8568199.198104072362185, 3430387.996210843324661 ] ] ] ] } },
{ "type": "Feature", "properties": { "SECTOR_NO": "06", "LANDUSE_DE": "RESIDENTIAL", "ZONE": "NON CONFORMING", "TOTAL IND": 4, "GREEN": 4, "ORANGE": 0, "RED": 0, "WHITE": 0, "SEC(IN HAC": 46.44, "IND(IN HAC": 1.57, "AREA(%AGE)": 3.38 }, "geometry": { "type": "MultiPolygon", "coordinates": [ [ [ [ 8567972.593998856842518, 3429005.659729012288153 ], [ 8567959.379767255857587, 3428766.564098734408617 ], [ 8568000.46389183588326, 3428718.556538995821029 ], [ 8568086.331133861094713, 3428669.839108822867274 ], [ 8568133.292948767542839, 3428663.476142086554319 ], [ 8568127.861699268221855, 3428340.403958520852029 ], [ 8567927.184386374428868, 3428301.234035423025489 ], [ 8567933.744693083688617, 3428133.949018033221364 ], [ 8568123.990239545702934, 3428132.309001024346799 ], [ 8568122.906413642689586, 3428070.337195488158613 ], [ 8567861.582475628703833, 3428069.987175486516207 ], [ 8567856.662371411919594, 3427772.728445285465568 ], [ 8568112.509891930967569, 3427751.407809334341437 ], [ 8568099.389469783753157, 3427541.481666565872729 ], [ 8567569.558800367638469, 3427535.159334004390985 ], [ 8567610.440471440553665, 3429001.943286326248199 ], [ 8567972.593998856842518, 3429005.659729012288153 ] ] ] ] } },
{ "type": "Feature", "properties": { "SECTOR_NO": "36", "LANDUSE_DE": "RESIDENTIAL", "ZONE": "NON CONFORMING", "TOTAL IND": 1, "GREEN": 0, "ORANGE": 0, "RED": 0, "WHITE": 1, "SEC(IN HAC": 89.49, "IND(IN HAC": 0.58, "AREA(%AGE)": 0.65 }, "geometry": { "type": "MultiPolygon", "coordinates": [ [ [ [ 8567623.55152059905231, 3430373.956025308929384 ], [ 8567550.873023105785251, 3429060.788009986281395 ], [ 8566660.561705376952887, 3429069.046933887526393 ], [ 8566744.80268288217485, 3430426.813080970663577 ], [ 8567623.55152059905231, 3430373.956025308929384 ] ] ] ] } },
{ "type": "Feature", "properties": { "SECTOR_NO": "37", "LANDUSE_DE": "RESIDENTIAL", "ZONE": "NON CONFORMING", "TOTAL IND": 2, "GREEN": 2, "ORANGE": 0, "RED": 0, "WHITE": 0, "SEC(IN HAC": 88.75, "IND(IN HAC": 1.57, "AREA(%AGE)": 1.77 }, "geometry": { "type": "MultiPolygon", "coordinates": [ [ [ [ 8566658.909883758053184, 3430428.464864557143301 ], [ 8566579.624275293201208, 3429049.225564892869443 ], [ 8565988.285726968199015, 3429036.011243970133364 ], [ 8565710.786140570417047, 3429638.086380136664957 ], [ 8565681.054008230566978, 3429740.496967773884535 ], [ 8565681.054008230566978, 3429740.496967773884535 ], [ 8565730.607496868818998, 3430411.947003470268101 ], [ 8566658.909883758053184, 3430428.464864557143301 ] ] ] ] } },
{ "type": "Feature", "properties": { "SECTOR_NO": "39", "LANDUSE_DE": "RESIDENTIAL", "ZONE": "NON CONFORMING", "TOTAL IND": 3, "GREEN": 2, "ORANGE": 1, "RED": 0, "WHITE": 0, "SEC(IN HAC": 239.96, "IND(IN HAC": 1.11, "AREA(%AGE)": 0.46 }, "geometry": { "type": "MultiPolygon", "coordinates": [ [ [ [ 8566734.06602906063199, 3432559.265747524797916 ], [ 8566674.601851150393486, 3430495.362066850531846 ], [ 8565726.478060206398368, 3430472.23707410087809 ], [ 8565733.085119117051363, 3430729.915349613875151 ], [ 8565891.656389851123095, 3431279.133381322957575 ], [ 8565961.031360346823931, 3431534.33399286493659 ], [ 8565891.65638192743063, 3431772.190806351136416 ], [ 8566274.870213400572538, 3432727.747566071804613 ], [ 8566734.06602906063199, 3432559.265747524797916 ] ] ] ] } },
{ "type": "Feature", "properties": { "SECTOR_NO": "39", "LANDUSE_DE": "RESIDENTIAL", "ZONE": "NON CONFORMING", "TOTAL IND": 3, "GREEN": 2, "ORANGE": 1, "RED": 0, "WHITE": 0, "SEC(IN HAC": 239.96, "IND(IN HAC": 1.11, "AREA(%AGE)": 0.46 }, "geometry": { "type": "MultiPolygon", "coordinates": [ [ [ [ 8566185.673931892961264, 3432752.524334538262337 ], [ 8565898.26353114657104, 3432141.364536897279322 ], [ 8565826.410977475345135, 3431953.06111708516255 ], [ 8565783.464531891047955, 3431724.289148558862507 ], [ 8565856.143043298274279, 3431526.075000019278377 ], [ 8565667.839783703908324, 3430861.232148351147771 ], [ 8565644.714750597253442, 3430491.232536274939775 ], [ 8565175.608254121616483, 3430517.66117916116491 ], [ 8565267.401520242914557, 3432455.54536406416446 ], [ 8565333.003449995070696, 3433049.242888954933733 ], [ 8566185.673931892961264, 3432752.524334538262337 ] ] ] ] } },
{ "type": "Feature", "properties": { "SECTOR_NO": "38", "LANDUSE_DE": "RESIDENTIAL", "ZONE": "NON CONFORMING", "TOTAL IND": 4, "GREEN": 3, "ORANGE": 1, "RED": 0, "WHITE": 0, "SEC(IN HAC": 117.07, "IND(IN HAC": 1.84, "AREA(%AGE)": 1.57 }, "geometry": { "type": "MultiPolygon", "coordinates": [ [ [ [ 8566957.321694396436214, 3431002.717625007033348 ], [ 8566957.293980643153191, 3431001.300050736404955 ], [ 8566948.243161406368017, 3430503.304399631451815 ], [ 8566716.964326737448573, 3430503.872803986538202 ], [ 8566742.759198078885674, 3431015.647774004843086 ], [ 8566957.321694396436214, 3431002.717625007033348 ] ] ], [ [ [ 8567760.628035621717572, 3432255.10291207768023 ], [ 8567637.59170850738883, 3430475.540656981058419 ], [ 8567481.024697409942746, 3430483.311601338442415 ], [ 8567495.143735470250249, 3430970.310052766464651 ], [ 8566742.759198078885674, 3431015.647774004843086 ], [ 8566801.104213647544384, 3432563.157729716505855 ], [ 8567760.628035621717572, 3432255.10291207768023 ] ] ] ] } },
{ "type": "Feature", "properties": { "SECTOR_NO": "25-I", "LANDUSE_DE": "TRANSPORT AND COMMUNICATION", "ZONE": "NON CONFORMING", "TOTAL IND": 155, "GREEN": 132, "ORANGE": 4, "RED": 0, "WHITE": 19, "SEC(IN HAC": 17.1, "IND(IN HAC": 3.93, "AREA(%AGE)": 22.98 }, "geometry": { "type": "MultiPolygon", "coordinates": [ [ [ [ 8569240.441285867244005, 3423772.602758065797389 ], [ 8569301.951476279646158, 3423631.905093646608293 ], [ 8569355.283548524603248, 3423534.1761654461734 ], [ 8569392.405269056558609, 3423388.976042536552995 ], [ 8569412.226759556680918, 3423235.360134459566325 ], [ 8569124.81635582447052, 3423172.592388618737459 ], [ 8569078.566446751356125, 3423469.91342998854816 ], [ 8568825.173919415101409, 3423405.453205730300397 ], [ 8568764.727457506582141, 3423680.102889507077634 ], [ 8569240.441285867244005, 3423772.602758065797389 ] ] ] ] } },
{ "type": "Feature", "properties": { "SECTOR_NO": "34", "LANDUSE_DE": "TRANSPORT AND COMMUNICATION", "ZONE": "NON CONFORMING", "TOTAL IND": 1, "GREEN": 1, "ORANGE": 0, "RED": 0, "WHITE": 0, "SEC(IN HAC": 5.83, "IND(IN HAC": 0.07, "AREA(%AGE)": 1.2 }, "geometry": { "type": "MultiPolygon", "coordinates": [ [ [ [ 8567591.935462176799774, 3424038.454867555294186 ], [ 8567598.263399332761765, 3423901.997915607877076 ], [ 8567395.606505215167999, 3423888.712710768450052 ], [ 8567258.842151159420609, 3423880.341676413081586 ], [ 8567185.846649726852775, 3423876.251918543130159 ], [ 8567119.279134761542082, 3423872.375801876187325 ], [ 8567119.279134761542082, 3423872.375801876187325 ], [ 8567119.279134761542082, 3423872.375801876187325 ], [ 8567110.672765182331204, 3423973.294469413347542 ], [ 8567112.324494848027825, 3424045.972967519424856 ], [ 8567431.531771002337337, 3424060.83895254554227 ], [ 8567432.812386967241764, 3424026.653056104201823 ], [ 8567591.935462176799774, 3424038.454867555294186 ] ] ] ] } },
{ "type": "Feature", "properties": { "SECTOR_NO": "26", "LANDUSE_DE": "COMMERCIAL", "ZONE": "NON CONFORMING", "TOTAL IND": 55, "GREEN": 49, "ORANGE": 4, "RED": 0, "WHITE": 2, "SEC(IN HAC": 38.88, "IND(IN HAC": 7.5, "AREA(%AGE)": 19.29 }, "geometry": { "type": "MultiPolygon", "coordinates": [ [ [ [ 8568930.11230137757957, 3422360.947133781854063 ], [ 8568976.3623729031533, 3422122.26447594165802 ], [ 8567760.649597935378551, 3422128.87159092631191 ], [ 8567717.703163692727685, 3422567.420191975776106 ], [ 8568335.470271166414022, 3422529.429086938034743 ], [ 8568520.470108058303595, 3422499.696987508796155 ], [ 8568930.11230137757957, 3422360.947133781854063 ] ] ] ] } },
{ "type": "Feature", "properties": { "SECTOR_NO": "22", "LANDUSE_DE": "COMMERCIAL", "ZONE": "NON CONFORMING", "TOTAL IND": 281, "GREEN": 273, "ORANGE": 0, "RED": 0, "WHITE": 8, "SEC(IN HAC": 125.18, "IND(IN HAC": 33.2, "AREA(%AGE)": 26.52 }, "geometry": { "type": "MultiPolygon", "coordinates": [ [ [ [ 8572167.7115244474262, 3426710.919359201565385 ], [ 8572185.199180534109473, 3424792.924760667141527 ], [ 8571781.020256046205759, 3424899.588905159849674 ], [ 8571455.722537893801928, 3425092.254506469704211 ], [ 8571283.161173243075609, 3425152.567216444760561 ], [ 8570946.298538798466325, 3425192.377943144645542 ], [ 8571133.694933269172907, 3425662.036731019616127 ], [ 8571206.373457308858633, 3426413.59837508527562 ], [ 8572167.7115244474262, 3426710.919359201565385 ] ] ] ] } },
{ "type": "Feature", "properties": { "SECTOR_NO": "26", "LANDUSE_DE": "COMMERCIAL", "ZONE": "NON CONFORMING", "TOTAL IND": 55, "GREEN": 49, "ORANGE": 4, "RED": 0, "WHITE": 2, "SEC(IN HAC": 38.88, "IND(IN HAC": 7.5, "AREA(%AGE)": 19.29 }, "geometry": { "type": "MultiPolygon", "coordinates": [ [ [ [ 8568431.191758569329977, 3423572.667168001644313 ], [ 8568370.817430324852467, 3423762.60525570763275 ], [ 8568649.570160139352083, 3423861.853117632679641 ], [ 8568698.036767024546862, 3423647.686630798969418 ], [ 8568431.191758569329977, 3423572.667168001644313 ], [ 8568431.191758569329977, 3423572.667168001644313 ] ] ] ] } },
{ "type": "Feature", "properties": { "SECTOR_NO": "34", "LANDUSE_DE": "COMMERCIAL", "ZONE": "NON CONFORMING", "TOTAL IND": 9, "GREEN": 7, "ORANGE": 0, "RED": 0, "WHITE": 2, "SEC(IN HAC": 21.84, "IND(IN HAC": 0.94, "AREA(%AGE)": 4.3 }, "geometry": { "type": "MultiPolygon", "coordinates": [ [ [ [ 8567207.677980098873377, 3423361.486379109788686 ], [ 8566860.063772248104215, 3422853.416976694948971 ], [ 8566679.224414627999067, 3422974.570042633451521 ], [ 8566509.442739492282271, 3423192.781122776214033 ], [ 8566651.752465354278684, 3423303.790292309597135 ], [ 8566587.23971633054316, 3423450.636043329257518 ], [ 8566949.197652911767364, 3423636.474232043605298 ], [ 8567021.929519027471542, 3423465.152054659556597 ], [ 8567207.677980098873377, 3423361.486379109788686 ] ] ] ] } },
{ "type": "Feature", "properties": { "SECTOR_NO": "02", "LANDUSE_DE": "EXISTING TOWN", "ZONE": "NON CONFORMING", "TOTAL IND": 558, "GREEN": 525, "ORANGE": 11, "RED": null, "WHITE": 22, "SEC(IN HAC": 218.48, "IND(IN HAC": 88.42, "AREA(%AGE)": 40.47 }, "geometry": { "type": "MultiPolygon", "coordinates": [ [ [ [ 8567514.745336191728711, 3426038.107649915851653 ], [ 8566864.894501240924001, 3425985.98555487440899 ], [ 8566543.226714706048369, 3425931.629655761178583 ], [ 8566127.739157099276781, 3425829.805420093704015 ], [ 8565733.25424282066524, 3425759.157855194993317 ], [ 8565446.913766445592046, 3425794.592392622958869 ], [ 8565111.601614380255342, 3426900.461577148642391 ], [ 8565852.661310264840722, 3427196.550298133399338 ], [ 8566196.998717866837978, 3427348.499616346322 ], [ 8566220.174435125663877, 3427357.153626290615648 ], [ 8566436.015753693878651, 3427403.308443366549909 ], [ 8566523.174832878634334, 3427378.233029413502663 ], [ 8566603.405629167333245, 3427372.648519230540842 ], [ 8566773.919340083375573, 3427352.544282572343946 ], [ 8566984.771586185321212, 3427280.303955505602062 ], [ 8567096.890178987756371, 3427206.230115782935172 ], [ 8567224.403161495923996, 3427094.912212804891169 ], [ 8567343.818604240193963, 3426949.342647372744977 ], [ 8567419.556278409436345, 3426811.678144747391343 ], [ 8567473.937691496685147, 3426690.221374891232699 ], [ 8567477.368665302172303, 3426609.747587496880442 ], [ 8567514.745336191728711, 3426038.107649915851653 ] ] ] ] } },
{ "type": "Feature", "properties": { "SECTOR_NO": "34", "LANDUSE_DE": "EXISTING TOWN", "ZONE": "NON CONFORMING", "TOTAL IND": 35, "GREEN": 27, "ORANGE": 1, "RED": 0, "WHITE": 7, "SEC(IN HAC": 21.37, "IND(IN HAC": 1.95, "AREA(%AGE)": 9.12 }, "geometry": { "type": "MultiPolygon", "coordinates": [ [ [ [ 8567564.225224334746599, 3424512.947383888531476 ], [ 8567591.935462176799774, 3424038.454867555294186 ], [ 8567432.094861472025514, 3424026.448022190481424 ], [ 8567431.531771002337337, 3424060.83895254554227 ], [ 8567112.324494848027825, 3424045.972967519424856 ], [ 8567110.672765182331204, 3423973.294469413347542 ], [ 8566761.725148726254702, 3423962.896206322126091 ], [ 8566664.69114126265049, 3424134.343403305858374 ], [ 8566964.659448826685548, 3424259.394619069527835 ], [ 8567564.225224334746599, 3424512.947383888531476 ] ] ] ] } },
{ "type": "Feature", "properties": { "SECTOR_NO": "03", "LANDUSE_DE": "EXISTING TOWN", "ZONE": "NON CONFORMING", "TOTAL IND": 114, "GREEN": 98, "ORANGE": 1, "RED": 0, "WHITE": 15, "SEC(IN HAC": 151.23, "IND(IN HAC": 5.27, "AREA(%AGE)": 3.48 }, "geometry": { "type": "MultiPolygon", "coordinates": [ [ [ [ 8567521.993565076962113, 3426016.839973623864353 ], [ 8567564.500237701460719, 3424554.928767410572618 ], [ 8567377.848716605454683, 3424464.080701946280897 ], [ 8567110.259834107011557, 3424356.714757836889476 ], [ 8566684.099594550207257, 3424194.840002653189003 ], [ 8566406.599996075034142, 3424797.74100073100999 ], [ 8566264.546577135100961, 3425063.678116979077458 ], [ 8566037.136296629905701, 3425795.210542925167829 ], [ 8566472.524488957598805, 3425888.396239417139441 ], [ 8566838.699658205732703, 3425954.182932796422392 ], [ 8567245.810450529679656, 3425990.296098645310849 ], [ 8567521.993565076962113, 3426016.839973623864353 ] ] ] ] } },
{ "type": "Feature", "properties": { "SECTOR_NO": "05", "LANDUSE_DE": "EXISTING TOWN", "ZONE": "NON CONFORMING", "TOTAL IND": 257, "GREEN": 224, "ORANGE": 3, "RED": 0, "WHITE": 30, "SEC(IN HAC": 51.2, "IND(IN HAC": 13.05, "AREA(%AGE)": 25.49 }, "geometry": { "type": "MultiPolygon", "coordinates": [ [ [ [ 8568100.746604712679982, 3425930.140453044790775 ], [ 8568102.794258445501328, 3425629.321504526305944 ], [ 8568133.88136513158679, 3425308.398319349624217 ], [ 8568202.384690040722489, 3425132.300098249223083 ], [ 8568265.675805447623134, 3424992.315042998176068 ], [ 8568325.243914065882564, 3424844.511673491448164 ], [ 8567981.988529348745942, 3424734.35383447771892 ], [ 8567653.283719100058079, 3424587.345085943117738 ], [ 8567607.96593588963151, 3426020.824754311237484 ], [ 8567684.659875731915236, 3426015.984845486003906 ], [ 8567840.348077699542046, 3425952.131192995235324 ], [ 8568100.746604712679982, 3425930.140453044790775 ] ] ] ] } },
{ "type": "Feature", "properties": { "SECTOR_NO": "04", "LANDUSE_DE": "EXISTING TOWN", "ZONE": "NON CONFORMING", "TOTAL IND": 190, "GREEN": 184, "ORANGE": 1, "RED": 0, "WHITE": 5, "SEC(IN HAC": 34.25, "IND(IN HAC": 8.0, "AREA(%AGE)": 23.36 }, "geometry": { "type": "MultiPolygon", "coordinates": [ [ [ [ 8568337.535001972690225, 3424810.748729340266436 ], [ 8568525.838405296206474, 3424276.809659771155566 ], [ 8567872.145029341802001, 3424061.66493216343224 ], [ 8567685.493459956720471, 3423927.870320909190923 ], [ 8567685.493459956720471, 3423927.870320909190923 ], [ 8567652.044787038117647, 3424517.970078285783529 ], [ 8567908.071266891434789, 3424662.088251756504178 ], [ 8568337.535001972690225, 3424810.748729340266436 ] ] ] ] } },
{ "type": "Feature", "properties": { "SECTOR_NO": "26", "LANDUSE_DE": "EXISTING TOWN", "ZONE": "NON CONFORMING", "TOTAL IND": 86, "GREEN": 75, "ORANGE": 4, "RED": 0, "WHITE": 7, "SEC(IN HAC": 20.88, "IND(IN HAC": 5.32, "AREA(%AGE)": 25.48 }, "geometry": { "type": "MultiPolygon", "coordinates": [ [ [ [ 8567966.707394160330296, 3424046.196322204079479 ], [ 8568043.573695322498679, 3424073.305731641128659 ], [ 8568062.17106943950057, 3424081.495503677986562 ], [ 8568551.230426132678986, 3424253.112045123241842 ], [ 8568649.570160139352083, 3423861.853117632679641 ], [ 8568370.817430324852467, 3423762.60525570763275 ], [ 8568403.606849642470479, 3423659.450002192985266 ], [ 8568431.191758569329977, 3423572.667168001644313 ], [ 8568474.608898332342505, 3423584.873557400424033 ], [ 8568548.63855261914432, 3423605.686299081891775 ], [ 8568601.84090325422585, 3423620.643349496182054 ], [ 8568638.131626155227423, 3423630.845787581987679 ], [ 8568698.036767024546862, 3423647.686630798969418 ], [ 8568731.728224912658334, 3423510.44378974661231 ], [ 8568664.40963569842279, 3423507.716156518086791 ], [ 8568605.363771751523018, 3423507.355816069990396 ], [ 8568523.670015338808298, 3423522.629630489274859 ], [ 8568434.780375191941857, 3423546.206105451099575 ], [ 8568432.772913105785847, 3423547.134477355051786 ], [ 8568280.490091104060411, 3423648.78079695161432 ], [ 8568257.436932073906064, 3423664.168243840802461 ], [ 8568242.858872473239899, 3423675.029382705222815 ], [ 8568228.958754498511553, 3423685.385701807681471 ], [ 8568221.425748029723763, 3423690.998135204426944 ], [ 8568186.004364902153611, 3423725.027353895828128 ], [ 8568039.748754825443029, 3423865.533842168282717 ], [ 8568004.276056943461299, 3423953.272997872903943 ], [ 8567966.707394160330296, 3424046.196322204079479 ] ] ] ] } },
{ "type": "Feature", "properties": { "SECTOR_NO": "11", "LANDUSE_DE": "EXISTING TOWN", "ZONE": "NON CONFORMING", "TOTAL IND": 281, "GREEN": 253, "ORANGE": 1, "RED": 0, "WHITE": 27, "SEC(IN HAC": 70.75, "IND(IN HAC": 13.99, "AREA(%AGE)": 19.77 }, "geometry": { "type": "MultiPolygon", "coordinates": [ [ [ [ 8570357.593300692737103, 3425214.971653348300606 ], [ 8570361.159179233014584, 3425153.119977659080178 ], [ 8570332.166044561192393, 3425087.816358330193907 ], [ 8570219.243162313476205, 3424990.127002317924052 ], [ 8570087.810507602989674, 3424971.631709239445627 ], [ 8569860.997042875736952, 3424986.256578769069165 ], [ 8569663.0361602101475, 3424959.216828844510019 ], [ 8569492.72140901722014, 3424875.094345670193434 ], [ 8569397.242014760151505, 3424539.425135762896389 ], [ 8569397.637348525226116, 3424446.684716236311942 ], [ 8569374.225518004968762, 3424345.359604213386774 ], [ 8569306.043838715180755, 3424251.599659795407206 ], [ 8569185.7378393355757, 3424183.28271282510832 ], [ 8568950.214662490412593, 3424148.206047560553998 ], [ 8568906.645528074353933, 3424051.587696432135999 ], [ 8568892.8397052641958, 3423900.345519976690412 ], [ 8568905.073922613635659, 3423769.348692738916725 ], [ 8568756.675128953531384, 3423742.25126343825832 ], [ 8568616.383044935762882, 3424262.97801311314106 ], [ 8568431.686680883169174, 3424825.408301910385489 ], [ 8568864.45388599857688, 3424881.568983915727586 ], [ 8569327.605319950729609, 3425037.526306678075343 ], [ 8569663.792832961305976, 3425164.294687829446048 ], [ 8569908.922103164717555, 3425195.125700211618096 ], [ 8570111.365068662911654, 3425201.777318068314344 ], [ 8570357.593300692737103, 3425214.971653348300606 ] ] ] ] } },
{ "type": "Feature", "properties": { "SECTOR_NO": "05-A", "LANDUSE_DE": "EXISTING TOWN", "ZONE": "NON CONFORMING", "TOTAL IND": 32, "GREEN": 26, "ORANGE": 0, "RED": 0, "WHITE": 6, "SEC(IN HAC": 33.62, "IND(IN HAC": 1.7, "AREA(%AGE)": 5.06 }, "geometry": { "type": "MultiPolygon", "coordinates": [ [ [ [ 8568077.105511605739594, 3426889.559302465058863 ], [ 8568100.002003354951739, 3425948.383186308667064 ], [ 8567818.874270455911756, 3425987.503843553829938 ], [ 8567720.959191918373108, 3426034.972180107608438 ], [ 8567602.904303453862667, 3426058.258304168935865 ], [ 8567579.779330473393202, 3426894.060903587844223 ], [ 8568077.105511605739594, 3426889.559302465058863 ] ] ] ] } },
{ "type": "Feature", "properties": { "SECTOR_NO": "10", "LANDUSE_DE": "EXISTING TOWN", "ZONE": "NON CONFORMING", "TOTAL IND": 1225, "GREEN": 1183, "ORANGE": 9, "RED": 0, "WHITE": 33, "SEC(IN HAC": 173.36, "IND(IN HAC": 27.52, "AREA(%AGE)": 15.87 }, "geometry": { "type": "MultiPolygon", "coordinates": [ [ [ [ 8569616.67313495464623, 3426246.589951779227704 ], [ 8569767.257017446681857, 3425226.791795103345066 ], [ 8569369.628759073093534, 3425069.358014720026404 ], [ 8569144.29377319291234, 3424989.220293595455587 ], [ 8568875.958058902993798, 3424900.426581687759608 ], [ 8568395.690183175727725, 3424844.581479859072715 ], [ 8568206.321524817496538, 3425320.736950063146651 ], [ 8568185.258858812972903, 3425448.01107392180711 ], [ 8568174.814373666420579, 3425632.16168268583715 ], [ 8568164.410020798444748, 3425937.958767300471663 ], [ 8568158.267059596255422, 3426339.29889911133796 ], [ 8568155.28865416534245, 3426514.280218175146729 ], [ 8568150.599992584437132, 3426897.124568570405245 ], [ 8568270.94618702493608, 3426896.286892042960972 ], [ 8568457.468827133998275, 3426896.845343061257154 ], [ 8568646.960578713566065, 3426696.036764054559171 ], [ 8568815.563908122479916, 3426550.765684703364968 ], [ 8568970.271446943283081, 3426379.117289949208498 ], [ 8569215.973288236185908, 3426249.574435506016016 ], [ 8569276.285998210310936, 3426187.027921457774937 ], [ 8569285.22121450304985, 3426176.603502450045198 ], [ 8569343.660786725580692, 3426187.656178842298687 ], [ 8569468.284080600365996, 3426231.144919751212001 ], [ 8569616.67313495464623, 3426246.589951779227704 ] ] ] ] } },
{ "type": "Feature", "properties": { "SECTOR_NO": "28", "LANDUSE_DE": "INDUSTRIAL", "ZONE": "CONFORMING", "TOTAL IND": 107, "GREEN": 101, "ORANGE": 2, "RED": 0, "WHITE": 4, "SEC(IN HAC": 159.98, "IND(IN HAC": 23.82, "AREA(%AGE)": 14.89 }, "geometry": { "type": "MultiPolygon", "coordinates": [ [ [ [ 8572093.071607518941164, 3422542.023976615164429 ], [ 8571723.071920707821846, 3421623.632338620256633 ], [ 8570946.612993914633989, 3421924.55744920251891 ], [ 8569933.364429486915469, 3422403.274169941432774 ], [ 8570300.886253613978624, 3423458.763846326153725 ], [ 8572093.071607518941164, 3422542.023976615164429 ] ] ] ] } },
{ "type": "Feature", "properties": { "SECTOR_NO": "29-II", "LANDUSE_DE": "INDUSTRIAL", "ZONE": "CONFORMING", "TOTAL IND": 450, "GREEN": 332, "ORANGE": 85, "RED": 32, "WHITE": 1, "SEC(IN HAC": 106.47, "IND(IN HAC": 78.99, "AREA(%AGE)": 74.19 }, "geometry": { "type": "MultiPolygon", "coordinates": [ [ [ [ 8571691.688163191080093, 3421511.31105448352173 ], [ 8571380.1571344435215, 3420706.761928653344512 ], [ 8571048.251079240813851, 3419972.584989943075925 ], [ 8570483.09864873252809, 3420300.954188697040081 ], [ 8570504.468581911176443, 3420955.072880826424807 ], [ 8570540.807857627049088, 3421196.233326945453882 ], [ 8570666.343420155346394, 3421450.607952121645212 ], [ 8570894.289536818861961, 3421863.553868776652962 ], [ 8571691.688163191080093, 3421511.31105448352173 ] ] ] ] } },
{ "type": "Feature", "properties": { "SECTOR_NO": "29-I", "LANDUSE_DE": "INDUSTRIAL", "ZONE": "CONFORMING", "TOTAL IND": 622, "GREEN": 571, "ORANGE": 36, "RED": 9, "WHITE": 6, "SEC(IN HAC": 126.22, "IND(IN HAC": 58.71, "AREA(%AGE)": 46.51 }, "geometry": { "type": "MultiPolygon", "coordinates": [ [ [ [ 8570836.784293651580811, 3421920.462141734547913 ], [ 8570548.801568541675806, 3421417.951199913863093 ], [ 8570453.678780060261488, 3421271.986961988732219 ], [ 8570426.421791253611445, 3421137.594979195855558 ], [ 8570393.386240487918258, 3421021.970069167204201 ], [ 8570386.779015079140663, 3420929.470224308781326 ], [ 8570413.620540618896484, 3420314.180864961352199 ], [ 8569673.024726310744882, 3420678.310012751724571 ], [ 8569410.925048397853971, 3420769.523679071106017 ], [ 8569288.065824376419187, 3421416.582258919719607 ], [ 8569546.442495504394174, 3421442.643306439276785 ], [ 8569633.560854356735945, 3421523.804854429326952 ], [ 8569668.91576319001615, 3421627.057253390084952 ], [ 8569722.913017276674509, 3421824.623802944552153 ], [ 8569896.911229871213436, 3422364.989152292255312 ], [ 8570836.784293651580811, 3421920.462141734547913 ] ] ] ] } },
{ "type": "Feature", "properties": { "SECTOR_NO": "30", "LANDUSE_DE": "INDUSTRIAL", "ZONE": "CONFORMING", "TOTAL IND": 106, "GREEN": 89, "ORANGE": 13, "RED": 3, "WHITE": 1, "SEC(IN HAC": 135.22, "IND(IN HAC": 51.04, "AREA(%AGE)": 37.75 }, "geometry": { "type": "MultiPolygon", "coordinates": [ [ [ [ 8570990.384645752608776, 3419923.457168843597174 ], [ 8570606.613318243995309, 3419143.614156126510352 ], [ 8569913.336587192490697, 3419818.645823596511036 ], [ 8569420.692094279453158, 3420566.903693982865661 ], [ 8569427.299225004389882, 3420713.912473517935723 ], [ 8570190.861078754067421, 3420342.899561939761043 ], [ 8570990.384645752608776, 3419923.457168843597174 ] ] ] ] } },
{ "type": "Feature", "properties": { "SECTOR_NO": "30", "LANDUSE_DE": "INDUSTRIAL", "ZONE": "CONFORMING", "TOTAL IND": 106, "GREEN": 89, "ORANGE": 13, "RED": 3, "WHITE": 1, "SEC(IN HAC": 135.22, "IND(IN HAC": 51.04, "AREA(%AGE)": 37.75 }, "geometry": { "type": "MultiPolygon", "coordinates": [ [ [ [ 8570475.768872540444136, 3419058.825247236993164 ], [ 8570362.246170684695244, 3418612.648523897398263 ], [ 8570009.965858142822981, 3418109.049703225959092 ], [ 8569788.626899849623442, 3419093.512691336218268 ], [ 8569414.084913499653339, 3420503.722975259181112 ], [ 8569822.48838847130537, 3419851.681471841409802 ], [ 8570326.282484302297235, 3419290.900862530339509 ], [ 8570475.768872540444136, 3419058.825247236993164 ] ] ] ] } },
{ "type": "Feature", "properties": { "SECTOR_NO": "32", "LANDUSE_DE": "INDUSTRIAL", "ZONE": "CONFORMING", "TOTAL IND": 2, "GREEN": 2, "ORANGE": 0, "RED": 0, "WHITE": 0, "SEC(IN HAC": 69.17, "IND(IN HAC": 0.17, "AREA(%AGE)": 0.25 }, "geometry": { "type": "MultiPolygon", "coordinates": [ [ [ [ 8567945.649423541501164, 3420311.083698341622949 ], [ 8567945.649423541501164, 3420311.083698341622949 ], [ 8568139.320993369445205, 3419721.809961028397083 ], [ 8566769.166446011513472, 3419384.433165502268821 ], [ 8566614.724637476727366, 3420074.052737385034561 ], [ 8567945.649423541501164, 3420311.083698341622949 ] ] ] ] } },
{ "type": "Feature", "properties": { "SECTOR_NO": "33", "LANDUSE_DE": "INDUSTRIAL", "ZONE": "CONFORMING", "TOTAL IND": 104, "GREEN": 86, "ORANGE": 7, "RED": 2, "WHITE": 9, "SEC(IN HAC": 225.83, "IND(IN HAC": 21.42, "AREA(%AGE)": 9.49 }, "geometry": { "type": "MultiPolygon", "coordinates": [ [ [ [ 8567882.055622139945626, 3420341.641690076328814 ], [ 8566648.999231830239296, 3420128.561733371112496 ], [ 8566543.285064170137048, 3420673.650225793477148 ], [ 8566596.142130764201283, 3421165.881782598793507 ], [ 8566687.717910649254918, 3421645.507921640295535 ], [ 8566738.195498568937182, 3421791.081844808999449 ], [ 8566940.538948347792029, 3421970.713250165339559 ], [ 8567171.788807764649391, 3422195.355872984509915 ], [ 8567409.232558256015182, 3422451.795280201360583 ], [ 8567483.562872627750039, 3422552.554073479492217 ], [ 8567582.256965406239033, 3422739.618569534737617 ], [ 8567628.506874328479171, 3422838.725664754398167 ], [ 8567622.7256770581007, 3421510.27855788776651 ], [ 8567632.636327320709825, 3420989.553864665795118 ], [ 8567731.743444567546248, 3420706.685914946720004 ], [ 8567882.055622139945626, 3420341.641690076328814 ] ] ] ] } },
{ "type": "Feature", "properties": { "SECTOR_NO": "33", "LANDUSE_DE": "INDUSTRIAL", "ZONE": "CONFORMING", "TOTAL IND": 104, "GREEN": 86, "ORANGE": 7, "RED": 2, "WHITE": 9, "SEC(IN HAC": 225.83, "IND(IN HAC": 21.42, "AREA(%AGE)": 9.49 }, "geometry": { "type": "MultiPolygon", "coordinates": [ [ [ [ 8567609.098456220701337, 3423425.934724261984229 ], [ 8567620.66096050105989, 3422881.258995650336146 ], [ 8567551.285994991660118, 3422754.484707021154463 ], [ 8567421.208058459684253, 3422547.598767905961722 ], [ 8567292.368960119783878, 3422407.197138105984777 ], [ 8567214.735102485865355, 3422350.210563348606229 ], [ 8566692.20515825971961, 3421899.310809404589236 ], [ 8566431.789638180285692, 3421798.101859900634736 ], [ 8566539.92806681804359, 3422134.609811208210886 ], [ 8566616.97424197755754, 3422364.477652090601623 ], [ 8566714.794006079435349, 3422560.96493912814185 ], [ 8566970.313765367493033, 3422946.685694205574691 ], [ 8567242.815406052395701, 3423323.524033724796027 ], [ 8567559.873857066035271, 3423787.44215466408059 ], [ 8567607.033643024042249, 3423802.334809825289994 ], [ 8567605.79482458345592, 3423664.204532421194017 ], [ 8567609.098456220701337, 3423425.934724261984229 ] ] ] ] } },
{ "type": "Feature", "properties": { "SECTOR_NO": "34", "LANDUSE_DE": "INDUSTRIAL", "ZONE": "CONFORMING", "TOTAL IND": 153, "GREEN": 138, "ORANGE": 4, "RED": 0, "WHITE": 11, "SEC(IN HAC": 102.62, "IND(IN HAC": 11.33, "AREA(%AGE)": 11.04 }, "geometry": { "type": "MultiPolygon", "coordinates": [ [ [ [ 8567308.886769931763411, 3423517.402186919003725 ], [ 8567207.677980098873377, 3423361.486379109788686 ], [ 8567021.929519027471542, 3423465.152054659556597 ], [ 8566949.197652911767364, 3423636.474232043605298 ], [ 8566587.23971633054316, 3423450.636043329257518 ], [ 8566651.752465354278684, 3423303.790292309597135 ], [ 8566513.321981515735388, 3423191.558797606732696 ], [ 8566679.224414627999067, 3422974.570042633451521 ], [ 8566860.063772248104215, 3422853.416976694948971 ], [ 8566628.486208403483033, 3422509.085280071478337 ], [ 8566503.310314413160086, 3422193.010125838685781 ], [ 8566381.410267926752567, 3421820.194461052305996 ], [ 8566275.696088664233685, 3421793.765948422718793 ], [ 8565853.062696918845177, 3423781.918998433277011 ], [ 8565975.084244415163994, 3423820.731344204396009 ], [ 8566324.814194621518254, 3423996.643414965365082 ], [ 8566664.69114126265049, 3424134.343403305858374 ], [ 8566761.930057846009731, 3423964.126194009557366 ], [ 8566852.952769044786692, 3423788.641070400830358 ], [ 8566920.194661311805248, 3423677.117711144033819 ], [ 8567023.517753584310412, 3423609.875848658382893 ], [ 8567228.523783022537827, 3423527.873412472195923 ], [ 8567308.886769931763411, 3423517.402186919003725 ] ] ] ] } },
{ "type": "Feature", "properties": { "SECTOR_NO": "32-A", "LANDUSE_DE": "INDUSTRIAL", "ZONE": "CONFORMING", "TOTAL IND": 25, "GREEN": 25, "ORANGE": 0, "RED": 0, "WHITE": 0, "SEC(IN HAC": 151.11, "IND(IN HAC": 22.35, "AREA(%AGE)": 14.79 }, "geometry": { "type": "MultiPolygon", "coordinates": [ [ [ [ 8566072.320262011140585, 3421309.380376467946917 ], [ 8566349.819845139980316, 3420439.716298712417483 ], [ 8566772.385381504893303, 3418400.979821567423642 ], [ 8566837.987263591960073, 3417981.127527659293264 ], [ 8566303.331548834219575, 3418440.340932199265808 ], [ 8566109.805878367275, 3418660.107356464490294 ], [ 8565906.439837280660868, 3418889.714237054344267 ], [ 8565679.293200561776757, 3419214.443812507670373 ], [ 8565466.086919264867902, 3419540.813363955356181 ], [ 8565762.197877829894423, 3419872.328624945599586 ], [ 8565828.269250137731433, 3420263.801365359220654 ], [ 8566072.320262011140585, 3421309.380376467946917 ] ] ] ] } },
{ "type": "Feature", "properties": { "SECTOR_NO": "33-A", "LANDUSE_DE": "INDUSTRIAL", "ZONE": "CONFORMING", "TOTAL IND": 26, "GREEN": 23, "ORANGE": 2, "RED": 0, "WHITE": 1, "SEC(IN HAC": 104.81, "IND(IN HAC": 37.76, "AREA(%AGE)": 36.03 }, "geometry": { "type": "MultiPolygon", "coordinates": [ [ [ [ 8565955.686788884922862, 3421637.943762721028179 ], [ 8566035.980931852012873, 3421371.322313166689128 ], [ 8565858.001314850524068, 3420690.37445207638666 ], [ 8565791.516959076747298, 3420359.604852040763944 ], [ 8565768.392123654484749, 3420253.890774896368384 ], [ 8565669.284999808296561, 3420013.556209910195321 ], [ 8565566.874381383880973, 3419812.038574837613851 ], [ 8565362.053361931815743, 3419574.181764709763229 ], [ 8565244.776683557778597, 3419900.409035231918097 ], [ 8565132.455404506996274, 3420148.176630948670208 ], [ 8565056.473355621099472, 3420315.006662110798061 ], [ 8564904.922190096229315, 3420704.414614476263523 ], [ 8564835.13437394797802, 3420972.003604951780289 ], [ 8565365.356775689870119, 3421389.491944178007543 ], [ 8565955.686788884922862, 3421637.943762721028179 ] ] ] ] } },
{ "type": "Feature", "properties": { "SECTOR_NO": "34-A", "LANDUSE_DE": "INDUSTRIAL", "ZONE": "CONFORMING", "TOTAL IND": 43, "GREEN": 33, "ORANGE": 2, "RED": 0, "WHITE": 8, "SEC(IN HAC": 145.64, "IND(IN HAC": 2.73, "AREA(%AGE)": 1.87 }, "geometry": { "type": "MultiPolygon", "coordinates": [ [ [ [ 8565880.300372287631035, 3421779.725852185860276 ], [ 8564883.049635900184512, 3421282.134639814961702 ], [ 8564849.428750816732645, 3421462.95002362318337 ], [ 8565839.8316416926682, 3421904.848489376716316 ], [ 8565880.300372287631035, 3421779.725852185860276 ] ] ] ] } },
{ "type": "Feature", "properties": { "SECTOR_NO": "34-A", "LANDUSE_DE": "INDUSTRIAL", "ZONE": "CONFORMING", "TOTAL IND": 43, "GREEN": 33, "ORANGE": 2, "RED": 0, "WHITE": 8, "SEC(IN HAC": 145.64, "IND(IN HAC": 2.73, "AREA(%AGE)": 1.87 }, "geometry": { "type": "MultiPolygon", "coordinates": [ [ [ [ 8565130.390695540234447, 3423349.333275479730219 ], [ 8565232.801244553178549, 3422936.387297510169446 ], [ 8565503.693770980462432, 3423091.655033660121262 ], [ 8565638.314032169058919, 3422473.062002261634916 ], [ 8565839.8316416926682, 3421904.848489376716316 ], [ 8564849.428750816732645, 3421462.95002362318337 ], [ 8564818.267765963450074, 3421868.041882096324116 ], [ 8564824.828054210171103, 3422397.77758607827127 ], [ 8564816.551699304953218, 3422765.427718770224601 ], [ 8564816.551698047667742, 3422940.516770785674453 ], [ 8564813.248193401843309, 3423075.96302282018587 ], [ 8564816.551709298044443, 3423178.373648424167186 ], [ 8565130.390695540234447, 3423349.333275479730219 ] ] ] ] } },
{ "type": "Feature", "properties": { "SECTOR_NO": "25-II", "LANDUSE_DE": "INDUSTRIAL", "ZONE": "CONFORMING", "TOTAL IND": 520, "GREEN": 483, "ORANGE": 31, "RED": 2, "WHITE": 4, "SEC(IN HAC": 54.35, "IND(IN HAC": 27.13, "AREA(%AGE)": 49.92 }, "geometry": { "type": "MultiPolygon", "coordinates": [ [ [ [ 8569997.267800312489271, 3422829.021412786096334 ], [ 8569602.801295127719641, 3421676.695886763278395 ], [ 8569540.033415969461203, 3421544.553110496606678 ], [ 8569381.462171532213688, 3421511.517420677468181 ], [ 8569252.62303451448679, 3421488.392477700486779 ], [ 8569163.630139697343111, 3421799.068851622752845 ], [ 8569222.679551117122173, 3422057.287422835826874 ], [ 8569340.167722091078758, 3422437.342219319194555 ], [ 8569401.283649614080787, 3422907.687599051743746 ], [ 8569401.283649614080787, 3422907.687599051743746 ], [ 8569421.266851637512445, 3422979.55808002082631 ], [ 8569487.176701825112104, 3423019.802370475139469 ], [ 8569561.052604844793677, 3422992.173101763706654 ], [ 8569632.812627149745822, 3422965.334844257216901 ], [ 8569732.747667003422976, 3422927.958263414446265 ], [ 8569851.49786208756268, 3422885.181973081082106 ], [ 8569997.267800312489271, 3422829.021412786096334 ] ] ] ] } },
{ "type": "Feature", "properties": { "SECTOR_NO": "25-I", "LANDUSE_DE": "INDUSTRIAL", "ZONE": "CONFORMING", "TOTAL IND": 307, "GREEN": 256, "ORANGE": 14, "RED": 2, "WHITE": 35, "SEC(IN HAC": 33.78, "IND(IN HAC": 16.19, "AREA(%AGE)": 47.93 }, "geometry": { "type": "MultiPolygon", "coordinates": [ [ [ [ 8569412.226759556680918, 3423235.360134459566325 ], [ 8569426.206827849149704, 3423126.227696586865932 ], [ 8569391.024413699284196, 3423001.972345017362386 ], [ 8569348.023685291409492, 3422890.840592377819121 ], [ 8569303.209018280729651, 3422565.561932584270835 ], [ 8569151.24488234333694, 3421850.339536624960601 ], [ 8569051.642439050599933, 3422291.584398449398577 ], [ 8568825.173919415101409, 3423405.453205730300397 ], [ 8569078.566446751356125, 3423469.91342998854816 ], [ 8569124.81635582447052, 3423172.592388618737459 ], [ 8569412.226759556680918, 3423235.360134459566325 ] ] ] ] } },
{ "type": "Feature", "properties": { "SECTOR_NO": "26", "LANDUSE_DE": "INDUSTRIAL", "ZONE": "CONFORMING", "TOTAL IND": 319, "GREEN": 309, "ORANGE": 7, "RED": 0, "WHITE": 3, "SEC(IN HAC": 80.8, "IND(IN HAC": 48.07, "AREA(%AGE)": 59.49 }, "geometry": { "type": "MultiPolygon", "coordinates": [ [ [ [ 8568731.728224912658334, 3423510.44378974661231 ], [ 8568930.11230137757957, 3422360.947133781854063 ], [ 8568520.470108058303595, 3422499.696987508796155 ], [ 8568335.470271166414022, 3422529.429086938034743 ], [ 8567717.703163692727685, 3422567.420191975776106 ], [ 8567689.622899452224374, 3423318.15574817545712 ], [ 8568432.772913105785847, 3423547.134477355051786 ], [ 8568454.677924577146769, 3423540.928693186957389 ], [ 8568523.670015338808298, 3423522.629630489274859 ], [ 8568636.756404254585505, 3423507.663488504011184 ], [ 8568731.728224912658334, 3423510.44378974661231 ] ] ] ] } },
{ "type": "Feature", "properties": { "SECTOR_NO": "35", "LANDUSE_DE": "INDUSTRIAL", "ZONE": "CONFORMING", "TOTAL IND": 136, "GREEN": 120, "ORANGE": 2, "RED": 0, "WHITE": 14, "SEC(IN HAC": 148.14, "IND(IN HAC": 17.51, "AREA(%AGE)": 11.82 }, "geometry": { "type": "MultiPolygon", "coordinates": [ [ [ [ 8567570.299578156322241, 3429008.741304105613381 ], [ 8567479.72113742865622, 3427541.037508540786803 ], [ 8567227.949293836951256, 3427515.544421832077205 ], [ 8566952.101534383371472, 3427538.669402983039618 ], [ 8566753.061648340895772, 3427571.705123457126319 ], [ 8566508.597623573616147, 3427593.17836540332064 ], [ 8566305.428218336775899, 3427769.919051601085812 ], [ 8566160.071324961259961, 3428046.179825016763061 ], [ 8566085.740997709333897, 3428812.194565339945257 ], [ 8566006.455453053116798, 3428998.846163480076939 ], [ 8567570.299578156322241, 3429008.741304105613381 ] ] ] ] } },
{ "type": "Feature", "properties": { "SECTOR_NO": "06", "LANDUSE_DE": "INDUSTRIAL", "ZONE": "CONFORMING", "TOTAL IND": 20, "GREEN": 13, "ORANGE": 1, "RED": 0, "WHITE": 6, "SEC(IN HAC": 12.78, "IND(IN HAC": 2.59, "AREA(%AGE)": 20.27 }, "geometry": { "type": "MultiPolygon", "coordinates": [ [ [ [ 8568133.292948767542839, 3428663.476142086554319 ], [ 8568086.331133861094713, 3428669.839108822867274 ], [ 8568036.738815411925316, 3428697.028962802607566 ], [ 8567991.646934883669019, 3428723.788955274503678 ], [ 8567959.379767255857587, 3428766.564098734408617 ], [ 8567972.593998856842518, 3429005.659729012288153 ], [ 8568144.379555463790894, 3428989.141849799081683 ], [ 8568133.292948767542839, 3428663.476142086554319 ] ] ] ] } },
{ "type": "Feature", "properties": { "SECTOR_NO": "06", "LANDUSE_DE": "INDUSTRIAL", "ZONE": "CONFORMING", "TOTAL IND": 20, "GREEN": 13, "ORANGE": 1, "RED": 0, "WHITE": 6, "SEC(IN HAC": 12.78, "IND(IN HAC": 2.59, "AREA(%AGE)": 20.27 }, "geometry": { "type": "MultiPolygon", "coordinates": [ [ [ [ 8568127.861699268221855, 3428340.403958520852029 ], [ 8568123.990239545702934, 3428132.309001024346799 ], [ 8567933.744698386639357, 3428133.436624518595636 ], [ 8567926.364401718601584, 3428301.541494032368064 ], [ 8568127.861699268221855, 3428340.403958520852029 ] ] ] ] } },
{ "type": "Feature", "properties": { "SECTOR_NO": "06", "LANDUSE_DE": "INDUSTRIAL", "ZONE": "CONFORMING", "TOTAL IND": 20, "GREEN": 13, "ORANGE": 1, "RED": 0, "WHITE": 6, "SEC(IN HAC": 12.78, "IND(IN HAC": 2.59, "AREA(%AGE)": 20.27 }, "geometry": { "type": "MultiPolygon", "coordinates": [ [ [ [ 8568122.906413642689586, 3428070.337195488158613 ], [ 8568110.869881739839911, 3427751.305231195874512 ], [ 8567857.482331976294518, 3427771.805896013509482 ], [ 8567860.762400912120938, 3428069.474730724468827 ], [ 8568122.906413642689586, 3428070.337195488158613 ] ] ] ] } },
{ "type": "Feature", "properties": { "SECTOR_NO": "34-A", "LANDUSE_DE": "INDUSTRIAL", "ZONE": "CONFORMING", "TOTAL IND": 43, "GREEN": 33, "ORANGE": 2, "RED": 0, "WHITE": 8, "SEC(IN HAC": 145.64, "IND(IN HAC": 2.73, "AREA(%AGE)": 1.87 }, "geometry": { "type": "MultiPolygon", "coordinates": [ [ [ [ 8565771.282685106620193, 3423740.392936896532774 ], [ 8566197.442782711237669, 3421752.058481082320213 ], [ 8566027.803419327363372, 3421716.747526050079614 ], [ 8565958.760161841288209, 3421861.07616340694949 ], [ 8565837.353999197483063, 3422274.848062931094319 ], [ 8565764.675562210381031, 3422549.869905681349337 ], [ 8565691.997062524780631, 3422774.512476740404963 ], [ 8565523.515209522098303, 3423551.676698335912079 ], [ 8565771.282685106620193, 3423740.392936896532774 ] ] ] ] } },
{ "type": "Feature", "properties": { "SECTOR_NO": "33-A", "LANDUSE_DE": "INDUSTRIAL", "ZONE": "CONFORMING", "TOTAL IND": 26, "GREEN": 23, "ORANGE": 2, "RED": 0, "WHITE": 1, "SEC(IN HAC": 104.81, "IND(IN HAC": 37.76, "AREA(%AGE)": 36.03 }, "geometry": { "type": "MultiPolygon", "coordinates": [ [ [ [ 8566206.114670537412167, 3421703.743742953520268 ], [ 8566235.846845120191574, 3421586.467165927402675 ], [ 8566111.963060725480318, 3421411.378100277390331 ], [ 8566014.507848663255572, 3421667.404484363738447 ], [ 8566206.114670537412167, 3421703.743742953520268 ] ] ] ] } },
{ "type": "Feature", "properties": { "SECTOR_NO": "32-A", "LANDUSE_DE": "INDUSTRIAL", "ZONE": "CONFORMING", "TOTAL IND": 25, "GREEN": 25, "ORANGE": 0, "RED": 0, "WHITE": 0, "SEC(IN HAC": 151.11, "IND(IN HAC": 22.35, "AREA(%AGE)": 14.79 }, "geometry": { "type": "MultiPolygon", "coordinates": [ [ [ [ 8566238.737480381503701, 3421536.913640059530735 ], [ 8566375.835464987903833, 3420884.046070746146142 ], [ 8566605.226916125044227, 3419747.825486408080906 ], [ 8566686.887077556923032, 3419339.938174092210829 ], [ 8566783.826090142130852, 3418857.927128036040813 ], [ 8566830.901809120550752, 3418609.127206728328019 ], [ 8566930.008835636079311, 3418131.761655160225928 ], [ 8566956.437359753996134, 3417949.755802165251225 ], [ 8566966.761082749813795, 3417891.736938840243965 ], [ 8566933.315055910497904, 3417899.945034519769251 ], [ 8566899.037971869111061, 3418151.17019629618153 ], [ 8566841.225464703515172, 3418443.845500263851136 ], [ 8566766.030186329036951, 3418833.542556162457913 ], [ 8566602.435336533933878, 3419613.385528975632042 ], [ 8566515.51282013207674, 3420007.817124289926142 ], [ 8566403.989542175084352, 3420540.012843761127442 ], [ 8566119.809031434357166, 3421370.083592915441841 ], [ 8566238.737480381503701, 3421536.913640059530735 ] ] ] ] } },
{ "type": "Feature", "properties": { "SECTOR_NO": "20", "LANDUSE_DE": "OPEN SPACES", "ZONE": "NON CONFORMING", "TOTAL IND": 207, "GREEN": 198, "ORANGE": 7, "RED": 0, "WHITE": 2, "SEC(IN HAC": 108.92, "IND(IN HAC": 45.25, "AREA(%AGE)": 41.54 }, "geometry": { "type": "MultiPolygon", "coordinates": [ [ [ [ 8571637.896202437579632, 3429766.002219249028713 ], [ 8570424.253881290555, 3428595.604535763151944 ], [ 8569954.187362473458052, 3428989.404937596060336 ], [ 8570921.308081045746803, 3430124.827971978578717 ], [ 8570921.308081045746803, 3430124.827971978578717 ], [ 8571134.52083027549088, 3430362.59998116036877 ], [ 8571365.770559653639793, 3430822.208692962303758 ], [ 8571584.631875956431031, 3430253.169241927564144 ], [ 8571637.896202437579632, 3429766.002219249028713 ] ] ] ] } },
{ "type": "Feature", "properties": { "SECTOR_NO": "20", "LANDUSE_DE": "PUBLIC AND SEMI PUBLIC USES", "ZONE": "NON CONFORMING", "TOTAL IND": 20, "GREEN": 20, "ORANGE": 0, "RED": 0, "WHITE": 0, "SEC(IN HAC": 135.59, "IND(IN HAC": 2.0, "AREA(%AGE)": 1.48 }, "geometry": { "type": "MultiPolygon", "coordinates": [ [ [ [ 8571638.613761829212308, 3429766.617262781597674 ], [ 8571815.881511704996228, 3429293.483022697735578 ], [ 8571948.024311335757375, 3428737.657833650242537 ], [ 8572074.470590544864535, 3428142.208650633692741 ], [ 8570923.918476320803165, 3427844.868758625350893 ], [ 8570728.182150457054377, 3428147.145277351140976 ], [ 8570561.351957311853766, 3428377.156061038374901 ], [ 8570424.253881290555, 3428595.604535763151944 ], [ 8570424.253881290555, 3428595.604535763151944 ], [ 8571638.613761829212308, 3429766.617262781597674 ] ] ] ] } },
{ "type": "Feature", "properties": { "SECTOR_NO": "21", "LANDUSE_DE": "PUBLIC AND SEMI PUBLIC USES", "ZONE": "NON CONFORMING", "TOTAL IND": 53, "GREEN": 52, "ORANGE": 0, "RED": 0, "WHITE": 1, "SEC(IN HAC": 102.09, "IND(IN HAC": 6.26, "AREA(%AGE)": 6.13 }, "geometry": { "type": "MultiPolygon", "coordinates": [ [ [ [ 8572073.55985096283257, 3428062.904253670945764 ], [ 8572175.970406908541918, 3426829.847700240556151 ], [ 8571227.846586598083377, 3426512.705369454342872 ], [ 8570950.346973342821002, 3427775.493866108823568 ], [ 8572073.55985096283257, 3428062.904253670945764 ] ] ] ] } },
{ "type": "Feature", "properties": { "SECTOR_NO": "27", "LANDUSE_DE": "PUBLIC AND SEMI PUBLIC USES", "ZONE": "NON CONFORMING", "TOTAL IND": 10, "GREEN": 10, "ORANGE": 0, "RED": 0, "WHITE": 0, "SEC(IN HAC": 38.54, "IND(IN HAC": 4.0, "AREA(%AGE)": 10.38 }, "geometry": { "type": "MultiPolygon", "coordinates": [ [ [ [ 8569115.112194571644068, 3421470.222860878333449 ], [ 8568201.675729045644403, 3421467.745219976641238 ], [ 8568204.979402776807547, 3422075.601541076786816 ], [ 8568986.272977797314525, 3422064.86500769527629 ], [ 8569115.112194571644068, 3421470.222860878333449 ] ] ] ] } },
{ "type": "Feature", "properties": { "SECTOR_NO": "37-A", "LANDUSE_DE": "PUBLIC UTILITIES", "ZONE": "NON CONFORMING", "TOTAL IND": 32, "GREEN": 32, "ORANGE": 0, "RED": 0, "WHITE": 0, "SEC(IN HAC": 52.74, "IND(IN HAC": 9.66, "AREA(%AGE)": 18.32 }, "geometry": { "type": "MultiPolygon", "coordinates": [ [ [ [ 8565667.839691745117307, 3430406.991656971629709 ], [ 8565610.027259884402156, 3429944.079284659586847 ], [ 8565588.554094502702355, 3429720.675603299867362 ], [ 8565641.411126330494881, 3429565.407922580372542 ], [ 8565899.089434754103422, 3429049.225512409582734 ], [ 8565144.224336691200733, 3429074.002311619929969 ], [ 8565187.170684017241001, 3430440.02730321045965 ], [ 8565667.839691745117307, 3430406.991656971629709 ] ] ] ] } },
{ "type": "Feature", "properties": { "SECTOR_NO": "31", "LANDUSE_DE": "PUBLIC UTILITIES", "ZONE": "NON CONFORMING", "TOTAL IND": 12, "GREEN": 12, "ORANGE": 0, "RED": 0, "WHITE": 0, "SEC(IN HAC": 91.09, "IND(IN HAC": 6.54, "AREA(%AGE)": 7.18 }, "geometry": { "type": "MultiPolygon", "coordinates": [ [ [ [ 8569336.451096992939711, 3420579.085613103117794 ], [ 8569637.075818968936801, 3419339.422024560626596 ], [ 8569004.329257357865572, 3419210.591132536996156 ], [ 8568491.404121339321136, 3419092.098215928301215 ], [ 8568262.791793154552579, 3419788.707140078768134 ], [ 8568944.526901246979833, 3420142.198553159832954 ], [ 8568915.006083061918616, 3420494.809021915309131 ], [ 8569336.451096992939711, 3420579.085613103117794 ] ] ] ] } },
{ "type": "Feature", "properties": { "SECTOR_NO": "34-A", "LANDUSE_DE": "PUBLIC UTILITIES", "ZONE": "NON CONFORMING", "TOTAL IND": 1, "GREEN": 1, "ORANGE": 0, "RED": 0, "WHITE": 0, "SEC(IN HAC": 10.12, "IND(IN HAC": 0.02, "AREA(%AGE)": 0.2 }, "geometry": { "type": "MultiPolygon", "coordinates": [ [ [ [ 8565232.801244553178549, 3422936.387297510169446 ], [ 8565130.390695540234447, 3423349.333275479730219 ], [ 8565130.390695540234447, 3423349.333275479730219 ], [ 8565407.890372158959508, 3423531.8552783918567 ], [ 8565503.693770980462432, 3423091.655033660121262 ], [ 8565232.801244553178549, 3422936.387297510169446 ] ] ] ] } },
{ "type": "Feature", "properties": { "SECTOR_NO": "34", "LANDUSE_DE": "PUBLIC UTILITIES", "ZONE": "NON CONFORMING", "TOTAL IND": 1, "GREEN": 0, "ORANGE": 0, "RED": 0, "WHITE": 1, "SEC(IN HAC": 16.05, "IND(IN HAC": 0.03, "AREA(%AGE)": 0.19 }, "geometry": { "type": "MultiPolygon", "coordinates": [ [ [ [ 8567598.263399332761765, 3423901.997915607877076 ], [ 8567600.986381664872169, 3423854.846223171800375 ], [ 8567539.780509639531374, 3423827.354909984394908 ], [ 8567308.886769931763411, 3423517.402186919003725 ], [ 8567228.523783022537827, 3423527.873412472195923 ], [ 8567216.790407169610262, 3423532.566826221067458 ], [ 8567187.544072600081563, 3423544.26554245268926 ], [ 8567123.751342067494988, 3423569.782774088904262 ], [ 8567071.18037561699748, 3423590.811139075085521 ], [ 8567023.517753584310412, 3423609.875848658382893 ], [ 8566920.194661311805248, 3423677.117711144033819 ], [ 8566888.227190129458904, 3423730.13708524312824 ], [ 8566852.952769044786692, 3423788.641070400830358 ], [ 8566823.579321032389998, 3423845.271218615584075 ], [ 8566761.725148726254702, 3423962.896206322126091 ], [ 8567110.672765182331204, 3423973.294469413347542 ], [ 8567119.279134761542082, 3423872.375801876187325 ], [ 8567598.263399332761765, 3423901.997915607877076 ] ] ] ] } },
{ "type": "Feature", "properties": { "SECTOR_NO": "13", "LANDUSE_DE": "COMMERCIAL", "ZONE": "NON CONFORMING", "TOTAL IND": 0, "GREEN": 0, "ORANGE": 0, "RED": 0, "WHITE": 0, "SEC(IN HAC": 16.09, "IND(IN HAC": 0.0, "AREA(%AGE)": 0.0 }, "geometry": { "type": "MultiPolygon", "coordinates": [ [ [ [ 8569447.120627330616117, 3429395.687132468447089 ], [ 8569440.513578027486801, 3429020.732255090493709 ], [ 8568865.69288001768291, 3429035.59834132483229 ], [ 8568872.29990622960031, 3429400.642536168918014 ], [ 8569447.120627330616117, 3429395.687132468447089 ] ] ] ] } },
{ "type": "Feature", "properties": { "SECTOR_NO": "38", "LANDUSE_DE": "COMMERCIAL", "ZONE": "NON CONFORMING", "TOTAL IND": 0, "GREEN": 0, "ORANGE": 0, "RED": 0, "WHITE": 0, "SEC(IN HAC": 19.98, "IND(IN HAC": 0.0, "AREA(%AGE)": 0.0 }, "geometry": { "type": "MultiPolygon", "coordinates": [ [ [ [ 8567481.013548165559769, 3430483.310406212229282 ], [ 8566948.243161406368017, 3430503.304399631451815 ], [ 8566957.316205827519298, 3431002.718755634035915 ], [ 8567495.143620766699314, 3430970.310054711997509 ], [ 8567481.013548165559769, 3430483.310406212229282 ] ] ] ] } },
{ "type": "Feature", "properties": { "SECTOR_NO": "25-II", "LANDUSE_DE": "COMMERCIAL", "ZONE": "NON CONFORMING", "TOTAL IND": 0, "GREEN": 0, "ORANGE": 0, "RED": 0, "WHITE": 0, "SEC(IN HAC": 12.25, "IND(IN HAC": 0.0, "AREA(%AGE)": 0.0 }, "geometry": { "type": "MultiPolygon", "coordinates": [ [ [ [ 8569403.761284530162811, 3423820.504575581755489 ], [ 8569576.372684536501765, 3423811.626152743119746 ], [ 8569726.684937989339232, 3423737.295855456963181 ], [ 8569631.477714251726866, 3423452.090584129095078 ], [ 8569571.063591906800866, 3423271.108413856476545 ], [ 8569510.252697046846151, 3423088.934074039570987 ], [ 8569488.65778560936451, 3423024.240588418208063 ], [ 8569487.17744798026979, 3423019.805815397761762 ], [ 8569487.176004292443395, 3423019.801806097850204 ], [ 8569486.894695241004229, 3423019.630263083614409 ], [ 8569421.266851637512445, 3422979.55808002082631 ], [ 8569456.209575111046433, 3423123.112482985015959 ], [ 8569475.207030154764652, 3423274.787966762669384 ], [ 8569441.212786884978414, 3423429.976831447333097 ], [ 8569380.636363044381142, 3423582.234737222082913 ], [ 8569380.636363044381142, 3423582.234737222082913 ], [ 8569288.962337935343385, 3423724.081667579244822 ], [ 8569284.007040398195386, 3423782.513549515977502 ], [ 8569403.761284530162811, 3423820.504575581755489 ] ] ] ] } },
{ "type": "Feature", "properties": { "SECTOR_NO": "06", "LANDUSE_DE": "PUBLIC AND SEMI PUBLIC USES", "ZONE": "NON CONFORMING", "TOTAL IND": 0, "GREEN": 0, "ORANGE": 0, "RED": 0, "WHITE": 0, "SEC(IN HAC": 22.73, "IND(IN HAC": 0.0, "AREA(%AGE)": 0.0 }, "geometry": { "type": "MultiPolygon", "coordinates": [ [ [ [ 8568098.979396456852555, 3427543.531646817456931 ], [ 8568063.442115606740117, 3426949.18909508921206 ], [ 8567690.139084590598941, 3426937.626640988048166 ], [ 8567579.469516469165683, 3426970.662280648481101 ], [ 8567569.558800367638469, 3427535.159334004390985 ], [ 8568098.979396456852555, 3427543.531646817456931 ] ] ] ] } },
{ "type": "Feature", "properties": { "SECTOR_NO": "32", "LANDUSE_DE": "PUBLIC UTILITIES", "ZONE": "NON CONFORMING", "TOTAL IND": 0, "GREEN": 0, "ORANGE": 0, "RED": 0, "WHITE": 0, "SEC(IN HAC": 70.37, "IND(IN HAC": 0.0, "AREA(%AGE)": 0.0 }, "geometry": { "type": "MultiPolygon", "coordinates": [ [ [ [ 8566774.947703374549747, 3419367.708855269942433 ], [ 8568140.146951569244266, 3419690.012996037490666 ], [ 8568366.028296621516347, 3419047.056275104638189 ], [ 8566903.786860153079033, 3418771.002441640477628 ], [ 8566774.947703374549747, 3419367.708855269942433 ] ] ] ] } },
{ "type": "Feature", "properties": { "SECTOR_NO": "35-A", "LANDUSE_DE": "INDUSTRIAL", "ZONE": "CONFORMING", "TOTAL IND": 318, "GREEN": 304, "ORANGE": 6, "RED": 0, "WHITE": 8, "SEC(IN HAC": 169.29, "IND(IN HAC": 49.2, "AREA(%AGE)": 29.06 }, "geometry": { "type": "MultiPolygon", "coordinates": [ [ [ [ 8565103.226179320365191, 3426987.042845274321735 ], [ 8564951.378607260063291, 3427453.189680724870414 ], [ 8565133.074750540778041, 3429030.64297133218497 ], [ 8565935.841687174513936, 3429000.910828543361276 ], [ 8566038.252145230770111, 3428791.960149332880974 ], [ 8566084.502231299877167, 3428468.210633689071983 ], [ 8566084.502127185463905, 3428150.24226492876187 ], [ 8566170.394974766299129, 3427889.260476159397513 ], [ 8566302.537585012614727, 3427704.260673719458282 ], [ 8566458.218291128054261, 3427541.147029807325453 ], [ 8566603.575103428214788, 3427478.379203977063298 ], [ 8566583.753822796046734, 3427437.084741914179176 ], [ 8566459.86994762532413, 3427443.691910733003169 ], [ 8566280.766370609402657, 3427402.667403120081872 ], [ 8566046.845200264826417, 3427335.622053312603384 ], [ 8565798.863862168043852, 3427264.681322363205254 ], [ 8565103.226179320365191, 3426987.042845274321735 ] ] ], [ [ [ 8567485.627573238685727, 3427512.653805974405259 ], [ 8567498.015951374545693, 3426852.766227050218731 ], [ 8567339.444724818691611, 3427118.909925919957459 ], [ 8567237.240578375756741, 3427205.834983097855002 ], [ 8567131.526479460299015, 3427286.772474523168057 ], [ 8567015.901642238721251, 3427353.669643410015851 ], [ 8566904.612766336649656, 3427416.024443259462714 ], [ 8566693.21497817337513, 3427484.08769666031003 ], [ 8566540.807399859651923, 3427551.057792899664491 ], [ 8566712.59295597858727, 3427539.495268237777054 ], [ 8566905.851572660729289, 3427518.43502416042611 ], [ 8567185.002937097102404, 3427482.095776229165494 ], [ 8567485.627573238685727, 3427512.653805974405259 ] ] ] ] } }
]
}
