{
"type": "FeatureCollection",
"name": "YNR_CLUSTER",
"crs": { "type": "name", "properties": { "name": "urn:ogc:def:crs:OGC:1.3:CRS84" } },
"features": [
{ "type": "Feature", "properties": { "OBJECTID": 1, "CLUSTER": "DURGA GARDEN", "CATEGORY": "NON-CONFORMING", "TOTAL_IND": 269, "RED": 52, "GREEN": 207, "ORANGE": 5, "WHITE": 5, "SEC_IN_HA": 38.99, "IND_IN_HA": 29.68, "AREA__AGE": 76.13, "Shape_Leng": 0.02885196196, "Shape_Area": 3.146611e-05 }, "geometry": { "type": "MultiPolygon", "coordinates": [ [ [ [ 77.302162911189441, 30.154019384187279 ], [ 77.302121788789577, 30.154797548668 ], [ 77.3019414819139, 30.156692349172602 ], [ 77.301631482007338, 30.156445613874041 ], [ 77.30044841756046, 30.155857245015909 ], [ 77.299932804755201, 30.156240000975288 ], [ 77.299439334158023, 30.156594287096709 ], [ 77.299236884174945, 30.156790410349231 ], [ 77.298945863560789, 30.157423064522845 ], [ 77.299894845270956, 30.158194903172273 ], [ 77.299281170389747, 30.158593475508553 ], [ 77.299480456557887, 30.158840210807114 ], [ 77.2997778039026, 30.159169190905459 ], [ 77.300018212470604, 30.159548783949276 ], [ 77.30017004950821, 30.159811335624681 ], [ 77.300701479589691, 30.160583173374789 ], [ 77.301601430261826, 30.161968686905425 ], [ 77.304396181438676, 30.16052623459808 ], [ 77.304443630569153, 30.16049143892883 ], [ 77.306401696581077, 30.159358987427368 ], [ 77.305509653647675, 30.15845429193206 ], [ 77.3047947537749, 30.158112658372545 ], [ 77.305503326917062, 30.157555922268045 ], [ 77.305275570910908, 30.157011839624772 ], [ 77.305395775194938, 30.156897961172035 ], [ 77.306099926370564, 30.156400144151405 ], [ 77.30551228236601, 30.155716339237699 ], [ 77.3049276115201, 30.156126123421927 ], [ 77.304421487461752, 30.155518775271332 ], [ 77.303931180679513, 30.155857245015909 ], [ 77.303548424720077, 30.155809795885432 ], [ 77.303564241096922, 30.155237243404088 ], [ 77.303754037618774, 30.155082243450806 ], [ 77.302162911189441, 30.154019384187279 ] ] ] ] } },
{ "type": "Feature", "properties": { "OBJECTID": 2, "CLUSTER": "GANGA NAGAR COLONY", "CATEGORY": "NON-CONFORMING", "TOTAL_IND": 62, "RED": 26, "GREEN": 32, "ORANGE": 4, "WHITE": 0, "SEC_IN_HA": 21.79, "IND_IN_HA": 18.24, "AREA__AGE": 83.69, "Shape_Leng": 0.0324782441, "Shape_Area": 1.758456e-05 }, "geometry": { "type": "MultiPolygon", "coordinates": [ [ [ [ 77.315193602902525, 30.173013528051911 ], [ 77.31750636332805, 30.174868511072987 ], [ 77.319847185299409, 30.173286875189206 ], [ 77.320188818858981, 30.17362850874872 ], [ 77.320353308458493, 30.173501977734134 ], [ 77.320214124882, 30.172236668487528 ], [ 77.320808819571425, 30.172008913380694 ], [ 77.321061881600599, 30.172502383977871 ], [ 77.320985962632108, 30.173792999247553 ], [ 77.321643923728175, 30.174084019861652 ], [ 77.322403108916376, 30.171578708290781 ], [ 77.320960656609088, 30.171616667775027 ], [ 77.320897391101767, 30.170136255983493 ], [ 77.320631676510743, 30.169693398331731 ], [ 77.31927779573374, 30.170123603421587 ], [ 77.319834531838239, 30.171135849739699 ], [ 77.318885550128073, 30.171388911768929 ], [ 77.318133577502635, 30.171507788653571 ], [ 77.317755249804975, 30.171021807610373 ], [ 77.316709218655546, 30.171414217791948 ], [ 77.316633300586432, 30.172477077954852 ], [ 77.315858790950472, 30.172540343462117 ], [ 77.315213483315631, 30.172919935606615 ], [ 77.314482275136925, 30.172261975409867 ], [ 77.31536799133977, 30.171578708290781 ], [ 77.315036007505796, 30.171157107014949 ], [ 77.31349210627576, 30.172246919859504 ], [ 77.313432068435247, 30.172224015925622 ], [ 77.313940852688233, 30.172508688225435 ], [ 77.314354874477942, 30.172233564027806 ], [ 77.315193602902525, 30.173013528051911 ] ] ] ] } },
{ "type": "Feature", "properties": { "OBJECTID": 3, "CLUSTER": "JARODA GATE", "CATEGORY": "NON-CONFORMING", "TOTAL_IND": 67, "RED": 13, "GREEN": 45, "ORANGE": 7, "WHITE": 2, "SEC_IN_HA": 87.43, "IND_IN_HA": 74.23, "AREA__AGE": 84.9, "Shape_Leng": 0.05038864652, "Shape_Area": 7.055164e-05 }, "geometry": { "type": "MultiPolygon", "coordinates": [ [ [ [ 77.300829690537853, 30.185044659283676 ], [ 77.300953058636821, 30.183858432820443 ], [ 77.302566327274235, 30.183080267440459 ], [ 77.302794083280389, 30.183630676814346 ], [ 77.30368612621379, 30.183630676814346 ], [ 77.303818983059671, 30.183175165701414 ], [ 77.303382451239202, 30.183023328663751 ], [ 77.303690921398982, 30.18154068385553 ], [ 77.304695363400356, 30.18112165284208 ], [ 77.303610812489069, 30.178743035962384 ], [ 77.302387611299253, 30.175387706777315 ], [ 77.302131879182923, 30.174925539781896 ], [ 77.300700703474718, 30.175672709128264 ], [ 77.299979724184993, 30.174161424510203 ], [ 77.299429745586338, 30.172767222629261 ], [ 77.297562592939357, 30.172958251222383 ], [ 77.295455113562696, 30.174084396677642 ], [ 77.293675771619633, 30.174897810085895 ], [ 77.292516611152735, 30.175355556913473 ], [ 77.293104980010867, 30.176816988513281 ], [ 77.294044472074802, 30.176247598947612 ], [ 77.294528452126428, 30.17725351943443 ], [ 77.297223560219209, 30.177158622072795 ], [ 77.297337438671889, 30.178942707040335 ], [ 77.295648251065984, 30.180157404240845 ], [ 77.296616212068614, 30.181182304020183 ], [ 77.299558055459954, 30.18089760923732 ], [ 77.299577034752417, 30.183649656106809 ], [ 77.29754621448626, 30.18429496374165 ], [ 77.297736011008169, 30.184978230860736 ], [ 77.300829690537853, 30.185044659283676 ] ] ] ] } },
{ "type": "Feature", "properties": { "OBJECTID": 4, "CLUSTER": "JASICO COLONY", "CATEGORY": "NON-CONFORMING", "TOTAL_IND": 144, "RED": 52, "GREEN": 90, "ORANGE": 2, "WHITE": 0, "SEC_IN_HA": 20.68, "IND_IN_HA": 16.92, "AREA__AGE": 81.84, "Shape_Leng": 0.01975702753, "Shape_Area": 1.668648e-05 }, "geometry": { "type": "MultiPolygon", "coordinates": [ [ [ [ 77.304050055765515, 30.172928301999605 ], [ 77.302367929636318, 30.170182478438676 ], [ 77.301526865672372, 30.170974067099564 ], [ 77.300852778832734, 30.170324717012136 ], [ 77.300413693836958, 30.170720511342552 ], [ 77.300957911378589, 30.171481178613533 ], [ 77.300487905892226, 30.171988290127558 ], [ 77.300153954341567, 30.172328426315858 ], [ 77.299535525644046, 30.172885012233564 ], [ 77.300203428745306, 30.174628981142632 ], [ 77.300809489066751, 30.174387793761696 ], [ 77.301304231305267, 30.175290699606137 ], [ 77.302145295269213, 30.174795956468245 ], [ 77.302435956154511, 30.175352542385951 ], [ 77.302658590521617, 30.176020445487211 ], [ 77.303286295726025, 30.175856562030788 ], [ 77.30375011747401, 30.175754521354122 ], [ 77.304102622038442, 30.1756617571844 ], [ 77.303910909061244, 30.174857800147436 ], [ 77.303781038863917, 30.174356872371789 ], [ 77.30463447030462, 30.174146606380816 ], [ 77.304050055765515, 30.172928301999605 ] ] ] ] } },
{ "type": "Feature", "properties": { "OBJECTID": 5, "CLUSTER": "MAHAVIR COLONY", "CATEGORY": "NON-CONFORMING", "TOTAL_IND": 75, "RED": 40, "GREEN": 35, "ORANGE": 0, "WHITE": 0, "SEC_IN_HA": 10.08, "IND_IN_HA": 7.7, "AREA__AGE": 76.39, "Shape_Leng": 0.01737206985, "Shape_Area": 8.13462e-06 }, "geometry": { "type": "MultiPolygon", "coordinates": [ [ [ [ 77.314102615543334, 30.171409801221387 ], [ 77.315059118283727, 30.170799618407727 ], [ 77.315001398895504, 30.169422583685332 ], [ 77.313995420852052, 30.169653463936243 ], [ 77.313302780998583, 30.169554515128823 ], [ 77.312799791976886, 30.169109246394669 ], [ 77.311134156716037, 30.169323634877912 ], [ 77.311365036966947, 30.169793641263595 ], [ 77.310359059822815, 30.170527509636884 ], [ 77.310202390727795, 30.17072540725178 ], [ 77.312222591799241, 30.172531218940662 ], [ 77.312796949219887, 30.171976135790089 ], [ 77.311579425450191, 30.171055235410847 ], [ 77.311422757254491, 30.170857338695271 ], [ 77.311966974796121, 30.170519263753079 ], [ 77.31257715760978, 30.171211904505867 ], [ 77.313253306594902, 30.170741898120127 ], [ 77.314102615543334, 30.171409801221387 ] ] ] ] } },
{ "type": "Feature", "properties": { "OBJECTID": 6, "CLUSTER": "MANOHAR COLONY", "CATEGORY": "NON-CONFORMING", "TOTAL_IND": 206, "RED": 61, "GREEN": 140, "ORANGE": 3, "WHITE": 2, "SEC_IN_HA": 31.8, "IND_IN_HA": 25.85, "AREA__AGE": 81.28, "Shape_Leng": 0.02660125731, "Shape_Area": 2.566264e-05 }, "geometry": { "type": "MultiPolygon", "coordinates": [ [ [ [ 77.301609773272503, 30.162277452042815 ], [ 77.302236593544023, 30.163545339645736 ], [ 77.302357683660205, 30.164371602567428 ], [ 77.303255176485266, 30.164108053543885 ], [ 77.303675431476051, 30.164791857558214 ], [ 77.304451834184874, 30.164506938844227 ], [ 77.304971810500717, 30.165504153893664 ], [ 77.304594293092237, 30.165589629058161 ], [ 77.304694014417294, 30.166316170654795 ], [ 77.306453386014994, 30.165960022936758 ], [ 77.306588722291735, 30.165169374067432 ], [ 77.306827341208873, 30.164806103718774 ], [ 77.306809533733031, 30.164538992480573 ], [ 77.30719773508747, 30.164364479936864 ], [ 77.308878754151237, 30.16364506097085 ], [ 77.308679311501066, 30.163267543562313 ], [ 77.309633788068936, 30.162904273213712 ], [ 77.308732733029274, 30.161682685407641 ], [ 77.309274078136241, 30.161362151741969 ], [ 77.308996282952137, 30.161009565339214 ], [ 77.307863732525277, 30.161486804072808 ], [ 77.30806673649073, 30.161899935533654 ], [ 77.307350878840055, 30.162191976878262 ], [ 77.305755335840161, 30.159969613606847 ], [ 77.30504303950471, 30.160325761324884 ], [ 77.301609773272503, 30.162277452042815 ] ] ] ] } },
{ "type": "Feature", "properties": { "OBJECTID": 7, "CLUSTER": "MUKHERJEE PARK", "CATEGORY": "NON-CONFORMING", "TOTAL_IND": 121, "RED": 28, "GREEN": 80, "ORANGE": 9, "WHITE": 4, "SEC_IN_HA": 31.77, "IND_IN_HA": 23.32, "AREA__AGE": 73.38, "Shape_Leng": 0.02615645857, "Shape_Area": 2.56411e-05 }, "geometry": { "type": "MultiPolygon", "coordinates": [ [ [ [ 77.30450125013266, 30.177756090271373 ], [ 77.306647486692214, 30.177642568849535 ], [ 77.306711593065643, 30.177108346373132 ], [ 77.31060073013964, 30.177193822437005 ], [ 77.310622098930764, 30.175826213508969 ], [ 77.30814330836705, 30.175890319882399 ], [ 77.308463842032722, 30.174479974271435 ], [ 77.307822775600698, 30.172642250139802 ], [ 77.307309921915419, 30.172001183707721 ], [ 77.307844144391822, 30.171659282150188 ], [ 77.307395397979292, 30.171082322091536 ], [ 77.306091895424686, 30.171766126105865 ], [ 77.305108927435128, 30.171659282150188 ], [ 77.303933638526644, 30.172364454955698 ], [ 77.304665522995549, 30.174164783478034 ], [ 77.303816109725744, 30.174377135896179 ], [ 77.30415133471638, 30.175691322396688 ], [ 77.304490565287438, 30.176356428606368 ], [ 77.30450125013266, 30.177756090271373 ] ] ] ] } },
{ "type": "Feature", "properties": { "OBJECTID": 8, "CLUSTER": "SHANTI COLONY", "CATEGORY": "NON-CONFORMING", "TOTAL_IND": 54, "RED": 25, "GREEN": 27, "ORANGE": 1, "WHITE": 1, "SEC_IN_HA": 10.88, "IND_IN_HA": 7.85, "AREA__AGE": 72.12, "Shape_Leng": 0.01823643865, "Shape_Area": 8.78056e-06 }, "geometry": { "type": "MultiPolygon", "coordinates": [ [ [ [ 77.317157769015864, 30.174958873153514 ], [ 77.317293106191926, 30.174794316104851 ], [ 77.316641345022106, 30.174382472473155 ], [ 77.315761881805486, 30.173920703877457 ], [ 77.315858041815261, 30.173621539902172 ], [ 77.31514752613748, 30.173007184234223 ], [ 77.314565224105877, 30.172462277811917 ], [ 77.314207295730171, 30.172403513411439 ], [ 77.314020317683571, 30.172611860249219 ], [ 77.313875409922275, 30.172540741861781 ], [ 77.313542856817435, 30.172359106687452 ], [ 77.312814693743178, 30.171990694914712 ], [ 77.312668736473086, 30.172141745045565 ], [ 77.312388937599451, 30.172425884047357 ], [ 77.312445031013453, 30.172498004279532 ], [ 77.310222666842662, 30.174015194745493 ], [ 77.310690779256106, 30.174449584380852 ], [ 77.312879286649832, 30.173110297802054 ], [ 77.313568272557802, 30.17391616589839 ], [ 77.313806649557307, 30.174349858559196 ], [ 77.313809726138004, 30.174663593350203 ], [ 77.313800498194496, 30.174728185357537 ], [ 77.313809726138004, 30.175057299454863 ], [ 77.31567675647716, 30.175035768785733 ], [ 77.317157769015864, 30.174958873153514 ] ] ] ] } },
{ "type": "Feature", "properties": { "OBJECTID": 9, "CLUSTER": "CHANETI ROAD", "CATEGORY": "NON-CONFORMING", "TOTAL_IND": 86, "RED": 1, "GREEN": 69, "ORANGE": 15, "WHITE": 1, "SEC_IN_HA": 24.56, "IND_IN_HA": 18.82, "AREA__AGE": 76.62, "Shape_Leng": 0.03453155336, "Shape_Area": 1.981932e-05 }, "geometry": { "type": "MultiPolygon", "coordinates": [ [ [ [ 77.321882181117815, 30.168663210538796 ], [ 77.32412591318041, 30.168593762192415 ], [ 77.325237095715465, 30.168577735374242 ], [ 77.334179972128084, 30.168551023710847 ], [ 77.334164046033948, 30.167844473143987 ], [ 77.333431997888454, 30.167826018156291 ], [ 77.333425846525643, 30.166792537945298 ], [ 77.332761466968179, 30.166841751545633 ], [ 77.332755314706048, 30.166257343301822 ], [ 77.330675475992507, 30.166221815584379 ], [ 77.330643422356104, 30.1657303315896 ], [ 77.329860956418088, 30.165734451383855 ], [ 77.329904018655611, 30.166884812883836 ], [ 77.329196576860568, 30.166884812883836 ], [ 77.329233075845821, 30.167578739667135 ], [ 77.328544500928047, 30.167813714531349 ], [ 77.32767096424368, 30.167826018156291 ], [ 77.326452935054988, 30.16788753448219 ], [ 77.326455121306878, 30.16717273083691 ], [ 77.324334260018134, 30.167397104492807 ], [ 77.324339601991085, 30.166382082866903 ], [ 77.323068153972201, 30.1664194784762 ], [ 77.323094864736277, 30.166814802461204 ], [ 77.322245196058986, 30.166835600182878 ], [ 77.322251347421798, 30.167632240335649 ], [ 77.321711229889388, 30.167696268468092 ], [ 77.32097934542054, 30.167690926495141 ], [ 77.321882181117815, 30.168663210538796 ] ] ] ] } },
{ "type": "Feature", "properties": { "OBJECTID": 10, "CLUSTER": "TEJLI GATE", "CATEGORY": "NON-CONFORMING", "TOTAL_IND": 101, "RED": 0, "GREEN": 69, "ORANGE": 26, "WHITE": 6, "SEC_IN_HA": 46.33, "IND_IN_HA": 34.75, "AREA__AGE": 75.01, "Shape_Leng": 0.03478410095, "Shape_Area": 3.738962e-05 }, "geometry": { "type": "MultiPolygon", "coordinates": [ [ [ [ 77.313741973013691, 30.152337384862449 ], [ 77.31448988340145, 30.151236888071992 ], [ 77.313966345770325, 30.150627874376937 ], [ 77.313464176930268, 30.151258256863116 ], [ 77.312972692935489, 30.151151412008119 ], [ 77.312374364085713, 30.151749740857895 ], [ 77.311882880090877, 30.152337384862449 ], [ 77.312363680139811, 30.152593812154748 ], [ 77.311647822489078, 30.153373776178853 ], [ 77.310322952042668, 30.152273278489076 ], [ 77.310344320833792, 30.152155749688177 ], [ 77.309895574421262, 30.152540389727278 ], [ 77.308025796653226, 30.150318026455807 ], [ 77.307256517474343, 30.150691981649686 ], [ 77.307502259022101, 30.151162096853341 ], [ 77.308976711905814, 30.153106664940708 ], [ 77.308220787659252, 30.153729033568084 ], [ 77.308819116509085, 30.154626526393145 ], [ 77.307307268016075, 30.155700313318846 ], [ 77.310152000814242, 30.158833525247019 ], [ 77.312694897751385, 30.157636867547467 ], [ 77.31448988340145, 30.156333365892181 ], [ 77.313827448178245, 30.155649561877851 ], [ 77.315536958663756, 30.153769100163913 ], [ 77.313741973013691, 30.152337384862449 ] ] ] ] } },
{ "type": "Feature", "properties": { "OBJECTID": 11, "CLUSTER": "OLD HAMIDA", "CATEGORY": "NON-CONFORMING", "TOTAL_IND": 82, "RED": 0, "GREEN": 52, "ORANGE": 29, "WHITE": 1, "SEC_IN_HA": 41.83, "IND_IN_HA": 34.4, "AREA__AGE": 82.23, "Shape_Leng": 0.0295126385, "Shape_Area": 3.375781e-05 }, "geometry": { "type": "MultiPolygon", "coordinates": [ [ [ [ 77.283759388984663, 30.111597329952872 ], [ 77.283553147459827, 30.111624828523077 ], [ 77.28356689629527, 30.11231230087202 ], [ 77.282631934116523, 30.112724784821012 ], [ 77.281525103400838, 30.113556626237369 ], [ 77.281896339044863, 30.114085979784193 ], [ 77.281490730412941, 30.114292221309029 ], [ 77.28091325324408, 30.11447096426366 ], [ 77.281579616705983, 30.115198526590802 ], [ 77.282293209863781, 30.114878640436984 ], [ 77.28278534316911, 30.115567626344955 ], [ 77.280542018499432, 30.116533381310546 ], [ 77.280830756634145, 30.116904616954571 ], [ 77.28194446176758, 30.118279561652514 ], [ 77.285959300681213, 30.116162146565841 ], [ 77.286509278380549, 30.116877117485046 ], [ 77.290241160900905, 30.115118555277149 ], [ 77.28983664494524, 30.114209724699094 ], [ 77.287609233779165, 30.113027272690545 ], [ 77.285629314241532, 30.112092310511798 ], [ 77.283759388984663, 30.111597329952872 ] ] ] ] } },
{ "type": "Feature", "properties": { "OBJECTID": 12, "CLUSTER": "GANDHI MARKET", "CATEGORY": "NON-CONFORMING", "TOTAL_IND": 79, "RED": 0, "GREEN": 71, "ORANGE": 3, "WHITE": 0, "SEC_IN_HA": 111.7, "IND_IN_HA": 92.2, "AREA__AGE": 82.54, "Shape_Leng": 0.04624183343, "Shape_Area": 9.013934e-05 }, "geometry": { "type": "MultiPolygon", "coordinates": [ [ [ [ 77.281263864735649, 30.120637591251864 ], [ 77.283243784273282, 30.123084992778217 ], [ 77.281071372046256, 30.123964957816611 ], [ 77.282583811393863, 30.126769845252227 ], [ 77.285113709530151, 30.125449897694693 ], [ 77.285677436964193, 30.126247366123096 ], [ 77.287767352581341, 30.125339902514554 ], [ 77.289912266238161, 30.12858477246931 ], [ 77.294325839366024, 30.125917379683358 ], [ 77.291658446580129, 30.122040035419332 ], [ 77.293088389317745, 30.120390101422117 ], [ 77.291588375003585, 30.117591524529303 ], [ 77.289066193050417, 30.118317420412666 ], [ 77.288500239794303, 30.116865627746563 ], [ 77.281263864735649, 30.120637591251864 ] ] ] ] } },
{ "type": "Feature", "properties": { "OBJECTID": 13, "CLUSTER": "ISHOPUR", "CATEGORY": "NON-CONFORMING", "TOTAL_IND": 80, "RED": 0, "GREEN": 61, "ORANGE": 9, "WHITE": 10, "SEC_IN_HA": 67.74, "IND_IN_HA": 52.35, "AREA__AGE": 77.28, "Shape_Leng": 0.05097932205, "Shape_Area": 5.466041e-05 }, "geometry": { "type": "MultiPolygon", "coordinates": [ [ [ [ 77.273139533262906, 30.12116871736248 ], [ 77.273262565914763, 30.119310914966832 ], [ 77.274074586273173, 30.117317775395065 ], [ 77.27102336014002, 30.117096315542597 ], [ 77.270617320732811, 30.115371313335515 ], [ 77.269431347878481, 30.115355286517286 ], [ 77.269495454251853, 30.115964299313021 ], [ 77.268373588670215, 30.116044433403943 ], [ 77.268224352471918, 30.117471566659503 ], [ 77.264959909672143, 30.117775312680578 ], [ 77.262123190732723, 30.117615045398054 ], [ 77.262075110278147, 30.117342592186958 ], [ 77.255375965928124, 30.117198352621926 ], [ 77.256373626141965, 30.118472472526662 ], [ 77.258773618108023, 30.118640751869236 ], [ 77.258833718001767, 30.119806691425708 ], [ 77.258773618108023, 30.120596004801826 ], [ 77.25995959096241, 30.120636071397655 ], [ 77.259999657558183, 30.121108857587785 ], [ 77.261321857018117, 30.121076804850702 ], [ 77.261309881645786, 30.120104479438226 ], [ 77.262232631930488, 30.120178299389067 ], [ 77.262730916598571, 30.120621219094062 ], [ 77.262952376451096, 30.120824223958834 ], [ 77.263653737030381, 30.120403684782275 ], [ 77.263693803626211, 30.120411697741702 ], [ 77.263878109787015, 30.120740244366857 ], [ 77.264567256673615, 30.12064007787734 ], [ 77.265304483115472, 30.120852431194805 ], [ 77.265953562506979, 30.12136929135977 ], [ 77.266482442111055, 30.121108857587785 ], [ 77.266562575302657, 30.119906857915225 ], [ 77.267812655429736, 30.119842751541796 ], [ 77.269703801089634, 30.119874805178142 ], [ 77.269783934281179, 30.120884484831151 ], [ 77.273139533262906, 30.12116871736248 ] ] ] ] } },
{ "type": "Feature", "properties": { "OBJECTID": 14, "CLUSTER": "MANGATPURA", "CATEGORY": "NON-CONFORMING", "TOTAL_IND": 23, "RED": 0, "GREEN": 23, "ORANGE": 0, "WHITE": 0, "SEC_IN_HA": 3.0, "IND_IN_HA": 2.4, "AREA__AGE": 80.22, "Shape_Leng": 0.00696455802, "Shape_Area": 2.41808e-06 }, "geometry": { "type": "MultiPolygon", "coordinates": [ [ [ [ 77.302926662235734, 30.166341160116474 ], [ 77.303232607099176, 30.166227773592937 ], [ 77.303413878947424, 30.166093691870458 ], [ 77.303858618880213, 30.165869318214504 ], [ 77.303762458870438, 30.165757132285876 ], [ 77.304387498484346, 30.165582841874709 ], [ 77.303938752071815, 30.164849621912595 ], [ 77.303670305340404, 30.164835598783895 ], [ 77.303289672680307, 30.164236602637175 ], [ 77.303077319362842, 30.164330758957419 ], [ 77.303213545968447, 30.164563145572743 ], [ 77.302340092920986, 30.164987852207673 ], [ 77.302043599932233, 30.165204212004824 ], [ 77.302408205774157, 30.165648951937612 ], [ 77.302926662235734, 30.166341160116474 ] ] ] ] } },
{ "type": "Feature", "properties": { "OBJECTID": 15, "CLUSTER": "BHAGWANGARH", "CATEGORY": "NON-CONFORMING", "TOTAL_IND": 42, "RED": 0, "GREEN": 34, "ORANGE": 4, "WHITE": 4, "SEC_IN_HA": 44.19, "IND_IN_HA": 35.38, "AREA__AGE": 80.07, "Shape_Leng": 0.03086738723, "Shape_Area": 3.566023e-05 }, "geometry": { "type": "MultiPolygon", "coordinates": [ [ [ [ 77.317027046261217, 30.162623247664783 ], [ 77.316567209409243, 30.162546352032564 ], [ 77.316507230924003, 30.162340270587094 ], [ 77.316939384844773, 30.162501751954323 ], [ 77.317010129114237, 30.162203396469636 ], [ 77.318128356938189, 30.161653305455729 ], [ 77.318865583380045, 30.161236611780282 ], [ 77.318480944240264, 30.160723758994322 ], [ 77.318689290178668, 30.160595545348201 ], [ 77.319474597075043, 30.160194879390247 ], [ 77.318144383756362, 30.158159493266055 ], [ 77.316012837622395, 30.158239626457657 ], [ 77.312679292715245, 30.160050638925895 ], [ 77.313961425579407, 30.16160522500121 ], [ 77.312198492666369, 30.162182185059862 ], [ 77.31327227869275, 30.163881010700152 ], [ 77.314682625203034, 30.165756130441139 ], [ 77.315548064391692, 30.165724076804736 ], [ 77.31731099730473, 30.165659970431363 ], [ 77.317359077759306, 30.165259303574032 ], [ 77.317150730921526, 30.164970823544706 ], [ 77.318128356938189, 30.164441943940631 ], [ 77.317968090554984, 30.164281677557426 ], [ 77.319290859285786, 30.16381359482159 ], [ 77.31877411962995, 30.162866238186382 ], [ 77.317027046261217, 30.162623247664783 ] ] ] ] } },
{ "type": "Feature", "properties": { "OBJECTID": 16, "CLUSTER": "MANAKPUR", "CATEGORY": "CONFORMING", "TOTAL_IND": 301, "RED": 29, "GREEN": 257, "ORANGE": 11, "WHITE": 4, "SEC_IN_HA": 84.51, "IND_IN_HA": 69.33, "AREA__AGE": 82.03, "Shape_Leng": 0.03499292066, "Shape_Area": 6.820032e-05 }, "geometry": { "type": "MultiPolygon", "coordinates": [ [ [ [ 77.330421048792402, 30.202412436784584 ], [ 77.3305672623693, 30.20246304883068 ], [ 77.331298329354468, 30.201765723509368 ], [ 77.332231846322713, 30.200309212100535 ], [ 77.333457790444754, 30.198369071375623 ], [ 77.334661239824413, 30.196305212715458 ], [ 77.335302329638864, 30.195664122901007 ], [ 77.335246093232684, 30.192964796987837 ], [ 77.330758464531584, 30.192987290830843 ], [ 77.325652239859039, 30.193032280315549 ], [ 77.324055139233337, 30.193335954390818 ], [ 77.322975408688194, 30.193763347300717 ], [ 77.324111374740198, 30.195382942668743 ], [ 77.325269835534527, 30.196563897306078 ], [ 77.330421048792402, 30.202412436784584 ] ] ] ] } },
{ "type": "Feature", "properties": { "OBJECTID": 17, "CLUSTER": "MUMIDI", "CATEGORY": "CONFORMING", "TOTAL_IND": 132, "RED": 1, "GREEN": 93, "ORANGE": 36, "WHITE": 2, "SEC_IN_HA": 63.53, "IND_IN_HA": 50.27, "AREA__AGE": 79.13, "Shape_Leng": 0.05741913687, "Shape_Area": 5.127078e-05 }, "geometry": { "type": "MultiPolygon", "coordinates": [ [ [ [ 77.255290872076159, 30.123855381720546 ], [ 77.256044433803652, 30.123832886978221 ], [ 77.255386472707585, 30.122792521557699 ], [ 77.255498944620626, 30.122843134503114 ], [ 77.255482074238387, 30.122213291610194 ], [ 77.254481073942486, 30.122258280195524 ], [ 77.254413590614774, 30.120655556109057 ], [ 77.25413241128183, 30.120295645627607 ], [ 77.25323263597744, 30.119002219077174 ], [ 77.25323263597744, 30.11840611784811 ], [ 77.256370601721926, 30.118552331425008 ], [ 77.255110916835406, 30.11692148823613 ], [ 77.254138034742539, 30.115453729905767 ], [ 77.252417214383001, 30.116375999952481 ], [ 77.251483697414756, 30.114767651505986 ], [ 77.24876187765858, 30.114655179592887 ], [ 77.248694394330869, 30.112641932978875 ], [ 77.248019562852619, 30.112608191315019 ], [ 77.248042057594944, 30.115982347807176 ], [ 77.246855478597524, 30.116651555824717 ], [ 77.246743006684483, 30.116460353662433 ], [ 77.246068175206176, 30.116494095326289 ], [ 77.24603443444164, 30.115942982682554 ], [ 77.244684771485083, 30.115875500254162 ], [ 77.244628535078903, 30.114627061389797 ], [ 77.243706265931507, 30.114649556132179 ], [ 77.24360504093994, 30.11354733174403 ], [ 77.242137282609576, 30.114435859227569 ], [ 77.244510439705095, 30.116685297488516 ], [ 77.245387720267161, 30.117500719082955 ], [ 77.246343731977731, 30.118040583905895 ], [ 77.25060641685269, 30.118299269395834 ], [ 77.250668276719637, 30.121184174010466 ], [ 77.250353354823517, 30.121229162595853 ], [ 77.250330860980512, 30.121791522161061 ], [ 77.250679523641168, 30.121836510746448 ], [ 77.250600793391982, 30.122882499627735 ], [ 77.251669276116274, 30.12284875796388 ], [ 77.25170301778013, 30.123444859192944 ], [ 77.255274000794543, 30.123371752404523 ], [ 77.255290872076159, 30.123855381720546 ] ] ] ] } },
{ "type": "Feature", "properties": { "OBJECTID": 18, "CLUSTER": "HSIIDC_AREA", "CATEGORY": "CONFORMING", "TOTAL_IND": 270, "RED": 14, "GREEN": 236, "ORANGE": 16, "WHITE": 4, "SEC_IN_HA": 140.24, "IND_IN_HA": 115.28, "AREA__AGE": 82.2, "Shape_Leng": 0.04285572911, "Shape_Area": 0.00011317221 }, "geometry": { "type": "MultiPolygon", "coordinates": [ [ [ [ 77.273033314336033, 30.135226290960588 ], [ 77.282953336527328, 30.131267280160898 ], [ 77.278499448590765, 30.12256195427085 ], [ 77.273550685315911, 30.124361504879573 ], [ 77.273145786249074, 30.123956605812737 ], [ 77.267702145837404, 30.12589112307694 ], [ 77.270086550753774, 30.130536212276411 ], [ 77.271751134707131, 30.133617942514093 ], [ 77.273033314336033, 30.135226290960588 ] ] ] ] } },
{ "type": "Feature", "properties": { "OBJECTID": 19, "CLUSTER": "BADHI MAJRA", "CATEGORY": "CONFORMING", "TOTAL_IND": 502, "RED": 4, "GREEN": 291, "ORANGE": 196, "WHITE": 11, "SEC_IN_HA": 268.23, "IND_IN_HA": 186.29, "AREA__AGE": 71.45, "Shape_Leng": 0.06334985751, "Shape_Area": 0.0002164567 }, "geometry": { "type": "MultiPolygon", "coordinates": [ [ [ [ 77.291399976028117, 30.113969101193106 ], [ 77.298817497929235, 30.110617438544011 ], [ 77.303254514584239, 30.108041831465414 ], [ 77.299340492369879, 30.102868124364477 ], [ 77.296011324463109, 30.102913112949864 ], [ 77.293132043309186, 30.099066574063215 ], [ 77.291489954098154, 30.09823428208648 ], [ 77.28423551615623, 30.098335506178728 ], [ 77.281266257831589, 30.100472472526633 ], [ 77.278679403831461, 30.101777146897859 ], [ 77.279061808155973, 30.102069574051654 ], [ 77.279174280069014, 30.103835382996579 ], [ 77.28285211153576, 30.1039478540103 ], [ 77.284224269234699, 30.108536707702967 ], [ 77.286434049192053, 30.109886564013777 ], [ 77.288340740532817, 30.11171966293216 ], [ 77.289240515837207, 30.112169550584326 ], [ 77.290297751639969, 30.113339258300186 ], [ 77.291399976028117, 30.113969101193106 ] ] ] ] } },
{ "type": "Feature", "properties": { "OBJECTID": 20, "CLUSTER": "KAMI MAJRA", "CATEGORY": "CONFORMING", "TOTAL_IND": 353, "RED": 0, "GREEN": 212, "ORANGE": 132, "WHITE": 9, "SEC_IN_HA": 379.03, "IND_IN_HA": 295.13, "AREA__AGE": 77.87, "Shape_Leng": 0.07267835642000001, "Shape_Area": 0.00030586287 }, "geometry": { "type": "MultiPolygon", "coordinates": [ [ [ [ 77.292119796091754, 30.115138808908966 ], [ 77.29303644267776, 30.117686297784473 ], [ 77.29429612756428, 30.119328386995505 ], [ 77.295960711517694, 30.120093196543849 ], [ 77.296703026323655, 30.120723038537449 ], [ 77.298547565517765, 30.122545083888554 ], [ 77.3014943299994, 30.12259007247394 ], [ 77.304845992648495, 30.123174926781473 ], [ 77.307590307146995, 30.123242409209865 ], [ 77.31053707072931, 30.121780274340267 ], [ 77.318927474723239, 30.116471600583964 ], [ 77.320809551619561, 30.10946825065929 ], [ 77.319377362375405, 30.108081196589978 ], [ 77.312409728126511, 30.108053079286208 ], [ 77.310373986770117, 30.107985595958553 ], [ 77.309541693894118, 30.10759194381319 ], [ 77.307865863019231, 30.106500966346573 ], [ 77.306043817668126, 30.107445730236293 ], [ 77.306504953141143, 30.108356753361534 ], [ 77.304671660868507, 30.1088066410137 ], [ 77.292119796091754, 30.115138808908966 ] ] ] ] } },
{ "type": "Feature", "properties": { "OBJECTID": 21, "CLUSTER": "CHANETI ROAD", "CATEGORY": "CONFORMING", "TOTAL_IND": 47, "RED": 0, "GREEN": 37, "ORANGE": 8, "WHITE": 2, "SEC_IN_HA": 10.4, "IND_IN_HA": 7.74, "AREA__AGE": 74.49, "Shape_Leng": 0.01652605079, "Shape_Area": 8.39e-06 }, "geometry": { "type": "MultiPolygon", "coordinates": [ [ [ [ 77.32273693636057, 30.171361031886136 ], [ 77.323762642831753, 30.171510614323438 ], [ 77.323709220404282, 30.170004107803379 ], [ 77.327790676598511, 30.16982247262905 ], [ 77.327833414180759, 30.16859109030662 ], [ 77.324355628809258, 30.168612459097744 ], [ 77.324192691439634, 30.168673895384018 ], [ 77.322021078709895, 30.168732659784496 ], [ 77.32235763829442, 30.169213458934053 ], [ 77.322752963178743, 30.169961370221131 ], [ 77.322789023294831, 30.171170047359851 ], [ 77.32273693636057, 30.171361031886136 ] ] ] ] } }
]
}
