{
"type": "FeatureCollection",
"name": "YNR_SEC",
"crs": { "type": "name", "properties": { "name": "urn:ogc:def:crs:EPSG::3857" } },
"features": [
{ "type": "Feature", "properties": { "SECTOR": "09", "CATEGORY": "COMMERCIAL", "ZONE": "NON-CONFORMING", "TOTAL IND": 1, "GREEN": 1, "ORANGE": 0, "RED": 0, "WHITE": 0, "SEC(IN HAC": 127.15, "IND(IN HAC": 0.02, "AREA(%AGE)": 0.01 }, "geometry": { "type": "MultiPolygon", "coordinates": [ [ [ [ 8596729.904413057491183, 3520530.250580444931984 ], [ 8596887.684676250442863, 3520548.676173926331103 ], [ 8597055.589872855693102, 3520524.226820583920926 ], [ 8597255.850986436009407, 3520462.876314604189247 ], [ 8598002.185286650434136, 3520034.192375038284808 ], [ 8598577.076219704002142, 3519593.492163400631398 ], [ 8597700.069127878174186, 3518691.413472525775433 ], [ 8597377.023226946592331, 3519005.813781555742025 ], [ 8597114.743955621495843, 3519431.398350523319095 ], [ 8596894.30331944860518, 3519975.472304435446858 ], [ 8596729.904413057491183, 3520530.250580444931984 ] ] ] ] } },
{ "type": "Feature", "properties": { "SECTOR": "20", "CATEGORY": "COMMERCIAL", "ZONE": "NON-CONFORMING", "TOTAL IND": 1, "GREEN": 1, "ORANGE": 0, "RED": 0, "WHITE": 0, "SEC(IN HAC": 20.25, "IND(IN HAC": 0.43, "AREA(%AGE)": 2.13 }, "geometry": { "type": "MultiPolygon", "coordinates": [ [ [ [ 8602048.553464222699404, 3524784.531801645178348 ], [ 8601853.210639283061028, 3524913.328804682474583 ], [ 8602468.862642908468843, 3525724.023618712555617 ], [ 8602721.992669396102428, 3525607.400331520941108 ], [ 8602328.927498526871204, 3525098.768860238138586 ], [ 8602048.553464222699404, 3524784.531801645178348 ] ] ] ] } },
{ "type": "Feature", "properties": { "SECTOR": "18", "CATEGORY": "COMMERCIAL", "ZONE": "NON-CONFORMING", "TOTAL IND": 2, "GREEN": 2, "ORANGE": 0, "RED": 0, "WHITE": 0, "SEC(IN HAC": 21.84, "IND(IN HAC": 3.6, "AREA(%AGE)": 16.47 }, "geometry": { "type": "MultiPolygon", "coordinates": [ [ [ [ 8603882.877313289791346, 3522590.005691666621715 ], [ 8603635.781479686498642, 3522681.164986855350435 ], [ 8603623.405952589586377, 3522905.010421419050545 ], [ 8603805.475410496816039, 3523542.281818558461964 ], [ 8603987.711140071973205, 3523466.177642560563982 ], [ 8604150.429590297862887, 3523476.012894143350422 ], [ 8603882.877313289791346, 3522590.005691666621715 ] ] ] ] } },
{ "type": "Feature", "properties": { "SECTOR": "24A", "CATEGORY": "COMMERCIAL", "ZONE": "NON-CONFORMING", "TOTAL IND": 2, "GREEN": 2, "ORANGE": 0, "RED": 0, "WHITE": 0, "SEC(IN HAC": 18.82, "IND(IN HAC": 0.24, "AREA(%AGE)": 1.28 }, "geometry": { "type": "MultiPolygon", "coordinates": [ [ [ [ 8604061.269145647063851, 3527303.400896591600031 ], [ 8604901.191160930320621, 3527287.298876852728426 ], [ 8604503.700168583542109, 3526738.710851610638201 ], [ 8604313.923951458185911, 3526894.238804403692484 ], [ 8604061.269145647063851, 3527303.400896591600031 ] ] ] ] } },
{ "type": "Feature", "properties": { "SECTOR": "03", "CATEGORY": "COMMERCIAL", "ZONE": "NON-CONFORMING", "TOTAL IND": 42, "GREEN": 27, "ORANGE": 15, "RED": 0, "WHITE": 0, "SEC(IN HAC": 13.99, "IND(IN HAC": 4.35, "AREA(%AGE)": 31.13 }, "geometry": { "type": "MultiPolygon", "coordinates": [ [ [ [ 8604716.584150843322277, 3517844.98306849040091 ], [ 8605072.752921191975474, 3517632.936673584859818 ], [ 8604815.171631844714284, 3517206.328338215593249 ], [ 8604528.156437862664461, 3517355.860413477290422 ], [ 8604716.584150843322277, 3517844.98306849040091 ] ] ] ] } },
{ "type": "Feature", "properties": { "SECTOR": "19", "CATEGORY": "COMMERCIAL", "ZONE": "NON-CONFORMING", "TOTAL IND": 0, "GREEN": 0, "ORANGE": 0, "RED": 0, "WHITE": 0, "SEC(IN HAC": 91.77, "IND(IN HAC": 0.0, "AREA(%AGE)": 0.0 }, "geometry": { "type": "MultiPolygon", "coordinates": [ [ [ [ 8601523.975490752607584, 3523944.93060893099755 ], [ 8601861.808376783505082, 3524441.606817991938442 ], [ 8602073.653789345175028, 3524705.643020302522928 ], [ 8603204.281459107995033, 3523989.48101750575006 ], [ 8602829.111331485211849, 3523599.807544760871679 ], [ 8602726.893845176324248, 3523515.732019087765366 ], [ 8602405.445483790710568, 3523289.226669060997665 ], [ 8601523.975490752607584, 3523944.93060893099755 ] ] ] ] } },
{ "type": "Feature", "properties": { "SECTOR": "12", "CATEGORY": "COMMERCIAL", "ZONE": "NON-CONFORMING", "TOTAL IND": 0, "GREEN": 0, "ORANGE": 0, "RED": 0, "WHITE": 0, "SEC(IN HAC": 34.4, "IND(IN HAC": 0.0, "AREA(%AGE)": 0.0 }, "geometry": { "type": "MultiPolygon", "coordinates": [ [ [ [ 8599308.358460798859596, 3522258.255597229115665 ], [ 8599168.323148703202605, 3522438.35305276978761 ], [ 8600540.821463324129581, 3523593.869907602202147 ], [ 8600692.306465899571776, 3523410.393258776515722 ], [ 8600131.994598610326648, 3522881.940177575219423 ], [ 8599308.358460798859596, 3522258.255597229115665 ] ] ] ] } },
{ "type": "Feature", "properties": { "SECTOR": "13", "CATEGORY": "COMMERCIAL", "ZONE": "NON-CONFORMING", "TOTAL IND": 0, "GREEN": 0, "ORANGE": 0, "RED": 0, "WHITE": 0, "SEC(IN HAC": 41.6, "IND(IN HAC": 0.0, "AREA(%AGE)": 0.0 }, "geometry": { "type": "MultiPolygon", "coordinates": [ [ [ [ 8600723.507794180884957, 3523453.871673711109906 ], [ 8600580.751757860183716, 3523627.332763596437871 ], [ 8601387.413708949461579, 3524430.952700713649392 ], [ 8601824.802513021975756, 3524866.363869925960898 ], [ 8602015.247541051357985, 3524743.979778127744794 ], [ 8601817.614017315208912, 3524497.594879221636802 ], [ 8601599.266261730343103, 3524150.972660764120519 ], [ 8601345.514732396230102, 3523856.494659824762493 ], [ 8601076.057404775172472, 3523642.942847994621843 ], [ 8600723.507794180884957, 3523453.871673711109906 ] ] ] ] } },
{ "type": "Feature", "properties": { "SECTOR": "JAGADHRI", "CATEGORY": "EXISTING TOWN", "ZONE": "NON-CONFORMING", "TOTAL IND": 853, "GREEN": 593, "ORANGE": 33, "RED": 210, "WHITE": 17, "SEC(IN HAC": 472.86, "IND(IN HAC": 48.66, "AREA(%AGE)": 10.29 }, "geometry": { "type": "MultiPolygon", "coordinates": [ [ [ [ 8604862.670652264729142, 3527162.665194781962782 ], [ 8606016.031063659116626, 3526645.707579793408513 ], [ 8605967.477158779278398, 3526400.197024409193546 ], [ 8607220.243562668561935, 3525023.631003705319017 ], [ 8606735.344030983746052, 3524377.376669735647738 ], [ 8606228.014382153749466, 3523607.844107816461474 ], [ 8606142.111857591196895, 3523713.036766473203897 ], [ 8606064.294349007308483, 3523826.411840009037405 ], [ 8606022.859118776395917, 3523880.177712440025061 ], [ 8605965.253856338560581, 3523922.255498057231307 ], [ 8605862.171027027070522, 3523994.723150670062751 ], [ 8605263.885590709745884, 3524366.418620590586215 ], [ 8605183.036247858777642, 3524419.894600227009505 ], [ 8605169.898258347064257, 3524431.729412036016583 ], [ 8605137.053121272474527, 3524460.951279689092189 ], [ 8605062.267530599609017, 3524553.877660124562681 ], [ 8605017.800364753231406, 3524605.60095460806042 ], [ 8604992.534920979291201, 3524637.745585864409804 ], [ 8604964.237738192081451, 3524659.954583699349314 ], [ 8604932.908568320795894, 3524680.410376326180995 ], [ 8603572.112609349191189, 3525428.820280990563333 ], [ 8604862.670652264729142, 3527162.665194781962782 ] ] ] ] } },
{ "type": "Feature", "properties": { "SECTOR": "YAMUNANAGAR", "CATEGORY": "EXISTING TOWN", "ZONE": "NON-CONFORMING", "TOTAL IND": 448, "GREEN": 330, "ORANGE": 41, "RED": 0, "WHITE": 77, "SEC(IN HAC": 1084.38, "IND(IN HAC": 57.51, "AREA(%AGE)": 5.3 }, "geometry": { "type": "MultiPolygon", "coordinates": [ [ [ [ 8603644.221575230360031, 3522160.937949324958026 ], [ 8603900.208339776843786, 3522130.452184268739074 ], [ 8603927.327817231416702, 3522158.647688579279929 ], [ 8604587.862129561603069, 3521888.665855524595827 ], [ 8604677.514624109491706, 3521979.237638300284743 ], [ 8604700.365943372249603, 3522073.094516386743635 ], [ 8604778.28411060385406, 3522016.913745319936424 ], [ 8604827.804310047999024, 3521987.11311394488439 ], [ 8604897.031678821891546, 3521953.222251073922962 ], [ 8604978.89161254093051, 3521930.871830718591809 ], [ 8605023.358769629150629, 3521913.342226957902312 ], [ 8605097.639090675860643, 3521851.988506095018238 ], [ 8605000.11451755836606, 3521679.615375191438943 ], [ 8604814.1609723046422, 3521409.958319388795644 ], [ 8604648.419808175414801, 3521143.520694462116808 ], [ 8604251.247323144227266, 3521347.438431144226342 ], [ 8603345.734452538192272, 3521803.782179944682866 ], [ 8603389.190999446436763, 3521862.214010139461607 ], [ 8603463.976640149950981, 3521968.560817976482213 ], [ 8603644.221575230360031, 3522160.937949324958026 ] ] ] ] } },
{ "type": "Feature", "properties": { "SECTOR": "YAMUNANAGAR", "CATEGORY": "EXISTING TOWN", "ZONE": "NON-CONFORMING", "TOTAL IND": 448, "GREEN": 330, "ORANGE": 41, "RED": 0, "WHITE": 77, "SEC(IN HAC": 1084.38, "IND(IN HAC": 57.51, "AREA(%AGE)": 5.3 }, "geometry": { "type": "MultiPolygon", "coordinates": [ [ [ [ 8605245.055861279368401, 3522022.831193208694458 ], [ 8605572.48049059137702, 3521850.168820280116051 ], [ 8605750.590967269614339, 3521758.905514487065375 ], [ 8606115.344139128923416, 3521661.167951560113579 ], [ 8606285.455629490315914, 3521623.552962655667216 ], [ 8606323.850777106359601, 3521626.019616161007434 ], [ 8606367.578350814059377, 3521645.752023613080382 ], [ 8606440.635796515271068, 3521684.600273243617266 ], [ 8606717.400139175355434, 3521448.737882917746902 ], [ 8606893.910924885421991, 3521301.056434229947627 ], [ 8605987.360555458813906, 3520309.569290436338633 ], [ 8605976.695341154932976, 3520180.089698167983443 ], [ 8605896.705519279465079, 3520039.975830510724336 ], [ 8605825.248011738061905, 3519999.899514817167073 ], [ 8605750.057679623365402, 3519918.514271656516939 ], [ 8605629.539740467444062, 3519837.129551325924695 ], [ 8605513.821291968226433, 3519738.944342701230198 ], [ 8605515.42113734036684, 3519626.271382760256529 ], [ 8605510.088465617969632, 3519525.467573259491473 ], [ 8605182.663804003968835, 3519568.625018176157027 ], [ 8605104.807143416255713, 3519573.557383724022657 ], [ 8605000.287243142724037, 3519558.760399598628283 ], [ 8604872.303718319162726, 3519502.039266789332032 ], [ 8604736.854358993470669, 3519450.250604806933552 ], [ 8604622.735679514706135, 3519389.522513389121741 ], [ 8604549.14507082477212, 3519300.434523841366172 ], [ 8604436.092911755666137, 3519177.130390188191086 ], [ 8604374.234163468703628, 3519101.915451989509165 ], [ 8604275.046998981386423, 3519026.701006732415408 ], [ 8604202.522922428324819, 3518975.839097615331411 ], [ 8604150.263017715886235, 3518904.940919807646424 ], [ 8604094.803393520414829, 3518787.805665449239314 ], [ 8604048.942633440718055, 3518620.119081829674542 ], [ 8603991.350022835657001, 3518421.302427110262215 ], [ 8603716.185357112437487, 3518602.549195175524801 ], [ 8603364.763861451297998, 3518842.057658323552459 ], [ 8602992.585715526714921, 3519056.707843564450741 ], [ 8603012.808919740840793, 3519070.47334633814171 ], [ 8603292.239684469997883, 3518952.103537088260055 ], [ 8603651.660303235054016, 3518804.142809511162341 ], [ 8603679.389990974217653, 3519097.599924499634653 ], [ 8603715.652172964066267, 3519407.401716101448983 ], [ 8603732.716504544019699, 3519516.527862769551575 ], [ 8603759.379758629947901, 3519641.068258777726442 ], [ 8603815.905882989987731, 3519779.482169262133539 ], [ 8604780.048765333369374, 3521282.40364233404398 ], [ 8605245.055861279368401, 3522022.831193208694458 ] ] ] ] } },
{ "type": "Feature", "properties": { "SECTOR": "YAMUNANAGAR", "CATEGORY": "EXISTING TOWN", "ZONE": "NON-CONFORMING", "TOTAL IND": 448, "GREEN": 330, "ORANGE": 41, "RED": 0, "WHITE": 77, "SEC(IN HAC": 1084.38, "IND(IN HAC": 57.51, "AREA(%AGE)": 5.3 }, "geometry": { "type": "MultiPolygon", "coordinates": [ [ [ [ 8603482.615308886393905, 3522228.025071296375245 ], [ 8603563.671625725924969, 3522308.191841889638454 ], [ 8603642.59475670941174, 3522656.306500758510083 ], [ 8603874.031732939183712, 3522561.337104852776974 ], [ 8603838.836249494925141, 3522442.934793564956635 ], [ 8603807.906918685883284, 3522389.90076173003763 ], [ 8603710.852624423801899, 3522271.500128953717649 ], [ 8603619.131161447614431, 3522175.300237237475812 ], [ 8603482.615308886393905, 3522228.025071296375245 ] ] ] ] } },
{ "type": "Feature", "properties": { "SECTOR": "YAMUNANAGAR", "CATEGORY": "EXISTING TOWN", "ZONE": "NON-COFORMING", "TOTAL IND": 448, "GREEN": 330, "ORANGE": 41, "RED": 0, "WHITE": 77, "SEC(IN HAC": 1084.38, "IND(IN HAC": 57.51, "AREA(%AGE)": 5.3 }, "geometry": { "type": "MultiPolygon", "coordinates": [ [ [ [ 8601967.876394787803292, 3520945.425552006345242 ], [ 8601808.430142102763057, 3520718.055141207296401 ], [ 8601746.571430891752243, 3520577.164526756852865 ], [ 8601667.11498942039907, 3520396.197945167310536 ], [ 8601389.283985689282417, 3519770.388169331476092 ], [ 8600761.097940636798739, 3520046.912182935979217 ], [ 8600338.218847734853625, 3520232.189771864563227 ], [ 8600339.28544918820262, 3520476.0448694890365 ], [ 8600271.027465043589473, 3520479.744361309334636 ], [ 8600445.938447302207351, 3520689.383508739992976 ], [ 8600607.250930264592171, 3520896.097439744509757 ], [ 8600706.438259158283472, 3520905.654666144400835 ], [ 8601157.047040540724993, 3520819.022530654445291 ], [ 8601366.353619616478682, 3520742.56455813953653 ], [ 8601437.0111661311239, 3520712.659915055613965 ], [ 8601453.542362254112959, 3520712.659903088118881 ], [ 8601452.742484763264656, 3520960.223978484049439 ], [ 8601714.042313909158111, 3520976.255770282354206 ], [ 8601875.088228112086654, 3520977.488856422714889 ], [ 8601967.876394787803292, 3520945.425552006345242 ] ] ] ] } },
{ "type": "Feature", "properties": { "SECTOR": "YAMUNANAGAR", "CATEGORY": "EXISTING TOWN", "ZONE": "NON-CONFORMING", "TOTAL IND": 448, "GREEN": 330, "ORANGE": 41, "RED": 0, "WHITE": 77, "SEC(IN HAC": 1084.38, "IND(IN HAC": 57.51, "AREA(%AGE)": 5.3 }, "geometry": { "type": "MultiPolygon", "coordinates": [ [ [ [ 8601446.876638237386942, 3520989.358560672961175 ], [ 8601455.942023703828454, 3521412.356947209686041 ], [ 8601749.770999953150749, 3521414.206870190799236 ], [ 8601750.570850333198905, 3521414.206772670615464 ], [ 8601780.567077560350299, 3521493.983043644577265 ], [ 8601806.163822565227747, 3521529.901821073144674 ], [ 8601843.225762313231826, 3521580.003267125226557 ], [ 8601926.948293052613735, 3521694.235179237090051 ], [ 8601975.475342575460672, 3521779.485788071062416 ], [ 8602043.733228620141745, 3521867.203837033826858 ], [ 8602110.391379209235311, 3521939.968409080989659 ], [ 8602189.314646050333977, 3521996.854637643322349 ], [ 8602287.968561366200447, 3522036.320504027418792 ], [ 8602443.148719416931272, 3522039.403886866755784 ], [ 8602540.736128160730004, 3522070.390880418941379 ], [ 8602655.921366352587938, 3522130.823542402125895 ], [ 8602813.234602183103561, 3522074.707477201707661 ], [ 8602921.487297181040049, 3522025.220782137010247 ], [ 8603101.197529664263129, 3522013.504269558470696 ], [ 8603261.71032034419477, 3522082.878261579666287 ], [ 8603401.425763506442308, 3522207.443876958452165 ], [ 8603595.534121351316571, 3522151.944219132885337 ], [ 8603545.407272109761834, 3522093.361460803076625 ], [ 8603475.549491906538606, 3522019.362639800645411 ], [ 8603428.088965468108654, 3521958.930419604759663 ], [ 8603387.560797719284892, 3521902.044468546286225 ], [ 8603335.834155902266502, 3521835.90901364479214 ], [ 8603304.371529720723629, 3521790.739622461143881 ], [ 8603262.243576658889651, 3521749.424582788720727 ], [ 8603230.247711107134819, 3521717.975850943941623 ], [ 8603145.458589993417263, 3521669.107130118645728 ], [ 8603067.068698363378644, 3521633.804615483153611 ], [ 8602986.545614078640938, 3521592.490027760155499 ], [ 8602818.034032367169857, 3521509.090479049365968 ], [ 8602620.725902762264013, 3521411.509082126431167 ], [ 8602389.28904770500958, 3521299.283682843204588 ], [ 8602223.443561198189855, 3521218.352371678221971 ], [ 8602181.315651908516884, 3521194.150324412155896 ], [ 8602133.321720028296113, 3521144.821198669727892 ], [ 8602088.52748535759747, 3521084.239132432732731 ], [ 8602052.798787672072649, 3521041.693090625107288 ], [ 8602002.671953968703747, 3520981.882288599386811 ], [ 8601992.006509954109788, 3520972.633203887846321 ], [ 8601969.07625094242394, 3520973.866327301133424 ], [ 8601940.813174054026604, 3520987.431708846241236 ], [ 8601875.221661247313023, 3521002.846873323433101 ], [ 8601446.876638237386942, 3520989.358560672961175 ] ] ] ] } },
{ "type": "Feature", "properties": { "SECTOR": "YAMUNANAGAR", "CATEGORY": "EXISTING TOWN", "ZONE": "NON-CONFORMING", "TOTAL IND": 448, "GREEN": 330, "ORANGE": 41, "RED": 0, "WHITE": 77, "SEC(IN HAC": 1084.38, "IND(IN HAC": 57.51, "AREA(%AGE)": 5.3 }, "geometry": { "type": "MultiPolygon", "coordinates": [ [ [ [ 8602025.602222604677081, 3520946.735776215326041 ], [ 8602168.517254747450352, 3521132.951355035416782 ], [ 8602203.179495383054018, 3521163.473715345840901 ], [ 8602332.229626340791583, 3521234.384505904279649 ], [ 8602452.214260520413518, 3521290.034344639629126 ], [ 8602541.269497200846672, 3521334.431060909293592 ], [ 8602647.389200733974576, 3521384.531641251407564 ], [ 8602811.6347004044801, 3521468.54707028483972 ], [ 8602938.551819385960698, 3521530.980972550343722 ], [ 8603227.581354359164834, 3521674.348595645278692 ], [ 8603280.374661127105355, 3521721.829827125649899 ], [ 8603333.167906714603305, 3521776.248502893839031 ], [ 8603608.599144771695137, 3521651.378861054312438 ], [ 8603872.032030858099461, 3521505.236591211520135 ], [ 8604396.764752633869648, 3521224.981040434446186 ], [ 8604626.601858491078019, 3521120.156738655176014 ], [ 8604550.078373871743679, 3520985.042352383490652 ], [ 8604452.490855472162366, 3520838.291059673763812 ], [ 8604335.172561107203364, 3520647.45550594618544 ], [ 8604208.788775691762567, 3520456.622745529748499 ], [ 8603973.885624488815665, 3520080.977210679091513 ], [ 8602025.602222604677081, 3520946.735776215326041 ] ] ] ] } },
{ "type": "Feature", "properties": { "SECTOR": "YAMUNANAGAR", "CATEGORY": "EXISTING TOWN", "ZONE": "NON-CONFORMING", "TOTAL IND": 448, "GREEN": 330, "ORANGE": 41, "RED": 0, "WHITE": 77, "SEC(IN HAC": 1084.38, "IND(IN HAC": 57.51, "AREA(%AGE)": 5.3 }, "geometry": { "type": "MultiPolygon", "coordinates": [ [ [ [ 8601360.620953826233745, 3519698.40660792356357 ], [ 8601282.764322366565466, 3519504.813668502494693 ], [ 8601269.965987762436271, 3519231.692299938760698 ], [ 8601256.101023193448782, 3518865.176427943632007 ], [ 8600663.962199276313186, 3518830.686821267940104 ], [ 8600268.494466483592987, 3518819.555302063003182 ], [ 8600286.625470578670502, 3519243.406226247083396 ], [ 8600475.401245798915625, 3519470.596069721505046 ], [ 8600686.574130766093731, 3519712.587124329991639 ], [ 8600858.818729288876057, 3519925.604544769506902 ], [ 8601025.730599971488118, 3519862.40804202016443 ], [ 8601360.620953826233745, 3519698.40660792356357 ] ] ] ] } },
{ "type": "Feature", "properties": { "SECTOR": "YAMUNANAGAR", "CATEGORY": "EXISTING TOWN", "ZONE": "NON-CONFORMING", "TOTAL IND": 448, "GREEN": 330, "ORANGE": 41, "RED": 0, "WHITE": 77, "SEC(IN HAC": 1084.38, "IND(IN HAC": 57.51, "AREA(%AGE)": 5.3 }, "geometry": { "type": "MultiPolygon", "coordinates": [ [ [ [ 8601413.94750253111124, 3519695.015577740501612 ], [ 8602762.041135542094707, 3519093.284246955998242 ], [ 8602944.417747179046273, 3518997.108491162769496 ], [ 8602918.821059741079807, 3518958.268654876388609 ], [ 8602531.670731484889984, 3518940.389940508175641 ], [ 8601281.697755401954055, 3518873.807517930399626 ], [ 8601320.092858463525772, 3519450.867021718528122 ], [ 8601413.94750253111124, 3519695.015577740501612 ] ] ] ] } },
{ "type": "Feature", "properties": { "SECTOR": "YAMUNANAGAR", "CATEGORY": "EXISTING TOWN", "ZONE": "NON-CONFORMING", "TOTAL IND": 448, "GREEN": 330, "ORANGE": 41, "RED": 0, "WHITE": 77, "SEC(IN HAC": 1084.38, "IND(IN HAC": 57.51, "AREA(%AGE)": 5.3 }, "geometry": { "type": "MultiPolygon", "coordinates": [ [ [ [ 8600271.694052902981639, 3518787.805576643440872 ], [ 8601231.570931946858764, 3518832.193538111634552 ], [ 8601229.437752272933722, 3518363.661603032145649 ], [ 8600273.827079597860575, 3518368.593493548687547 ], [ 8600271.694052902981639, 3518787.805576643440872 ] ] ] ] } },
{ "type": "Feature", "properties": { "SECTOR": "YAMUNANAGAR", "CATEGORY": "EXISTING TOWN", "ZONE": "NON-CONFORMING", "TOTAL IND": 448, "GREEN": 330, "ORANGE": 41, "RED": 0, "WHITE": 77, "SEC(IN HAC": 1084.38, "IND(IN HAC": 57.51, "AREA(%AGE)": 5.3 }, "geometry": { "type": "MultiPolygon", "coordinates": [ [ [ [ 8601249.168597061187029, 3518831.577039934694767 ], [ 8602689.517106756567955, 3518923.435956968460232 ], [ 8602942.284698454663157, 3518946.863239267840981 ], [ 8602958.81591228581965, 3518977.072011986747384 ], [ 8603115.595763832330704, 3518888.295257403980941 ], [ 8603169.988794272765517, 3518813.082142959348857 ], [ 8603280.907888647168875, 3518732.320913791656494 ], [ 8603365.163733761757612, 3518652.17660523718223 ], [ 8603587.001861309632659, 3518518.706722883507609 ], [ 8603671.25774223357439, 3518485.416667378041893 ], [ 8603933.62410843372345, 3518327.597718927077949 ], [ 8603900.561779228970408, 3518268.416244832333177 ], [ 8603854.700849372893572, 3518233.893602136522532 ], [ 8603758.713190279901028, 3518175.945556424558163 ], [ 8603641.394901739433408, 3518107.825866043567657 ], [ 8603517.677532872185111, 3518035.08304391335696 ], [ 8603322.502485681325197, 3517930.285032188985497 ], [ 8603222.248794462531805, 3517904.393811251968145 ], [ 8603062.269258067011833, 3517904.393766016699374 ], [ 8602888.424899084493518, 3517936.44962284527719 ], [ 8602754.042085917666554, 3517961.1078742435202 ], [ 8602442.615415297448635, 3517950.319888290017843 ], [ 8602246.373868361115456, 3517966.347853134386241 ], [ 8602141.854028707370162, 3517965.114799276925623 ], [ 8602103.458977174013853, 3517973.74525254080072 ], [ 8602043.733267363160849, 3517992.239081108942628 ], [ 8602006.404728945344687, 3517986.07446108572185 ], [ 8601971.209300637245178, 3517952.785763112828135 ], [ 8601842.159205431118608, 3517971.279453007038683 ], [ 8601767.502031048759818, 3518013.198664969298989 ], [ 8601606.45601517893374, 3518019.363339313305914 ], [ 8601605.922812914475799, 3518383.38894185423851 ], [ 8601249.701923511922359, 3518364.586327910423279 ], [ 8601249.168597061187029, 3518831.577039934694767 ] ] ] ] } },
{ "type": "Feature", "properties": { "SECTOR": "YAMUNANAGAR", "CATEGORY": "EXISTING TOWN 1", "ZONE": "CONFORMING", "TOTAL IND": 303, "GREEN": 268, "ORANGE": 17, "RED": 14, "WHITE": 4, "SEC(IN HAC": 210.74, "IND(IN HAC": 134.33, "AREA(%AGE)": 63.74 }, "geometry": { "type": "MultiPolygon", "coordinates": [ [ [ [ 8601999.072414252907038, 3520926.002482510637492 ], [ 8602787.237911576405168, 3520578.243519839365035 ], [ 8603208.517218066379428, 3520391.727911052759737 ], [ 8603648.994008790701628, 3520187.64274557121098 ], [ 8603955.087976718321443, 3520057.85609783558175 ], [ 8603851.634679352864623, 3519903.10047548590228 ], [ 8603780.177128558978438, 3519783.489862381946295 ], [ 8603747.114755610004067, 3519695.940425920300186 ], [ 8603716.185310252010822, 3519592.361639088951051 ], [ 8603695.921216441318393, 3519470.28791359718889 ], [ 8603677.790233124047518, 3519324.170702187810093 ], [ 8603651.126989264041185, 3519083.111794402822852 ], [ 8603625.530293403193355, 3518846.373087648767978 ], [ 8603622.04029001109302, 3518816.336311255116016 ], [ 8603012.808919740840793, 3519070.47334633814171 ], [ 8602992.585715526714921, 3519056.707843564450741 ], [ 8602977.346803503111005, 3519042.11374966846779 ], [ 8602879.759335782378912, 3519109.930248493328691 ], [ 8602836.031583851203322, 3519206.106845014728606 ], [ 8602413.804018022492528, 3519384.055797181092203 ], [ 8602046.7996137868613, 3519551.053776976652443 ], [ 8601996.139380125328898, 3519502.964064897038043 ], [ 8601420.213393181562424, 3519754.512179899495095 ], [ 8601441.543904280290008, 3519808.151720319874585 ], [ 8601612.721914559602737, 3520183.635062404442579 ], [ 8601784.433288492262363, 3520582.559666810091585 ], [ 8601851.62457013875246, 3520708.343768821563572 ], [ 8601999.072414252907038, 3520926.002482510637492 ] ] ] ] } },
{ "type": "Feature", "properties": { "SECTOR": "03", "CATEGORY": "INDUSTRIAL", "ZONE": "CONFORMING", "TOTAL IND": 346, "GREEN": 200, "ORANGE": 133, "RED": 4, "WHITE": 9, "SEC(IN HAC": 290.88, "IND(IN HAC": 70.85, "AREA(%AGE)": 24.36 }, "geometry": { "type": "MultiPolygon", "coordinates": [ [ [ [ 8606374.763179620727897, 3516819.907412690576166 ], [ 8606344.290607934817672, 3516775.459161609876901 ], [ 8606272.571841910481453, 3516681.918604467064142 ], [ 8606229.728996273130178, 3516621.111458098050207 ], [ 8606116.054522650316358, 3516510.700850744266063 ], [ 8605928.183009343221784, 3516358.552838301286101 ], [ 8605776.602742379531264, 3516292.156217423267663 ], [ 8605657.543412696570158, 3516229.351427253335714 ], [ 8605624.853351093828678, 3516217.254164150450379 ], [ 8605613.515039090067148, 3516214.648554938379675 ], [ 8605601.870329821482301, 3516231.899150058627129 ], [ 8605518.592741535976529, 3516194.597680114209652 ], [ 8605327.69664965942502, 3516102.054574607405812 ], [ 8605304.03690480068326, 3516118.13050586823374 ], [ 8605201.038422951474786, 3516117.38192343339324 ], [ 8605154.046525934711099, 3516065.096545469015837 ], [ 8603624.436735251918435, 3516053.642485184594989 ], [ 8603050.345685144886374, 3516106.968870298471302 ], [ 8603001.504560993984342, 3516166.787362974602729 ], [ 8603009.135220559313893, 3516280.883312753867358 ], [ 8602944.332782609388232, 3516487.001652152743191 ], [ 8602999.843719288706779, 3516554.490020351484418 ], [ 8603396.391657438129187, 3516772.629438867326826 ], [ 8603485.564415207132697, 3516861.184284362476319 ], [ 8603644.403351897373796, 3517105.215140094980597 ], [ 8603827.905826508998871, 3517357.895075696520507 ], [ 8603943.669785439968109, 3517670.685276222415268 ], [ 8604029.974276090040803, 3517896.419098445679992 ], [ 8604176.143477184697986, 3518121.949955943506211 ], [ 8604716.584150843322277, 3517844.98306849040091 ], [ 8604528.156437862664461, 3517355.860413477290422 ], [ 8604528.156437862664461, 3517355.860413477290422 ], [ 8604815.171631844714284, 3517206.328338215593249 ], [ 8604815.171631844714284, 3517206.328338215593249 ], [ 8605072.752921191975474, 3517632.936673584859818 ], [ 8605727.493242431432009, 3517230.382920947857201 ], [ 8606374.763179620727897, 3516819.907412690576166 ] ] ] ] } },
{ "type": "Feature", "properties": { "SECTOR": "06", "CATEGORY": "INDUSTRIAL", "ZONE": "CONFORMING", "TOTAL IND": 64, "GREEN": 49, "ORANGE": 13, "RED": 1, "WHITE": 1, "SEC(IN HAC": 133.45, "IND(IN HAC": 6.85, "AREA(%AGE)": 5.13 }, "geometry": { "type": "MultiPolygon", "coordinates": [ [ [ [ 8598425.035981301218271, 3518091.426043202634901 ], [ 8598842.884618440642953, 3518582.160619634669274 ], [ 8598954.695092322304845, 3518686.035017273854464 ], [ 8599013.591754788532853, 3518714.582936344668269 ], [ 8600107.605954110622406, 3518779.457589212805033 ], [ 8599903.610525533556938, 3518394.804805153049529 ], [ 8599683.429784920066595, 3518519.233328596688807 ], [ 8599597.024866094812751, 3518295.701125051826239 ], [ 8599598.468715263530612, 3518174.904002599883825 ], [ 8599851.244662117213011, 3518168.673950744327158 ], [ 8600071.937212809920311, 3517997.719040014781058 ], [ 8600051.562295621261001, 3517117.480249172076583 ], [ 8600076.86466347053647, 3517078.438710985705256 ], [ 8599644.971844498068094, 3517051.698197443969548 ], [ 8598425.035981301218271, 3518091.426043202634901 ] ] ] ] } },
{ "type": "Feature", "properties": { "SECTOR": "07", "CATEGORY": "INDUSTRIAL", "ZONE": "CONFORMING", "TOTAL IND": 78, "GREEN": 49, "ORANGE": 27, "RED": 0, "WHITE": 2, "SEC(IN HAC": 142.48, "IND(IN HAC": 19.42, "AREA(%AGE)": 13.63 }, "geometry": { "type": "MultiPolygon", "coordinates": [ [ [ [ 8599514.202653061598539, 3520517.255598028190434 ], [ 8600847.149411808699369, 3519932.609074876643717 ], [ 8600270.031537914648652, 3519248.517132192850113 ], [ 8600252.63890696875751, 3518821.534976850263774 ], [ 8599693.958914594724774, 3518776.154408891685307 ], [ 8599482.398491863161325, 3518782.963509200140834 ], [ 8599471.810964517295361, 3518862.539103413000703 ], [ 8599393.993517147377133, 3518972.414156307000667 ], [ 8598954.487583184614778, 3519359.712553611956537 ], [ 8599514.202653061598539, 3520517.255598028190434 ] ] ] ] } },
{ "type": "Feature", "properties": { "SECTOR": "30 A", "CATEGORY": "INDUSTRIAL", "ZONE": "CONFORMING", "TOTAL IND": 301, "GREEN": 256, "ORANGE": 12, "RED": 29, "WHITE": 4, "SEC(IN HAC": 142.68, "IND(IN HAC": 42.22, "AREA(%AGE)": 29.59 }, "geometry": { "type": "MultiPolygon", "coordinates": [ [ [ [ 8607586.284262688830495, 3528494.396521053742617 ], [ 8607586.284262688830495, 3528494.396521053742617 ], [ 8607682.355865530669689, 3528665.562281797640026 ], [ 8607806.316593887284398, 3528818.336154933553189 ], [ 8608006.224939355626702, 3529077.117398683913052 ], [ 8608415.613603554666042, 3529600.591945387423038 ], [ 8608509.800794597715139, 3529462.12046963442117 ], [ 8608680.078889848664403, 3529155.759564872831106 ], [ 8608538.985581789165735, 3529144.328774506226182 ], [ 8608775.640715185552835, 3528858.11149027151987 ], [ 8608916.303284952417016, 3528795.670385151170194 ], [ 8608961.289309239014983, 3528760.957186498213559 ], [ 8609175.759292412549257, 3528647.019234552513808 ], [ 8609332.828589878976345, 3528557.079232175834477 ], [ 8609296.77136399410665, 3528514.474855571519583 ], [ 8609286.57639972679317, 3528459.928972780704498 ], [ 8609321.43748022057116, 3528388.482919807080179 ], [ 8609323.170472972095013, 3528362.209970640484244 ], [ 8609311.009397314861417, 3528322.535045269876719 ], [ 8609306.976561395451427, 3528291.818393487483263 ], [ 8609238.59864929318428, 3528287.508096898905933 ], [ 8609214.286480979993939, 3528254.946389609947801 ], [ 8609157.489537851884961, 3528252.696165582630783 ], [ 8609155.959076793864369, 3528233.335150557570159 ], [ 8609105.992788251489401, 3528232.084396243095398 ], [ 8609100.633333079516888, 3528136.373854133766145 ], [ 8609011.994173338636756, 3528075.462028404697776 ], [ 8608957.270094702020288, 3528016.872592102736235 ], [ 8608998.228532629087567, 3527909.793492539320141 ], [ 8608984.583255939185619, 3527875.38613195810467 ], [ 8609011.320890467613935, 3527705.728761500678957 ], [ 8609038.821206348016858, 3527679.145654443651438 ], [ 8609048.098298847675323, 3527605.242302327416837 ], [ 8608993.927299752831459, 3527593.35110216261819 ], [ 8609005.670537609606981, 3527534.573470173403621 ], [ 8609067.669818786904216, 3527507.279309496283531 ], [ 8609069.206799244508147, 3527476.895972245372832 ], [ 8609053.582504939287901, 3527451.202476823702455 ], [ 8609097.598719971254468, 3527304.505947694182396 ], [ 8608938.382661493495107, 3527204.512386836111546 ], [ 8608159.303517151623964, 3527947.320581255480647 ], [ 8607586.284262688830495, 3528494.396521053742617 ] ] ] ] } },
{ "type": "Feature", "properties": { "SECTOR": "30", "CATEGORY": "INDUSTRIAL", "ZONE": "CONFORMING", "TOTAL IND": 11, "GREEN": 7, "ORANGE": 3, "RED": 0, "WHITE": 1, "SEC(IN HAC": 47.7, "IND(IN HAC": 1.88, "AREA(%AGE)": 3.95 }, "geometry": { "type": "MultiPolygon", "coordinates": [ [ [ [ 8607055.546023493632674, 3527480.069962201174349 ], [ 8607080.58098004758358, 3527631.10830682516098 ], [ 8607489.233279392123222, 3528343.786211646627635 ], [ 8608262.803161475807428, 3527633.452540984842926 ], [ 8608447.825437244027853, 3527440.68562505254522 ], [ 8607055.546023493632674, 3527480.069962201174349 ] ] ] ] } },
{ "type": "Feature", "properties": { "SECTOR": "31", "CATEGORY": "INDUSTRIAL", "ZONE": "CONFORMING", "TOTAL IND": 23, "GREEN": 12, "ORANGE": 11, "RED": 0, "WHITE": 0, "SEC(IN HAC": 74.06, "IND(IN HAC": 6.02, "AREA(%AGE)": 8.12 }, "geometry": { "type": "MultiPolygon", "coordinates": [ [ [ [ 8607108.966403188183904, 3527240.261304828338325 ], [ 8608636.908378474414349, 3527226.436805832199752 ], [ 8608757.835271295160055, 3527091.570676885079592 ], [ 8607387.89683959633112, 3526132.970503842458129 ], [ 8607108.966403188183904, 3527240.261304828338325 ] ] ] ] } },
{ "type": "Feature", "properties": { "SECTOR": "32", "CATEGORY": "INDUSTRIAL", "ZONE": "CONFORMING", "TOTAL IND": 65, "GREEN": 43, "ORANGE": 17, "RED": 1, "WHITE": 4, "SEC(IN HAC": 159.49, "IND(IN HAC": 12.56, "AREA(%AGE)": 7.87 }, "geometry": { "type": "MultiPolygon", "coordinates": [ [ [ [ 8607450.051019068807364, 3525258.819610753562301 ], [ 8607527.780820088461041, 3525418.77618921874091 ], [ 8607529.641980208456516, 3525570.389687239658087 ], [ 8607402.089980691671371, 3526077.749549429863691 ], [ 8608793.5485485997051, 3527052.325662328395993 ], [ 8609302.47183327935636, 3526496.5229029385373 ], [ 8609003.64851064234972, 3526074.86084114946425 ], [ 8608856.240244584158063, 3525705.188726055901498 ], [ 8608865.525975333526731, 3525244.597388230729848 ], [ 8608004.090793645009398, 3525245.345925862435251 ], [ 8607450.051019068807364, 3525258.819610753562301 ] ] ] ] } },
{ "type": "Feature", "properties": { "SECTOR": "01", "CATEGORY": "INDUSTRIAL", "ZONE": "CONFORMING", "TOTAL IND": 222, "GREEN": 124, "ORANGE": 93, "RED": 0, "WHITE": 5, "SEC(IN HAC": 186.07, "IND(IN HAC": 34.78, "AREA(%AGE)": 18.69 }, "geometry": { "type": "MultiPolygon", "coordinates": [ [ [ [ 8607163.18404514528811, 3517433.387794339098036 ], [ 8606815.5985292121768, 3517441.408025384414941 ], [ 8606625.258282974362373, 3517450.708525534253567 ], [ 8606410.512319393455982, 3517453.664830017369241 ], [ 8606331.50649986974895, 3517451.794433062896132 ], [ 8606257.049859633669257, 3517452.180090077687055 ], [ 8606197.588136147707701, 3517446.708355776965618 ], [ 8606185.768532570451498, 3517441.942380466498435 ], [ 8606176.370784193277359, 3517549.901936908252537 ], [ 8606158.53825531154871, 3517574.505623072851449 ], [ 8606022.316946236416698, 3517682.084586262702942 ], [ 8605763.202594881877303, 3517946.891551741864532 ], [ 8605646.859725009649992, 3518024.03000068012625 ], [ 8605498.159443859010935, 3518073.571751354727894 ], [ 8605374.194605994969606, 3518241.48314775666222 ], [ 8605414.763467907905579, 3518305.440918531734496 ], [ 8605782.90466308221221, 3518693.192437535151839 ], [ 8605868.040607418864965, 3518818.217499011661857 ], [ 8606121.531300581991673, 3518744.889172546565533 ], [ 8606650.520895855501294, 3518712.082499816082418 ], [ 8607209.655531885102391, 3518741.001989502925426 ], [ 8608382.744435872882605, 3519120.037675793748349 ], [ 8608077.537590144202113, 3518805.929657393600792 ], [ 8608069.538573762401938, 3518794.495813097339123 ], [ 8607797.792319236323237, 3518536.979453153908253 ], [ 8607673.42828306555748, 3518485.978027007076889 ], [ 8607570.907541075721383, 3518271.903042100835592 ], [ 8607491.95573259331286, 3518245.754946762695909 ], [ 8607527.221249025315046, 3518184.546384673099965 ], [ 8607496.318170923739672, 3517827.713507427368313 ], [ 8607439.223094189539552, 3517785.252078186254948 ], [ 8607285.342555530369282, 3517737.827473189681768 ], [ 8607358.930052461102605, 3517516.78302551060915 ], [ 8607163.18404514528811, 3517433.387794339098036 ] ] ] ] } },
{ "type": "Feature", "properties": { "SECTOR": "38", "CATEGORY": "OPEN SPACE", "ZONE": "NON-CONFORMING", "TOTAL IND": 19, "GREEN": 8, "ORANGE": 9, "RED": 0, "WHITE": 2, "SEC(IN HAC": 165.86, "IND(IN HAC": 10.56, "AREA(%AGE)": 6.36 }, "geometry": { "type": "MultiPolygon", "coordinates": [ [ [ [ 8607776.335598012432456, 3521275.020483805797994 ], [ 8608763.518222581595182, 3519929.142600969411433 ], [ 8608497.808512773364782, 3519771.953906520735472 ], [ 8608382.216046515852213, 3519747.171006877440959 ], [ 8608382.35846296325326, 3519694.734116836450994 ], [ 8608308.324492705985904, 3519676.587642055470496 ], [ 8608199.187642803415656, 3519641.277713975403458 ], [ 8607850.886474991217256, 3519624.857559013180435 ], [ 8607803.140415590256453, 3519618.473018335178494 ], [ 8607569.045866852626204, 3519526.079901213757694 ], [ 8607068.133164232596755, 3519244.030573833268136 ], [ 8606878.920979654416442, 3519197.092783494386822 ], [ 8606763.167612446472049, 3519196.509508940391243 ], [ 8606703.733041573315859, 3519227.907280272804201 ], [ 8606679.79201277717948, 3519239.439156393054873 ], [ 8606562.049302695319057, 3519249.201896389015019 ], [ 8606508.051420053467155, 3519295.949303085450083 ], [ 8606395.722530167549849, 3519408.795338349882513 ], [ 8606631.012929601594806, 3519674.635576932225376 ], [ 8607224.970754424110055, 3520442.90291639091447 ], [ 8607391.114792129024863, 3520786.526488399598747 ], [ 8607495.226450955495238, 3520975.415574952960014 ], [ 8607550.446468237787485, 3521057.010111303068697 ], [ 8607629.231010621413589, 3521144.601078391540796 ], [ 8607776.335598012432456, 3521275.020483805797994 ] ] ] ] } },
{ "type": "Feature", "properties": { "SECTOR": "37", "CATEGORY": "OPEN SPACE", "ZONE": "NON-CONFORMING", "TOTAL IND": 10, "GREEN": 6, "ORANGE": 4, "RED": 0, "WHITE": 0, "SEC(IN HAC": 147.7, "IND(IN HAC": 2.11, "AREA(%AGE)": 1.43 }, "geometry": { "type": "MultiPolygon", "coordinates": [ [ [ [ 8607795.077700193971395, 3521288.594722057692707 ], [ 8607993.663445645943284, 3521426.992694647051394 ], [ 8608354.838141454383731, 3521626.604458789341152 ], [ 8608444.748047849163413, 3521667.45573392836377 ], [ 8608666.585682760924101, 3521828.230005112942308 ], [ 8609139.447353890165687, 3522281.725732609629631 ], [ 8609388.458082271739841, 3522454.228214148897678 ], [ 8609424.132980771362782, 3522426.940101526677608 ], [ 8609623.264549830928445, 3522328.871841406449676 ], [ 8609690.82686279900372, 3522299.451625428162515 ], [ 8609793.806761592626572, 3522265.558480935636908 ], [ 8609661.061074882745743, 3522080.241160341538489 ], [ 8609596.187145980075002, 3521998.987854715436697 ], [ 8609486.950761135667562, 3521921.882346757687628 ], [ 8609397.931082718074322, 3521846.727483085822314 ], [ 8609359.783030245453119, 3521813.903518315404654 ], [ 8609282.948855143040419, 3521765.932898090686649 ], [ 8609194.974988305941224, 3521729.626882960088551 ], [ 8609184.442020658403635, 3521718.113880417775363 ], [ 8609103.930245624855161, 3521666.700924295932055 ], [ 8609108.020260263234377, 3521651.903457143343985 ], [ 8609192.029954085126519, 3521554.529296210035682 ], [ 8609249.99090831913054, 3521513.760257461573929 ], [ 8609166.881480747833848, 3521343.942708888091147 ], [ 8609143.513719338923693, 3521313.930061492603272 ], [ 8609104.671382892876863, 3521268.989194271620363 ], [ 8609066.756274506449699, 3521207.511899383272976 ], [ 8609053.985451705753803, 3521139.164122713729739 ], [ 8609088.487589748576283, 3521095.254778075963259 ], [ 8609118.405891805887222, 3520942.537270531058311 ], [ 8609117.153304852545261, 3520853.85312595916912 ], [ 8609120.468099923804402, 3520803.641538202296942 ], [ 8609092.110293371602893, 3520590.77816919516772 ], [ 8609083.618036013096571, 3520484.230810260865837 ], [ 8609098.00462787412107, 3520445.819721625186503 ], [ 8609239.691740415990353, 3520265.033902707975358 ], [ 8608857.281151218339801, 3519955.69701725570485 ], [ 8608802.452575650066137, 3519940.169256971217692 ], [ 8608622.666274039074779, 3520149.662089046090841 ], [ 8607795.077700193971395, 3521288.594722057692707 ] ] ] ] } },
{ "type": "Feature", "properties": { "SECTOR": "39", "CATEGORY": "OPEN SPACE", "ZONE": "NON-CONFORMING", "TOTAL IND": 21, "GREEN": 21, "ORANGE": 0, "RED": 0, "WHITE": 0, "SEC(IN HAC": 33.7, "IND(IN HAC": 1.24, "AREA(%AGE)": 3.67 }, "geometry": { "type": "MultiPolygon", "coordinates": [ [ [ [ 8606110.327364904806018, 3519808.228373138234019 ], [ 8605960.761395309120417, 3519547.007724039722234 ], [ 8605922.476368116214871, 3519560.217577596660703 ], [ 8605783.039128793403506, 3519568.216290177311748 ], [ 8605627.05048906058073, 3519519.740466202609241 ], [ 8605517.437811465933919, 3519520.244603359140456 ], [ 8605521.472341038286686, 3519613.857695057988167 ], [ 8605517.923685343936086, 3519728.717633915599436 ], [ 8605634.2194440420717, 3519832.315063793677837 ], [ 8605755.779920758679509, 3519906.371940689627081 ], [ 8605827.753763040527701, 3519990.265971675515175 ], [ 8605842.663437463343143, 3519998.511711764615029 ], [ 8605904.754189362749457, 3520032.85093247750774 ], [ 8605988.528622526675463, 3520178.761331334710121 ], [ 8605997.899187857285142, 3520267.880518864374608 ], [ 8606328.414354585111141, 3520635.24022773001343 ], [ 8606609.066339686512947, 3520464.266719962004572 ], [ 8606111.438856545835733, 3519807.704776447732002 ], [ 8606110.327364904806018, 3519808.228373138234019 ] ] ] ] } },
{ "type": "Feature", "properties": { "SECTOR": "18", "CATEGORY": "OPEN SPACE", "ZONE": "NON-CONFORMING", "TOTAL IND": 0, "GREEN": 0, "ORANGE": 0, "RED": 0, "WHITE": 0, "SEC(IN HAC": 7.75, "IND(IN HAC": 0.0, "AREA(%AGE)": 0.0 }, "geometry": { "type": "MultiPolygon", "coordinates": [ [ [ [ 8602483.887765053659678, 3523279.545784349553287 ], [ 8602735.82688687928021, 3523460.312051658052951 ], [ 8602969.520817970857024, 3523220.884957125410438 ], [ 8602748.977807933464646, 3523024.388214409351349 ], [ 8602630.98828062415123, 3523159.008897483814508 ], [ 8602475.827615914866328, 3523267.573658266104758 ], [ 8602483.887765053659678, 3523279.545784349553287 ] ] ] ] } },
{ "type": "Feature", "properties": { "SECTOR": "18-A", "CATEGORY": "OPEN SPACE", "ZONE": "NON-CONFORMING", "TOTAL IND": 0, "GREEN": 0, "ORANGE": 0, "RED": 0, "WHITE": 0, "SEC(IN HAC": 13.55, "IND(IN HAC": 0.0, "AREA(%AGE)": 0.0 }, "geometry": { "type": "MultiPolygon", "coordinates": [ [ [ [ 8603922.143067121505737, 3525204.703959668986499 ], [ 8604292.955306153744459, 3524999.874313196633011 ], [ 8604100.160080706700683, 3524633.069970899727196 ], [ 8603714.469140078872442, 3524814.259873867034912 ], [ 8603922.143067121505737, 3525204.703959668986499 ] ] ] ] } },
{ "type": "Feature", "properties": { "SECTOR": "30-A", "CATEGORY": "OPEN SPACE", "ZONE": "NON-CONFORMING", "TOTAL IND": 0, "GREEN": 0, "ORANGE": 0, "RED": 0, "WHITE": 0, "SEC(IN HAC": 13.42, "IND(IN HAC": 0.0, "AREA(%AGE)": 0.0 }, "geometry": { "type": "MultiPolygon", "coordinates": [ [ [ [ 8607542.54476610198617, 3528408.427282764576375 ], [ 8607586.284262688830495, 3528494.396521053742617 ], [ 8608159.303517151623964, 3527947.320581255480647 ], [ 8608938.382661493495107, 3527204.512386836111546 ], [ 8608832.833013305440545, 3527138.224056012462825 ], [ 8607827.442098695784807, 3528152.202492668759078 ], [ 8607542.54476610198617, 3528408.427282764576375 ] ] ] ] } },
{ "type": "Feature", "properties": { "SECTOR": "25", "CATEGORY": "OPEN SPACE", "ZONE": "NON-CONFORMING", "TOTAL IND": 0, "GREEN": 0, "ORANGE": 0, "RED": 0, "WHITE": 0, "SEC(IN HAC": 3.63, "IND(IN HAC": 0.0, "AREA(%AGE)": 0.0 }, "geometry": { "type": "MultiPolygon", "coordinates": [ [ [ [ 8605051.557425687089562, 3528086.484138195868582 ], [ 8605063.905471740290523, 3528011.875978244934231 ], [ 8605058.372174305841327, 3527728.638462207280099 ], [ 8604925.328903071582317, 3527729.851186302024871 ], [ 8604923.307692844420671, 3528088.794691980816424 ], [ 8605051.557425687089562, 3528086.484138195868582 ] ] ] ] } },
{ "type": "Feature", "properties": { "SECTOR": "20", "CATEGORY": "PUBLIC AND SEMI PUBLIC USES", "ZONE": "NON-CONFORMING", "TOTAL IND": 3, "GREEN": 2, "ORANGE": 1, "RED": 0, "WHITE": 0, "SEC(IN HAC": 28.0, "IND(IN HAC": 1.59, "AREA(%AGE)": 5.67 }, "geometry": { "type": "MultiPolygon", "coordinates": [ [ [ [ 8602468.862642908468843, 3525724.023618712555617 ], [ 8601369.612761775031686, 3526264.546625608112663 ], [ 8601545.310051992535591, 3526488.94450680539012 ], [ 8602841.726361623033881, 3525793.228746508713812 ], [ 8602721.992669396102428, 3525607.400331520941108 ], [ 8602468.862642908468843, 3525724.023618712555617 ] ] ] ] } },
{ "type": "Feature", "properties": { "SECTOR": "22", "CATEGORY": "PUBLIC AND SEMI PUBLIC USES", "ZONE": "NON-CONFORMING", "TOTAL IND": 1, "GREEN": 1, "ORANGE": 0, "RED": 0, "WHITE": 0, "SEC(IN HAC": 25.37, "IND(IN HAC": 0.16, "AREA(%AGE)": 0.62 }, "geometry": { "type": "MultiPolygon", "coordinates": [ [ [ [ 8601705.236769556999207, 3526788.082612595055252 ], [ 8602626.480690808966756, 3526312.685231568291783 ], [ 8602564.24445846490562, 3525971.05735783604905 ], [ 8601561.82006199657917, 3526532.413266933057457 ], [ 8601705.236769556999207, 3526788.082612595055252 ] ] ] ] } },
{ "type": "Feature", "properties": { "SECTOR": "36", "CATEGORY": "PUBLIC AND SEMI PUBLIC USES", "ZONE": "NON-CONFORMING", "TOTAL IND": 14, "GREEN": 7, "ORANGE": 7, "RED": 0, "WHITE": 0, "SEC(IN HAC": 157.97, "IND(IN HAC": 8.77, "AREA(%AGE)": 5.55 }, "geometry": { "type": "MultiPolygon", "coordinates": [ [ [ [ 8607074.454444143921137, 3522359.646568401250988 ], [ 8608475.767590526491404, 3523195.692815690301359 ], [ 8608646.760653126984835, 3523035.80796228395775 ], [ 8609129.506188746541739, 3522759.738608029671013 ], [ 8609089.095537696033716, 3522675.278979891911149 ], [ 8609167.575726486742496, 3522617.750851460266858 ], [ 8609204.718391679227352, 3522641.129039468709379 ], [ 8609337.877267729490995, 3522504.494435181375593 ], [ 8609094.63726400397718, 3522335.053680162411183 ], [ 8608709.425647398456931, 3521958.890941385645419 ], [ 8608621.665459360927343, 3521881.406644803471863 ], [ 8608411.199397798627615, 3521728.656273261178285 ], [ 8608012.524090291932225, 3521525.142892332747579 ], [ 8607754.552856450900435, 3521345.100168001372367 ], [ 8607074.454444143921137, 3522359.646568401250988 ] ] ] ] } },
{ "type": "Feature", "properties": { "SECTOR": "16", "CATEGORY": "PUBLIC AND SEMI PUBLIC USES", "ZONE": "NON-CONFORMING", "TOTAL IND": 0, "GREEN": 0, "ORANGE": 0, "RED": 0, "WHITE": 0, "SEC(IN HAC": 8.34, "IND(IN HAC": 0.0, "AREA(%AGE)": 0.0 }, "geometry": { "type": "MultiPolygon", "coordinates": [ [ [ [ 8601128.945815160870552, 3521430.701023717876524 ], [ 8601444.258349103853106, 3521423.689492612611502 ], [ 8601434.300286760553718, 3520990.069702518638223 ], [ 8601213.994597356766462, 3520982.70320211071521 ], [ 8601205.752676978707314, 3521288.132493871729821 ], [ 8601128.945819765329361, 3521302.155649012420326 ], [ 8601128.945815160870552, 3521430.701023717876524 ] ] ] ] } },
{ "type": "Feature", "properties": { "SECTOR": "11", "CATEGORY": "PUBLIC AND SEMI PUBLIC USES", "ZONE": "NON-CONFORMING", "TOTAL IND": 0, "GREEN": 0, "ORANGE": 0, "RED": 0, "WHITE": 0, "SEC(IN HAC": 82.68, "IND(IN HAC": 0.0, "AREA(%AGE)": 0.0 }, "geometry": { "type": "MultiPolygon", "coordinates": [ [ [ [ 8598282.015398500487208, 3523468.030207779724151 ], [ 8599333.660463355481625, 3522140.864136350806803 ], [ 8599333.660463355481625, 3522140.864136350806803 ], [ 8599287.601431181654334, 3521898.734085592441261 ], [ 8598893.150401785969734, 3522067.996812099125236 ], [ 8597858.967616409063339, 3522522.283229517750442 ], [ 8597848.238198485225439, 3522498.67786454455927 ], [ 8597757.843439415097237, 3522560.022707955911756 ], [ 8597887.419976122677326, 3522662.788678716402501 ], [ 8597638.760207861661911, 3522809.666748700197786 ], [ 8597749.478740632534027, 3522884.367207775358111 ], [ 8598282.015398500487208, 3523468.030207779724151 ] ] ] ] } },
{ "type": "Feature", "properties": { "SECTOR": "36A", "CATEGORY": "PUBLIC AND SEMI PUBLIC USES", "ZONE": "NON-CONFORMING", "TOTAL IND": 0, "GREEN": 0, "ORANGE": 0, "RED": 0, "WHITE": 0, "SEC(IN HAC": 14.77, "IND(IN HAC": 0.0, "AREA(%AGE)": 0.0 }, "geometry": { "type": "MultiPolygon", "coordinates": [ [ [ [ 8608500.716260455548763, 3523219.893071337137371 ], [ 8608959.760335771366954, 3523459.150712320581079 ], [ 8609230.176837487146258, 3523602.875048276036978 ], [ 8609568.208207635208964, 3523724.664631696417928 ], [ 8609476.859332367777824, 3523584.77275118464604 ], [ 8609314.202016880735755, 3523435.74843925377354 ], [ 8609162.101103888824582, 3523372.051429039333016 ], [ 8608998.630499057471752, 3523323.31710805464536 ], [ 8608983.117233829572797, 3523182.580903581343591 ], [ 8608932.821586642414331, 3523196.324064123444259 ], [ 8608871.897191332653165, 3523184.870595983229578 ], [ 8608741.519294764846563, 3523017.411992793902755 ], [ 8608634.238081030547619, 3523088.723341550212353 ], [ 8608500.716260455548763, 3523219.893071337137371 ] ] ] ] } },
{ "type": "Feature", "properties": { "SECTOR": "17", "CATEGORY": "PUBLIC AND SEMI PUBLIC USES", "ZONE": "NON-CONFORMING", "TOTAL IND": 0, "GREEN": 0, "ORANGE": 0, "RED": 0, "WHITE": 0, "SEC(IN HAC": 5.32, "IND(IN HAC": 0.0, "AREA(%AGE)": 0.0 }, "geometry": { "type": "MultiPolygon", "coordinates": [ [ [ [ 8604009.028765853494406, 3522889.386140245012939 ], [ 8604106.039128582924604, 3523205.106355847790837 ], [ 8604353.319565914571285, 3522983.281645269133151 ], [ 8604187.578402539715171, 3522812.646277697291225 ], [ 8604009.028765853494406, 3522889.386140245012939 ] ] ] ] } },
{ "type": "Feature", "properties": { "SECTOR": "15", "CATEGORY": "PUBLIC AND SEMI PUBLIC USES", "ZONE": "NON-CONFORMING", "TOTAL IND": 0, "GREEN": 0, "ORANGE": 0, "RED": 0, "WHITE": 0, "SEC(IN HAC": 2.29, "IND(IN HAC": 0.0, "AREA(%AGE)": 0.0 }, "geometry": { "type": "MultiPolygon", "coordinates": [ [ [ [ 8605261.890718875452876, 3522037.181945618242025 ], [ 8605368.63183862157166, 3522203.737209904473275 ], [ 8605500.875363936647773, 3522117.272380261216313 ], [ 8605408.081296946853399, 3521959.481974760070443 ], [ 8605261.890718875452876, 3522037.181945618242025 ] ] ] ] } },
{ "type": "Feature", "properties": { "SECTOR": "18-A", "CATEGORY": "PUBLIC AND SEMI PUBLIC USES", "ZONE": "NON-CONFORMING", "TOTAL IND": 0, "GREEN": 0, "ORANGE": 0, "RED": 0, "WHITE": 0, "SEC(IN HAC": 1.07, "IND(IN HAC": 0.0, "AREA(%AGE)": 0.0 }, "geometry": { "type": "MultiPolygon", "coordinates": [ [ [ [ 8604756.075895983725786, 3524744.05999493971467 ], [ 8604635.928427079692483, 3524582.082782592158765 ], [ 8604585.761635981500149, 3524644.758922057691962 ], [ 8604689.110079359263182, 3524781.049726460594684 ], [ 8604756.075895983725786, 3524744.05999493971467 ] ] ] ] } },
{ "type": "Feature", "properties": { "SECTOR": "03", "CATEGORY": "PUBLIC UTILITIES", "ZONE": "NON CONFORMING", "TOTAL IND": 1, "GREEN": 1, "ORANGE": 0, "RED": 0, "WHITE": 0, "SEC(IN HAC": 46.16, "IND(IN HAC": 0.04, "AREA(%AGE)": 0.09 }, "geometry": { "type": "MultiPolygon", "coordinates": [ [ [ [ 8605154.046525934711099, 3516065.096545469015837 ], [ 8605201.038422951474786, 3516117.38192343339324 ], [ 8605304.03690480068326, 3516118.13050586823374 ], [ 8605327.69664965942502, 3516102.054574607405812 ], [ 8605518.592741535976529, 3516194.597680114209652 ], [ 8605601.870329821482301, 3516231.899150058627129 ], [ 8605613.515039090067148, 3516214.648554938379675 ], [ 8605624.853351093828678, 3516217.254164150450379 ], [ 8605657.543412696570158, 3516229.351427253335714 ], [ 8605776.602742379531264, 3516292.156217423267663 ], [ 8605928.183009343221784, 3516358.552838301286101 ], [ 8606116.054522650316358, 3516510.700850744266063 ], [ 8606229.728996273130178, 3516621.111458098050207 ], [ 8606272.571841910481453, 3516681.918604467064142 ], [ 8606344.290607934817672, 3516775.459161609876901 ], [ 8606374.763179620727897, 3516819.907412690576166 ], [ 8607066.045080384239554, 3516381.471926014870405 ], [ 8606798.549070661887527, 3516168.765679206233472 ], [ 8606631.338290514424443, 3516118.205855198204517 ], [ 8606457.979743536561728, 3516092.783526811283082 ], [ 8606198.137417294085026, 3516064.292396343313158 ], [ 8605367.565405750647187, 3516066.680861846543849 ], [ 8605154.046525934711099, 3516065.096545469015837 ] ] ] ] } },
{ "type": "Feature", "properties": { "SECTOR": "28", "CATEGORY": "PUBLIC UTILITIES", "ZONE": "NON-CONFORMING", "TOTAL IND": 2, "GREEN": 1, "ORANGE": 1, "RED": 0, "WHITE": 0, "SEC(IN HAC": 4.04, "IND(IN HAC": 0.1, "AREA(%AGE)": 2.49 }, "geometry": { "type": "MultiPolygon", "coordinates": [ [ [ [ 8605284.769914027303457, 3527274.315234500449151 ], [ 8605192.346863588318229, 3527056.882680444046855 ], [ 8605185.419859062880278, 3527059.931158830877393 ], [ 8604885.765362059697509, 3527207.639174460433424 ], [ 8604943.954184036701918, 3527286.871618432924151 ], [ 8605284.769914027303457, 3527274.315234500449151 ] ] ] ] } },
{ "type": "Feature", "properties": { "SECTOR": "39", "CATEGORY": "PUBLIC UTILITIES", "ZONE": "NON-CONFORMING", "TOTAL IND": 0, "GREEN": 0, "ORANGE": 0, "RED": 0, "WHITE": 0, "SEC(IN HAC": 7.51, "IND(IN HAC": 0.0, "AREA(%AGE)": 0.0 }, "geometry": { "type": "MultiPolygon", "coordinates": [ [ [ [ 8605960.761395309120417, 3519547.007724039722234 ], [ 8606110.327364904806018, 3519808.228373138234019 ], [ 8606153.308073777705431, 3519787.983641876839101 ], [ 8606284.542680287733674, 3519717.945617479737848 ], [ 8606382.861873704940081, 3519625.17615529242903 ], [ 8606443.409179463982582, 3519579.005571372807026 ], [ 8606344.095754826441407, 3519455.252774739637971 ], [ 8606316.748609732836485, 3519424.179377371910959 ], [ 8605960.761395309120417, 3519547.007724039722234 ] ] ] ] } },
{ "type": "Feature", "properties": { "SECTOR": "12", "CATEGORY": "PUBLIC UTILITIES", "ZONE": "NON-CONFORMING", "TOTAL IND": 0, "GREEN": 0, "ORANGE": 0, "RED": 0, "WHITE": 0, "SEC(IN HAC": 32.89, "IND(IN HAC": 0.0, "AREA(%AGE)": 0.0 }, "geometry": { "type": "MultiPolygon", "coordinates": [ [ [ [ 8598937.627543104812503, 3523900.170430302619934 ], [ 8599275.311504332348704, 3523412.507555860094726 ], [ 8598705.783240363001823, 3523019.370073915459216 ], [ 8598705.783240363001823, 3523019.370073915459216 ], [ 8598320.974018555134535, 3523502.71531789097935 ], [ 8598505.468424880877137, 3523656.140637028962374 ], [ 8598937.627543104812503, 3523900.170430302619934 ] ] ] ] } },
{ "type": "Feature", "properties": { "SECTOR": "23", "CATEGORY": "PUBLIC UTILITIES", "ZONE": "NON-CONFORMING", "TOTAL IND": 0, "GREEN": 0, "ORANGE": 0, "RED": 0, "WHITE": 0, "SEC(IN HAC": 16.43, "IND(IN HAC": 0.0, "AREA(%AGE)": 0.0 }, "geometry": { "type": "MultiPolygon", "coordinates": [ [ [ [ 8602451.045880472287536, 3528096.18942853063345 ], [ 8602804.07985121011734, 3527848.249851686414331 ], [ 8602648.978319771587849, 3527533.507598205003887 ], [ 8602129.239379666745663, 3527537.778411757200956 ], [ 8602451.045880472287536, 3528096.18942853063345 ] ] ] ] } },
{ "type": "Feature", "properties": { "SECTOR": "02A", "CATEGORY": "PUBLIC UTILITIES", "ZONE": "NON-CONFORMING", "TOTAL IND": 0, "GREEN": 0, "ORANGE": 0, "RED": 0, "WHITE": 0, "SEC(IN HAC": 2.98, "IND(IN HAC": 0.0, "AREA(%AGE)": 0.0 }, "geometry": { "type": "MultiPolygon", "coordinates": [ [ [ [ 8604861.353518916293979, 3519307.701796351466328 ], [ 8604979.323349609971046, 3519110.69938938645646 ], [ 8604821.137719912454486, 3519008.194368310738355 ], [ 8604720.237782275304198, 3519198.120913736987859 ], [ 8604769.209858121350408, 3519228.647006846964359 ], [ 8604815.702655797824264, 3519267.422189031261951 ], [ 8604858.614694442600012, 3519306.83949775621295 ], [ 8604861.353518916293979, 3519307.701796351466328 ] ] ] ] } },
{ "type": "Feature", "properties": { "SECTOR": "01", "CATEGORY": "PUBLIC UTILITIES", "ZONE": "NON CONFORMING", "TOTAL IND": 0, "GREEN": 0, "ORANGE": 0, "RED": 0, "WHITE": 0, "SEC(IN HAC": 32.97, "IND(IN HAC": 0.0, "AREA(%AGE)": 0.0 }, "geometry": { "type": "MultiPolygon", "coordinates": [ [ [ [ 8606170.043112654238939, 3517444.17312473943457 ], [ 8606197.588136147707701, 3517446.708355776965618 ], [ 8606257.049859633669257, 3517452.180090077687055 ], [ 8606331.50649986974895, 3517451.794433062896132 ], [ 8606410.512319393455982, 3517453.664830017369241 ], [ 8606625.258282974362373, 3517450.708525534253567 ], [ 8606815.5985292121768, 3517441.408025384414941 ], [ 8607163.18404514528811, 3517433.387794339098036 ], [ 8607153.206794278696179, 3517429.136965678073466 ], [ 8607130.202146306633949, 3517393.763464956078678 ], [ 8607163.079447837546468, 3517366.209745760075748 ], [ 8606857.785982150584459, 3517038.655358771327883 ], [ 8606816.177567970007658, 3517075.34628670848906 ], [ 8606713.193030120804906, 3517052.804293278139085 ], [ 8606660.23276892118156, 3516968.758513824082911 ], [ 8606465.849287364631891, 3516879.969806225039065 ], [ 8605903.592541510239244, 3517226.143671966623515 ], [ 8606093.469471486285329, 3517370.239549914374948 ], [ 8606170.618355521932244, 3517433.201317226048559 ], [ 8606170.043112654238939, 3517444.17312473943457 ] ] ] ] } },
{ "type": "Feature", "properties": { "SECTOR": "04", "CATEGORY": "RESIDENTIAL", "ZONE": "NON-CONFORMING", "TOTAL IND": 123, "GREEN": 70, "ORANGE": 51, "RED": 0, "WHITE": 2, "SEC(IN HAC": 115.51, "IND(IN HAC": 22.03, "AREA(%AGE)": 19.08 }, "geometry": { "type": "MultiPolygon", "coordinates": [ [ [ [ 8602038.857057461515069, 3517373.754821680486202 ], [ 8602145.328334307298064, 3517794.378267121501267 ], [ 8602280.095402048900723, 3517804.859449381474406 ], [ 8602513.449347220361233, 3517791.73374102730304 ], [ 8602839.373615341261029, 3517761.062354243826121 ], [ 8602963.886620609089732, 3517744.083005524240434 ], [ 8603045.48708008043468, 3517742.443402937613428 ], [ 8603494.802200643345714, 3517840.179226051084697 ], [ 8603826.061660747975111, 3518008.969134164042771 ], [ 8603935.836444806307554, 3518155.554479838348925 ], [ 8603979.704029498621821, 3518172.489233110565692 ], [ 8603998.432935483753681, 3518192.017353114206344 ], [ 8604155.434733968228102, 3518130.594877870287746 ], [ 8603982.242755685001612, 3517857.505918462760746 ], [ 8603880.478039452806115, 3517541.988668344914913 ], [ 8603852.641269793733954, 3517480.247164668980986 ], [ 8603578.250422177836299, 3517054.679755508899689 ], [ 8603487.865386676043272, 3516895.095648995134979 ], [ 8603379.86353837698698, 3516782.058118571061641 ], [ 8603219.155062375590205, 3516690.132750080432743 ], [ 8602983.736919006332755, 3516572.442651512101293 ], [ 8602927.650739463046193, 3516507.281370474025607 ], [ 8602817.737089339643717, 3516640.706178112886846 ], [ 8602753.34956275112927, 3516679.79991502687335 ], [ 8602711.493882624432445, 3516686.049016979057342 ], [ 8602689.091697808355093, 3516696.234975553117692 ], [ 8602679.645899254828691, 3516952.280996148008853 ], [ 8602634.156684188172221, 3517095.275668874848634 ], [ 8602564.922868749126792, 3517192.052087900228798 ], [ 8602548.351943684741855, 3517197.793839458376169 ], [ 8602453.294424714520574, 3517250.693435416556895 ], [ 8602314.026449469849467, 3517377.756509391125292 ], [ 8602087.745663709938526, 3517393.648241036105901 ], [ 8602038.857057461515069, 3517373.754821680486202 ] ] ] ] } },
{ "type": "Feature", "properties": { "SECTOR": "02", "CATEGORY": "RESIDENTIAL", "ZONE": "NON-CONFORMING", "TOTAL IND": 99, "GREEN": 70, "ORANGE": 27, "RED": 0, "WHITE": 2, "SEC(IN HAC": 97.76, "IND(IN HAC": 6.54, "AREA(%AGE)": 6.69 }, "geometry": { "type": "MultiPolygon", "coordinates": [ [ [ [ 8604310.182708520442247, 3518193.331088877283037 ], [ 8604365.091607291251421, 3518213.685970250982791 ], [ 8604460.219700429588556, 3518326.72096471907571 ], [ 8604501.845937423408031, 3518369.784051154274493 ], [ 8604615.339557472616434, 3518490.233966280706227 ], [ 8604878.000843504443765, 3518765.178265995811671 ], [ 8604965.083587059751153, 3518795.266999335028231 ], [ 8605170.756915789097548, 3518836.957965611945838 ], [ 8605542.046139221638441, 3518864.316919508390129 ], [ 8605855.680025203153491, 3518822.0382374455221 ], [ 8605802.750541998073459, 3518748.389520508702844 ], [ 8605717.902219098061323, 3518649.467207612004131 ], [ 8605511.102408370003104, 3518451.292385795153677 ], [ 8605363.264991519972682, 3518316.295870263129473 ], [ 8605353.485862778499722, 3518293.685756592545658 ], [ 8605364.742485944181681, 3518152.789546130225062 ], [ 8605492.40701518766582, 3518041.984706806018949 ], [ 8605563.7953180372715, 3518013.038148799911141 ], [ 8605692.303911512717605, 3517979.143346298951656 ], [ 8605923.695354809984565, 3517744.072863072622567 ], [ 8606153.648690942674875, 3517548.904491174034774 ], [ 8606151.3477194737643, 3517457.804777570534497 ], [ 8605835.545237608253956, 3517268.299941410310566 ], [ 8605509.964054383337498, 3517467.962844286113977 ], [ 8604811.101045310497284, 3517907.425108313094825 ], [ 8604310.182708520442247, 3518193.331088877283037 ] ] ] ] } },
{ "type": "Feature", "properties": { "SECTOR": "29", "CATEGORY": "RESIDENTIAL", "ZONE": "NON-CONFORMING", "TOTAL IND": 2, "GREEN": 1, "ORANGE": 1, "RED": 0, "WHITE": 0, "SEC(IN HAC": 75.87, "IND(IN HAC": 0.65, "AREA(%AGE)": 0.85 }, "geometry": { "type": "MultiPolygon", "coordinates": [ [ [ [ 8606208.014722842723131, 3528095.785816569812596 ], [ 8606404.378030616790056, 3529253.317540498450398 ], [ 8606694.91448706202209, 3529141.526125035248697 ], [ 8607463.440811667591333, 3528368.303432871121913 ], [ 8607231.869166538119316, 3527966.84137464268133 ], [ 8606668.395775977522135, 3527978.561988667119294 ], [ 8606270.127794485539198, 3528084.313758654985577 ], [ 8606208.014722842723131, 3528095.785816569812596 ] ] ] ] } },
{ "type": "Feature", "properties": { "SECTOR": "17", "CATEGORY": "RESIDENTIAL", "ZONE": "NON-CONFORMING", "TOTAL IND": 365, "GREEN": 279, "ORANGE": 18, "RED": 56, "WHITE": 12, "SEC(IN HAC": 269.14, "IND(IN HAC": 14.76, "AREA(%AGE)": 5.48 }, "geometry": { "type": "MultiPolygon", "coordinates": [ [ [ [ 8603914.810079991817474, 3522582.758987592533231 ], [ 8604009.028765853494406, 3522889.386140245012939 ], [ 8604187.578402539715171, 3522812.646277697291225 ], [ 8604353.319565914571285, 3522983.281645269133151 ], [ 8604106.039128582924604, 3523205.106355847790837 ], [ 8604419.172524113208055, 3524224.252624254673719 ], [ 8604786.661946972832084, 3524727.450100856367499 ], [ 8604973.686217915266752, 3524613.506502980832011 ], [ 8605074.902143744751811, 3524482.444609214086086 ], [ 8605162.931960422545671, 3524390.105414684861898 ], [ 8605954.329217305406928, 3523898.618197398260236 ], [ 8605986.139561127871275, 3523871.604842628352344 ], [ 8606205.951095577329397, 3523575.045337505638599 ], [ 8605233.305399637669325, 3522056.678524700459093 ], [ 8605108.532093472778797, 3521862.712794383522123 ], [ 8605018.229340778663754, 3521931.144486078061163 ], [ 8604911.987973239272833, 3521962.867558039724827 ], [ 8604865.116565261036158, 3521985.863923036959022 ], [ 8604723.622508907690644, 3522071.475613256450742 ], [ 8604039.027839513495564, 3522507.364593733567744 ], [ 8603914.810079991817474, 3522582.758987592533231 ] ] ] ] } },
{ "type": "Feature", "properties": { "SECTOR": "18", "CATEGORY": "RESIDENTIAL", "ZONE": "NON-CONFORMING", "TOTAL IND": 4, "GREEN": 4, "ORANGE": 0, "RED": 0, "WHITE": 0, "SEC(IN HAC": 117.44, "IND(IN HAC": 2.42, "AREA(%AGE)": 2.06 }, "geometry": { "type": "MultiPolygon", "coordinates": [ [ [ [ 8603543.023952422663569, 3524264.314420560374856 ], [ 8604296.259469216689467, 3524043.368065298069268 ], [ 8604321.392648357897997, 3524036.490570371970534 ], [ 8604150.429590297862887, 3523476.012894143350422 ], [ 8603987.711140071973205, 3523466.177642560563982 ], [ 8603805.475410496816039, 3523542.281818558461964 ], [ 8603623.405952589586377, 3522905.010421419050545 ], [ 8603635.781479686498642, 3522681.164986855350435 ], [ 8603559.479916105046868, 3522322.374421342741698 ], [ 8603470.629480792209506, 3522238.302906615193933 ], [ 8603431.536037033423781, 3522251.276983010582626 ], [ 8603203.699723731726408, 3522503.387927785050124 ], [ 8602748.977807933464646, 3523024.388214409351349 ], [ 8602969.520817970857024, 3523220.884957125410438 ], [ 8602735.82688687928021, 3523460.312051658052951 ], [ 8602818.478511860594153, 3523519.615030916407704 ], [ 8603415.339130740612745, 3524152.403673598542809 ], [ 8603543.023952422663569, 3524264.314420560374856 ] ] ] ] } },
{ "type": "Feature", "properties": { "SECTOR": "16", "CATEGORY": "RESIDENTIAL", "ZONE": "NON-CONFORMING", "TOTAL IND": 26, "GREEN": 25, "ORANGE": 1, "RED": 0, "WHITE": 0, "SEC(IN HAC": 335.9, "IND(IN HAC": 1.44, "AREA(%AGE)": 0.43 }, "geometry": { "type": "MultiPolygon", "coordinates": [ [ [ [ 8599423.866466550156474, 3521833.163883742876351 ], [ 8599437.277886014431715, 3522049.259729207959026 ], [ 8599529.055737152695656, 3522032.663508435245603 ], [ 8599667.768482133746147, 3522032.644571467768401 ], [ 8599785.554262975230813, 3522074.954541063867509 ], [ 8599830.46298530139029, 3522099.576046352740377 ], [ 8600198.553103316575289, 3522361.355951259378344 ], [ 8600451.154351670295, 3522541.925479292403907 ], [ 8600617.045245487242937, 3522632.477474358864129 ], [ 8600766.631967877969146, 3522677.791019336786121 ], [ 8601133.583517597988248, 3522731.70815447717905 ], [ 8601834.779368421062827, 3523092.306353706866503 ], [ 8601938.834189532324672, 3523119.149424050468951 ], [ 8602006.586818721145391, 3523126.654144257307053 ], [ 8602248.126918058842421, 3523104.297096082940698 ], [ 8602290.936951737850904, 3523115.113643941935152 ], [ 8602452.582052454352379, 3523221.283691844902933 ], [ 8602579.356487767770886, 3523144.480091666802764 ], [ 8603380.930546525865793, 3522215.595279247500002 ], [ 8603250.736414173617959, 3522095.652143315877765 ], [ 8603097.122609650716186, 3522025.532512007746845 ], [ 8602923.296365523710847, 3522034.881839139852673 ], [ 8602816.170999536290765, 3522083.965395603328943 ], [ 8602654.472223022952676, 3522140.061286302749068 ], [ 8602537.240773811936378, 3522079.290856136474758 ], [ 8602442.242634899914265, 3522048.905744112562388 ], [ 8602286.607614915817976, 3522046.568394164554775 ], [ 8602185.545913878828287, 3522004.496768304146826 ], [ 8602106.212507806718349, 3521949.570259024854749 ], [ 8602039.511849896982312, 3521875.945651454851031 ], [ 8601968.768677080050111, 3521783.62328204838559 ], [ 8601916.216483369469643, 3521695.391711206175387 ], [ 8601835.367166198790073, 3521585.54155639745295 ], [ 8601802.016741512343287, 3521534.122608562931418 ], [ 8601772.708854369819164, 3521500.232939396984875 ], [ 8601747.477292571216822, 3521426.659271501004696 ], [ 8601444.258349103853106, 3521423.689492612611502 ], [ 8601444.258349103853106, 3521423.689492612611502 ], [ 8601128.945815160870552, 3521430.701023717876524 ], [ 8601128.945819765329361, 3521302.155649012420326 ], [ 8601205.752676978707314, 3521288.132493871729821 ], [ 8601213.994597356766462, 3520982.70320211071521 ], [ 8599902.94343956746161, 3520938.864435093011707 ], [ 8599363.889800870791078, 3520866.679567013867199 ], [ 8599481.368150148540735, 3521112.775703574996442 ], [ 8599864.705074492841959, 3520954.643612890504301 ], [ 8600119.974759232252836, 3521523.804640945512801 ], [ 8599423.866466550156474, 3521833.163883742876351 ] ] ] ] } },
{ "type": "Feature", "properties": { "SECTOR": "16 A", "CATEGORY": "RESIDENTIAL", "ZONE": "NON-CONFORMING", "TOTAL IND": 8, "GREEN": 6, "ORANGE": 1, "RED": 0, "WHITE": 1, "SEC(IN HAC": 36.88, "IND(IN HAC": 0.39, "AREA(%AGE)": 1.06 }, "geometry": { "type": "MultiPolygon", "coordinates": [ [ [ [ 8600325.616567742079496, 3520264.114922245964408 ], [ 8599685.143165083602071, 3520543.196057548746467 ], [ 8599746.265534315258265, 3520667.100374439265579 ], [ 8599340.75625410862267, 3520825.664347060956061 ], [ 8599352.323068257421255, 3520846.172062035650015 ], [ 8599366.977165719494224, 3520843.669788286089897 ], [ 8599858.642495909705758, 3520912.548486105166376 ], [ 8600212.478478897362947, 3520925.129289878066629 ], [ 8600663.077920515090227, 3520940.586606935597956 ], [ 8601436.129831865429878, 3520966.272261347156018 ], [ 8601441.539047587662935, 3520727.361601461656392 ], [ 8601155.638388721272349, 3520833.662163316272199 ], [ 8600703.434787794947624, 3520923.974324943032116 ], [ 8600600.372891969978809, 3520909.544077766593546 ], [ 8600245.615595899522305, 3520467.91075904853642 ], [ 8600327.244198279455304, 3520464.234191828407347 ], [ 8600325.616567742079496, 3520264.114922245964408 ] ] ] ] } },
{ "type": "Feature", "properties": { "SECTOR": "26", "CATEGORY": "RESIDENTIAL", "ZONE": "NON-CONFORMING", "TOTAL IND": 1, "GREEN": 0, "ORANGE": 1, "RED": 0, "WHITE": 0, "SEC(IN HAC": 118.47, "IND(IN HAC": 0.04, "AREA(%AGE)": 0.04 }, "geometry": { "type": "MultiPolygon", "coordinates": [ [ [ [ 8604789.783257992938161, 3529356.978242103476077 ], [ 8605088.492656828835607, 3529345.096022008452564 ], [ 8605778.641846906393766, 3529315.649336688686162 ], [ 8605920.095390563830733, 3529320.395339915063232 ], [ 8606224.064737053588033, 3529286.866161938291043 ], [ 8606353.225653398782015, 3529262.805933555588126 ], [ 8606156.143268635496497, 3528101.007670778315514 ], [ 8605979.830918747931719, 3528113.059527463279665 ], [ 8605722.436031699180603, 3528098.981919777579606 ], [ 8605574.547576792538166, 3528093.539087787736207 ], [ 8605091.459449438378215, 3528066.592326932121068 ], [ 8605060.686677949503064, 3528248.952517268713564 ], [ 8605059.29724526591599, 3528417.674286721274257 ], [ 8604789.783257992938161, 3529356.978242103476077 ] ] ] ] } },
{ "type": "Feature", "properties": { "SECTOR": "10", "CATEGORY": "RESIDENTIAL", "ZONE": "NON-CONFORMING", "TOTAL IND": 2, "GREEN": 1, "ORANGE": 1, "RED": 0, "WHITE": 0, "SEC(IN HAC": 98.77, "IND(IN HAC": 0.11, "AREA(%AGE)": 0.11 }, "geometry": { "type": "MultiPolygon", "coordinates": [ [ [ [ 8598420.387974124401808, 3521036.624523677397519 ], [ 8599481.740558257326484, 3520569.63510884065181 ], [ 8598912.909218896180391, 3519393.230887130834162 ], [ 8598089.087988786399364, 3520033.275004670023918 ], [ 8598098.576643597334623, 3520255.612538127694279 ], [ 8598121.354078417643905, 3520380.711453304160386 ], [ 8598330.714974172413349, 3520874.166015109047294 ], [ 8598420.387974124401808, 3521036.624523677397519 ] ] ] ] } },
{ "type": "Feature", "properties": { "SECTOR": "02 B", "CATEGORY": "RESIDENTIAL", "ZONE": "NON-CONFORMING", "TOTAL IND": 11, "GREEN": 5, "ORANGE": 6, "RED": 0, "WHITE": 0, "SEC(IN HAC": 60.22, "IND(IN HAC": 1.18, "AREA(%AGE)": 1.95 }, "geometry": { "type": "MultiPolygon", "coordinates": [ [ [ [ 8605903.972221175208688, 3518857.949662830214947 ], [ 8606012.138945629820228, 3519021.552107049152255 ], [ 8606207.721520451828837, 3519270.944865949917585 ], [ 8606393.322175670415163, 3519228.459851250518113 ], [ 8606463.074106452986598, 3519175.270940450951457 ], [ 8606675.398211283609271, 3519037.554329989012331 ], [ 8606982.182549236342311, 3519020.269370555877686 ], [ 8607114.278225131332874, 3519061.194570859428495 ], [ 8607514.296133328229189, 3519260.335908295121044 ], [ 8607571.582072302699089, 3519269.291988022159785 ], [ 8607618.133092846721411, 3519305.754966972861439 ], [ 8608025.70674679800868, 3519478.343883203808218 ], [ 8608374.37663896009326, 3519524.678372048772871 ], [ 8608379.387113269418478, 3519421.368416103068739 ], [ 8608463.054913964122534, 3519236.580684086773545 ], [ 8607442.280714036896825, 3518882.642530112992972 ], [ 8607196.956480149179697, 3518809.714309904258698 ], [ 8606650.876696430146694, 3518781.730453350115567 ], [ 8606136.225535834208131, 3518813.236052982974797 ], [ 8605903.972221175208688, 3518857.949662830214947 ] ] ] ] } },
{ "type": "Feature", "properties": { "SECTOR": "33", "CATEGORY": "RESIDENTIAL", "ZONE": "NON-CONFORMING", "TOTAL IND": 1, "GREEN": 0, "ORANGE": 1, "RED": 0, "WHITE": 0, "SEC(IN HAC": 161.01, "IND(IN HAC": 0.23, "AREA(%AGE)": 0.14 }, "geometry": { "type": "MultiPolygon", "coordinates": [ [ [ [ 8609996.319268895313144, 3525788.826883178204298 ], [ 8609799.052086990326643, 3525303.984458977822214 ], [ 8609911.946898838505149, 3525259.073221559170634 ], [ 8609771.610117062926292, 3524920.723761004861444 ], [ 8609823.058351160958409, 3524901.232181613333523 ], [ 8609777.656242022290826, 3524814.476243144832551 ], [ 8609712.329275965690613, 3524742.74811481218785 ], [ 8609660.02002645470202, 3524781.956168335396796 ], [ 8609547.76987474784255, 3524703.570775868371129 ], [ 8609516.950565204024315, 3523852.647753465920687 ], [ 8609547.10540458932519, 3523805.450920145493001 ], [ 8609202.584096625447273, 3523666.941196436062455 ], [ 8608955.408716730773449, 3523539.874400826171041 ], [ 8608780.622238939628005, 3523926.898192639928311 ], [ 8608751.216092536225915, 3524487.578014200087637 ], [ 8608913.663810996338725, 3525241.331745534203947 ], [ 8608932.290112275630236, 3525726.269080370198935 ], [ 8609077.807241359725595, 3526059.396285522729158 ], [ 8609351.332500267773867, 3526445.357231432106346 ], [ 8609996.319268895313144, 3525788.826883178204298 ] ] ] ] } },
{ "type": "Feature", "properties": { "SECTOR": "34", "CATEGORY": "RESIDENTIAL", "ZONE": "NON-CONFORMING", "TOTAL IND": 107, "GREEN": 84, "ORANGE": 21, "RED": 1, "WHITE": 1, "SEC(IN HAC": 190.32, "IND(IN HAC": 8.83, "AREA(%AGE)": 4.64 }, "geometry": { "type": "MultiPolygon", "coordinates": [ [ [ [ 8607436.491856900975108, 3525247.52932228660211 ], [ 8608836.302810335531831, 3525223.433228882029653 ], [ 8608773.957646884024143, 3525002.802620052359998 ], [ 8608681.889085425063968, 3524493.83197067771107 ], [ 8608682.154324362054467, 3524162.734798484481871 ], [ 8608712.94138402864337, 3523909.171676612459123 ], [ 8608893.696122463792562, 3523508.148377185221761 ], [ 8608450.145456649363041, 3523270.63910502474755 ], [ 8608294.448441604152322, 3523420.402563641313463 ], [ 8607931.847782762721181, 3523662.015521074645221 ], [ 8606809.743216380476952, 3524423.294775394722819 ], [ 8607436.491856900975108, 3525247.52932228660211 ] ] ] ] } },
{ "type": "Feature", "properties": { "SECTOR": "28 A", "CATEGORY": "RESIDENTIAL", "ZONE": "NON-CONFORMING", "TOTAL IND": 157, "GREEN": 101, "ORANGE": 11, "RED": 43, "WHITE": 2, "SEC(IN HAC": 93.02, "IND(IN HAC": 6.35, "AREA(%AGE)": 6.83 }, "geometry": { "type": "MultiPolygon", "coordinates": [ [ [ [ 8605967.477158779278398, 3526400.197024409193546 ], [ 8606016.031063659116626, 3526645.707579793408513 ], [ 8606430.502365436404943, 3526513.990229130722582 ], [ 8606578.963059723377228, 3526489.227587925735861 ], [ 8606911.439179688692093, 3526455.850795896258205 ], [ 8607088.113455543294549, 3526461.916239872109145 ], [ 8607261.792801378294826, 3526496.570390429813415 ], [ 8607495.599043956026435, 3525563.770407265983522 ], [ 8607499.971559438854456, 3525461.489384251646698 ], [ 8607488.515891732648015, 3525405.767915339674801 ], [ 8607444.186238283291459, 3525311.077058666851372 ], [ 8607220.243562668561935, 3525023.631003705319017 ], [ 8605967.477158779278398, 3526400.197024409193546 ] ] ] ] } },
{ "type": "Feature", "properties": { "SECTOR": "15", "CATEGORY": "RESIDENTIAL", "ZONE": "NON-CONFORMING", "TOTAL IND": 63, "GREEN": 48, "ORANGE": 14, "RED": 0, "WHITE": 1, "SEC(IN HAC": 160.68, "IND(IN HAC": 6.6, "AREA(%AGE)": 4.11 }, "geometry": { "type": "MultiPolygon", "coordinates": [ [ [ [ 8605368.63183862157166, 3522203.737209904473275 ], [ 8606227.349943809211254, 3523543.731783446855843 ], [ 8607348.362049574032426, 3521872.704349344130605 ], [ 8606886.917049845680594, 3521408.843252582475543 ], [ 8606733.028374159708619, 3521453.870997256133705 ], [ 8606441.600025853142142, 3521704.636985963210464 ], [ 8606282.225542154163122, 3521639.024044722784311 ], [ 8605764.150359015911818, 3521770.234376428183168 ], [ 8605408.081296946853399, 3521959.481974760070443 ], [ 8605500.875363936647773, 3522117.272380261216313 ], [ 8605368.63183862157166, 3522203.737209904473275 ] ] ] ] } },
{ "type": "Feature", "properties": { "SECTOR": "35 A", "CATEGORY": "RESIDENTIAL", "ZONE": "NON-CONFORMING", "TOTAL IND": 5, "GREEN": 4, "ORANGE": 1, "RED": 0, "WHITE": 0, "SEC(IN HAC": 66.63, "IND(IN HAC": 0.27, "AREA(%AGE)": 0.4 }, "geometry": { "type": "MultiPolygon", "coordinates": [ [ [ [ 8606799.479048324748874, 3522741.960802043788135 ], [ 8607277.165746511891484, 3523240.885215709451586 ], [ 8607766.248991454020143, 3523735.11959943594411 ], [ 8608176.040743520483375, 3523452.819266833364964 ], [ 8608419.50810781121254, 3523252.162515589501709 ], [ 8607035.157794339582324, 3522417.186425684951246 ], [ 8607025.231479594483972, 3522411.198522143065929 ], [ 8606799.479048324748874, 3522741.960802043788135 ] ] ] ] } },
{ "type": "Feature", "properties": { "SECTOR": "18 A", "CATEGORY": "RESIDENTIAL", "ZONE": "NON-CONFORMING", "TOTAL IND": 12, "GREEN": 11, "ORANGE": 0, "RED": 0, "WHITE": 1, "SEC(IN HAC": 44.43, "IND(IN HAC": 1.14, "AREA(%AGE)": 2.56 }, "geometry": { "type": "MultiPolygon", "coordinates": [ [ [ [ 8603512.135603876784444, 3524306.347892981953919 ], [ 8603535.926170334219933, 3524556.26909586507827 ], [ 8603637.297390546649694, 3524701.450547584332526 ], [ 8603714.469140078872442, 3524814.259873867034912 ], [ 8604100.160080706700683, 3524633.069970899727196 ], [ 8604292.955306153744459, 3524999.874313196633011 ], [ 8604689.110079359263182, 3524781.049726460594684 ], [ 8604585.761635981500149, 3524644.758922057691962 ], [ 8604635.928427079692483, 3524582.082782592158765 ], [ 8604403.739677267149091, 3524269.06268950458616 ], [ 8604337.814551312476397, 3524086.15167626645416 ], [ 8603542.955878356471658, 3524322.445468765683472 ], [ 8603512.135603876784444, 3524306.347892981953919 ] ] ] ] } },
{ "type": "Feature", "properties": { "SECTOR": "12 A", "CATEGORY": "RESIDENTIAL", "ZONE": "NON-CONFORMING", "TOTAL IND": 1, "GREEN": 1, "ORANGE": 0, "RED": 0, "WHITE": 0, "SEC(IN HAC": 51.51, "IND(IN HAC": 0.12, "AREA(%AGE)": 0.24 }, "geometry": { "type": "MultiPolygon", "coordinates": [ [ [ [ 8599351.040967976674438, 3522203.361290012020618 ], [ 8600226.929815707728267, 3522868.944676013663411 ], [ 8600633.767618998885155, 3523276.018101111985743 ], [ 8600738.117953633889556, 3523357.955547922290862 ], [ 8601182.493629073724151, 3522814.232721157371998 ], [ 8601055.082808282226324, 3522767.629859650973231 ], [ 8600942.142849389463663, 3522749.867996414657682 ], [ 8600755.990991082042456, 3522729.030524438247085 ], [ 8600522.14004085958004, 3522645.444450274575502 ], [ 8600324.334198031574488, 3522558.610488373786211 ], [ 8599925.19671736843884, 3522235.152319624554366 ], [ 8599802.407287914305925, 3522143.70844278531149 ], [ 8599659.016790799796581, 3522084.391225143801421 ], [ 8599535.230512408539653, 3522084.598335669841617 ], [ 8599433.647555880248547, 3522105.577519267331809 ], [ 8599351.040967976674438, 3522203.361290012020618 ] ] ] ] } },
{ "type": "Feature", "properties": { "SECTOR": "14", "CATEGORY": "RESIDENTIAL", "ZONE": "NON-CONFORMING", "TOTAL IND": 1, "GREEN": 1, "ORANGE": 0, "RED": 0, "WHITE": 0, "SEC(IN HAC": 59.85, "IND(IN HAC": 0.02, "AREA(%AGE)": 0.03 }, "geometry": { "type": "MultiPolygon", "coordinates": [ [ [ [ 8601242.469228066504002, 3522840.40547536406666 ], [ 8600770.840954458341002, 3523399.691943088546395 ], [ 8601112.700317537412047, 3523583.79965776251629 ], [ 8601394.829868687316775, 3523807.521171992644668 ], [ 8601488.467649897560477, 3523906.51136113749817 ], [ 8602007.358019066974521, 3523507.478967875707895 ], [ 8602387.694349618628621, 3523240.038531433790922 ], [ 8602271.115109706297517, 3523163.980775196105242 ], [ 8602005.979184877127409, 3523179.152955224737525 ], [ 8601765.499392939731479, 3523118.918680185917765 ], [ 8601633.977683421224356, 3523047.301438163034618 ], [ 8601242.469228066504002, 3522840.40547536406666 ] ] ] ] } },
{ "type": "Feature", "properties": { "SECTOR": "21", "CATEGORY": "RESIDENTIAL", "ZONE": "NON-CONFORMING", "TOTAL IND": 1, "GREEN": 1, "ORANGE": 0, "RED": 0, "WHITE": 0, "SEC(IN HAC": 119.79, "IND(IN HAC": 0.08, "AREA(%AGE)": 0.06 }, "geometry": { "type": "MultiPolygon", "coordinates": [ [ [ [ 8602129.345051413401961, 3524773.449768126010895 ], [ 8602599.515034761279821, 3525349.67491425620392 ], [ 8602752.047777829691768, 3525530.612560725305229 ], [ 8602903.202641243115067, 3525760.696272770874202 ], [ 8603871.069418866187334, 3525219.884796811267734 ], [ 8603609.519391845911741, 3524727.723116573411971 ], [ 8603485.838217291980982, 3524576.815063160844147 ], [ 8603456.147832499817014, 3524343.033583446871489 ], [ 8603459.572484595701098, 3524260.98652579030022 ], [ 8603238.28749855607748, 3524029.718463888857514 ], [ 8602106.959781900048256, 3524746.194763724692166 ], [ 8602129.345051413401961, 3524773.449768126010895 ] ] ] ] } },
{ "type": "Feature", "properties": { "SECTOR": "24", "CATEGORY": "RESIDENTIAL", "ZONE": "NON-CONFORMING", "TOTAL IND": 2, "GREEN": 2, "ORANGE": 0, "RED": 0, "WHITE": 0, "SEC(IN HAC": 155.71, "IND(IN HAC": 0.39, "AREA(%AGE)": 0.25 }, "geometry": { "type": "MultiPolygon", "coordinates": [ [ [ [ 8603355.223856134340167, 3527305.694826263003051 ], [ 8603995.004245258867741, 3527301.879085842054337 ], [ 8604314.742375263944268, 3526844.426155163906515 ], [ 8604477.915739478543401, 3526715.694769061170518 ], [ 8604153.685838190838695, 3526274.247788701672107 ], [ 8603538.191821480169892, 3525437.951005728449672 ], [ 8602659.024646962061524, 3525918.65572650777176 ], [ 8602669.396465437486768, 3526242.474263194482774 ], [ 8602696.552738383412361, 3526378.437200122512877 ], [ 8602747.850199976935983, 3526484.662976264487952 ], [ 8603355.223856134340167, 3527305.694826263003051 ] ] ] ] } },
{ "type": "Feature", "properties": { "SECTOR": "12", "CATEGORY": "RESIDENTIAL", "ZONE": "NON-CONFORMING", "TOTAL IND": 1, "GREEN": 1, "ORANGE": 0, "RED": 0, "WHITE": 0, "SEC(IN HAC": 135.37, "IND(IN HAC": 0.03, "AREA(%AGE)": 0.02 }, "geometry": { "type": "MultiPolygon", "coordinates": [ [ [ [ 8598705.783240363001823, 3523019.370073915459216 ], [ 8599275.311504332348704, 3523412.507555860094726 ], [ 8598937.627543104812503, 3523900.170430302619934 ], [ 8599240.833316016942263, 3524037.081315586809069 ], [ 8599378.515072720125318, 3524160.752411867491901 ], [ 8599591.25878076069057, 3524480.704960380680859 ], [ 8599709.618504067882895, 3524589.566186289303005 ], [ 8600540.821463324129581, 3523593.869907602202147 ], [ 8600124.454732179641724, 3523245.315833549015224 ], [ 8599835.083857707679272, 3523004.828591060824692 ], [ 8599168.323148703202605, 3522438.35305276978761 ], [ 8598705.783240363001823, 3523019.370073915459216 ] ] ] ] } },
{ "type": "Feature", "properties": { "SECTOR": "23", "CATEGORY": "RESIDENTIAL", "ZONE": "NON-CONFORMING", "TOTAL IND": 2, "GREEN": 1, "ORANGE": 0, "RED": 0, "WHITE": 1, "SEC(IN HAC": 70.27, "IND(IN HAC": 0.79, "AREA(%AGE)": 1.13 }, "geometry": { "type": "MultiPolygon", "coordinates": [ [ [ [ 8602648.978319771587849, 3527533.507598205003887 ], [ 8602804.07985121011734, 3527848.249851686414331 ], [ 8602451.045880472287536, 3528096.18942853063345 ], [ 8602923.93154170550406, 3528916.693533461075276 ], [ 8603137.299715895205736, 3528539.266433148179203 ], [ 8603846.71234087459743, 3527523.584184723906219 ], [ 8602648.978319771587849, 3527533.507598205003887 ] ] ] ] } },
{ "type": "Feature", "properties": { "SECTOR": "28", "CATEGORY": "RESIDENTIAL", "ZONE": "NON-CONFORMING", "TOTAL IND": 17, "GREEN": 14, "ORANGE": 3, "RED": 0, "WHITE": 0, "SEC(IN HAC": 75.49, "IND(IN HAC": 0.78, "AREA(%AGE)": 1.03 }, "geometry": { "type": "MultiPolygon", "coordinates": [ [ [ [ 8605192.346863588318229, 3527056.882680444046855 ], [ 8605284.769914027303457, 3527274.315234500449151 ], [ 8605387.927067827433348, 3527270.512972167693079 ], [ 8605749.317297918722034, 3527145.044345111586154 ], [ 8605878.369080875068903, 3527126.242431858554482 ], [ 8605999.538807656615973, 3527124.656756047159433 ], [ 8606054.770047882571816, 3527134.141517212614417 ], [ 8606358.434844193980098, 3527258.394952403381467 ], [ 8607072.90964736789465, 3527241.133496764115989 ], [ 8607248.603919897228479, 3526547.220886521972716 ], [ 8607082.123803522437811, 3526514.003151601180434 ], [ 8606913.045944249257445, 3526508.198420073371381 ], [ 8606548.4813595674932, 3526547.308626975398511 ], [ 8606227.235213777050376, 3526620.761746059637517 ], [ 8605434.254186354577541, 3526950.418977902270854 ], [ 8605192.346863588318229, 3527056.882680444046855 ] ] ] ] } },
{ "type": "Feature", "properties": { "SECTOR": "02 A", "CATEGORY": "RESIDENTIAL", "ZONE": "NON-CONFORMING", "TOTAL IND": 22, "GREEN": 12, "ORANGE": 8, "RED": 0, "WHITE": 2, "SEC(IN HAC": 63.11, "IND(IN HAC": 2.49, "AREA(%AGE)": 3.94 }, "geometry": { "type": "MultiPolygon", "coordinates": [ [ [ [ 8604821.137719912454486, 3519008.194368310738355 ], [ 8604979.323349609971046, 3519110.69938938645646 ], [ 8604861.353518916293979, 3519307.701796351466328 ], [ 8604909.612682182341814, 3519322.895605905447155 ], [ 8605144.48080375790596, 3519292.822876878082752 ], [ 8605287.310677196830511, 3519312.691801453009248 ], [ 8605617.825979594141245, 3519390.064588493667543 ], [ 8605773.454588878899813, 3519403.394793461542577 ], [ 8606173.100183337926865, 3519264.884149863384664 ], [ 8606003.797924056649208, 3519031.86024413164705 ], [ 8605884.722650563344359, 3518867.26357040181756 ], [ 8605544.935844087973237, 3518934.185962175019085 ], [ 8605296.567655365914106, 3518928.753307893872261 ], [ 8605074.781088337302208, 3518884.983468007296324 ], [ 8604966.944419264793396, 3518866.688505789730698 ], [ 8604853.166530348360538, 3518778.271000039763749 ], [ 8604658.095997052267194, 3518573.045490273740143 ], [ 8604403.479407140985131, 3518334.621868790592998 ], [ 8604317.988138929009438, 3518268.988551180344075 ], [ 8604286.514448449015617, 3518261.165822481736541 ], [ 8604234.808082770556211, 3518236.644923836924136 ], [ 8604107.48086816817522, 3518320.758883981499821 ], [ 8604148.024629034101963, 3518407.503790978342295 ], [ 8604170.008632993325591, 3518447.366680021397769 ], [ 8604221.898511284962296, 3518653.779865056741983 ], [ 8604236.296931272372603, 3518687.950142464600503 ], [ 8604265.502743510529399, 3518760.782066530082375 ], [ 8604314.331771440804005, 3518827.979882921092212 ], [ 8604430.336058495566249, 3518912.004698738455772 ], [ 8604592.268788399174809, 3519010.567552543710917 ], [ 8604624.026900527998805, 3519041.99316508602351 ], [ 8604669.887055110186338, 3519152.606088853441179 ], [ 8604712.779103174805641, 3519193.471590329427272 ], [ 8604821.137719912454486, 3519008.194368310738355 ] ] ] ] } },
{ "type": "Feature", "properties": { "SECTOR": "39", "CATEGORY": "RESIDENTIAL", "ZONE": "NON-CONFORMING", "TOTAL IND": 1, "GREEN": 1, "ORANGE": 0, "RED": 0, "WHITE": 0, "SEC(IN HAC": 95.59, "IND(IN HAC": 0.92, "AREA(%AGE)": 0.97 }, "geometry": { "type": "MultiPolygon", "coordinates": [ [ [ [ 8606111.438856545835733, 3519807.704776447732002 ], [ 8606609.066339686512947, 3520464.266719962004572 ], [ 8606328.414354585111141, 3520635.24022773001343 ], [ 8607388.373981464654207, 3521813.431597224902362 ], [ 8607735.810707097873092, 3521331.525812472682446 ], [ 8607437.120472414419055, 3521013.404132660944015 ], [ 8607214.7043775934726, 3520566.418861998710781 ], [ 8607165.536709835752845, 3520478.773083896841854 ], [ 8606443.409179463982582, 3519579.005571372807026 ], [ 8606382.861873704940081, 3519625.17615529242903 ], [ 8606284.542680287733674, 3519717.945617479737848 ], [ 8606153.308073777705431, 3519787.983641876839101 ], [ 8606111.438856545835733, 3519807.704776447732002 ] ] ] ] } },
{ "type": "Feature", "properties": { "SECTOR": "05", "CATEGORY": "RESIDENTIAL", "ZONE": "NON-CONFORMING", "TOTAL IND": 0, "GREEN": 0, "ORANGE": 0, "RED": 0, "WHITE": 0, "SEC(IN HAC": 125.28, "IND(IN HAC": 0.0, "AREA(%AGE)": 0.0 }, "geometry": { "type": "MultiPolygon", "coordinates": [ [ [ [ 8600379.222576528787613, 3516865.598050072323531 ], [ 8600282.72354519367218, 3516683.89747479185462 ], [ 8600187.940036036074162, 3516615.251758921891451 ], [ 8600157.8736727014184, 3516644.075129088945687 ], [ 8600259.751312609761953, 3516863.942965257447213 ], [ 8600315.116435835137963, 3516956.465737263672054 ], [ 8600514.931434029713273, 3517158.170934766530991 ], [ 8600654.402416905388236, 3517239.489027756731957 ], [ 8600706.846415087580681, 3517293.683956686872989 ], [ 8600783.860496841371059, 3517473.388102892320603 ], [ 8600917.029117850586772, 3517651.714938374701887 ], [ 8601069.339614680036902, 3517820.950519334059209 ], [ 8601268.8028913307935, 3517892.170332294888794 ], [ 8601549.023045672103763, 3517892.473056410439312 ], [ 8601763.112477619200945, 3517820.634361658245325 ], [ 8602102.990350376814604, 3517778.781770237721503 ], [ 8602007.886082038283348, 3517376.548402637708932 ], [ 8601986.703571042045951, 3517379.13559062872082 ], [ 8601741.141989735886455, 3516986.842700030189008 ], [ 8601670.552817013114691, 3516916.980126574169844 ], [ 8601461.623496888205409, 3516591.411249839700758 ], [ 8601464.378113299608231, 3516557.867418836336583 ], [ 8601278.193221995607018, 3516337.989445228595287 ], [ 8600919.703351555392146, 3516378.761592364870012 ], [ 8600612.596142990514636, 3516599.775591485202312 ], [ 8600379.222576528787613, 3516865.598050072323531 ] ] ] ] } },
{ "type": "Feature", "properties": { "SECTOR": "17 A", "CATEGORY": "RESIDENTIAL", "ZONE": "NON-CONFORMING", "TOTAL IND": 0, "GREEN": 0, "ORANGE": 0, "RED": 0, "WHITE": 0, "SEC(IN HAC": 21.38, "IND(IN HAC": 0.0, "AREA(%AGE)": 0.0 }, "geometry": { "type": "MultiPolygon", "coordinates": [ [ [ [ 8603644.221575230360031, 3522160.937949324958026 ], [ 8603855.76683559268713, 3522406.365555722732097 ], [ 8603864.86372084915638, 3522426.767172432504594 ], [ 8603887.996821815147996, 3522498.114533473271877 ], [ 8603909.345960633829236, 3522565.357725550420582 ], [ 8604700.365943372249603, 3522073.094516386743635 ], [ 8604677.514624109491706, 3521979.237638300284743 ], [ 8604587.862129561603069, 3521888.665855524595827 ], [ 8603927.327817231416702, 3522158.647688579279929 ], [ 8603900.208339776843786, 3522130.452184268739074 ], [ 8603644.221575230360031, 3522160.937949324958026 ] ] ] ] } },
{ "type": "Feature", "properties": { "SECTOR": "27", "CATEGORY": "RESIDENTIAL", "ZONE": "NON-CONFORMING", "TOTAL IND": 0, "GREEN": 0, "ORANGE": 0, "RED": 0, "WHITE": 0, "SEC(IN HAC": 84.17, "IND(IN HAC": 0.0, "AREA(%AGE)": 0.0 }, "geometry": { "type": "MultiPolygon", "coordinates": [ [ [ [ 8605098.475176133215427, 3528014.594702648930252 ], [ 8605722.511972555890679, 3528043.133487565908581 ], [ 8605930.974841458722949, 3528058.813604332506657 ], [ 8606235.428096925839782, 3528040.495994303375483 ], [ 8606578.381519543007016, 3527936.419777364470065 ], [ 8606767.236594062298536, 3527922.32134371669963 ], [ 8607200.787340825423598, 3527915.058411667123437 ], [ 8607053.009342800825834, 3527654.741249035578221 ], [ 8607020.814798543229699, 3527477.812356293667108 ], [ 8606544.389267884194851, 3527474.688006096985191 ], [ 8606511.429008785635233, 3527464.777948018629104 ], [ 8606387.85336546599865, 3527448.577820532955229 ], [ 8606335.172572312876582, 3527445.584815854206681 ], [ 8606278.106705101206899, 3527431.733467630110681 ], [ 8606088.079570602625608, 3527353.079461095388979 ], [ 8606054.202803393825889, 3527330.895027109887451 ], [ 8605983.916931208223104, 3527314.373804987873882 ], [ 8605832.168452836573124, 3527320.926630111876875 ], [ 8605613.549413070082664, 3527405.393197916448116 ], [ 8605464.91844723932445, 3527469.230007968377322 ], [ 8605337.711289158090949, 3527497.49995892168954 ], [ 8605090.399854831397533, 3527511.975235580932349 ], [ 8605098.475176133215427, 3528014.594702648930252 ] ] ] ] } },
{ "type": "Feature", "properties": { "SECTOR": "13", "CATEGORY": "RESIDENTIAL", "ZONE": "NON-CONFORMING", "TOTAL IND": 0, "GREEN": 0, "ORANGE": 0, "RED": 0, "WHITE": 0, "SEC(IN HAC": 138.9, "IND(IN HAC": 0.0, "AREA(%AGE)": 0.0 }, "geometry": { "type": "MultiPolygon", "coordinates": [ [ [ [ 8599753.714794466271996, 3524618.193131844047457 ], [ 8600482.083809275180101, 3525108.99159632762894 ], [ 8600612.411021057516336, 3525227.074178716167808 ], [ 8600824.5106016471982, 3525529.085510564502329 ], [ 8601824.802513021975756, 3524866.363869925960898 ], [ 8601604.23140631057322, 3524646.240524412598461 ], [ 8601325.03400656208396, 3524376.587808582466096 ], [ 8601085.898055328056216, 3524127.862856940831989 ], [ 8600890.92281730286777, 3523925.334532921668142 ], [ 8600580.751757860183716, 3523627.332763596437871 ], [ 8599753.714794466271996, 3524618.193131844047457 ] ] ] ] } },
{ "type": "Feature", "properties": { "SECTOR": "20", "CATEGORY": "RESIDENTIAL", "ZONE": "NON-CONFORMING", "TOTAL IND": 0, "GREEN": 0, "ORANGE": 0, "RED": 0, "WHITE": 0, "SEC(IN HAC": 84.28, "IND(IN HAC": 0.0, "AREA(%AGE)": 0.0 }, "geometry": { "type": "MultiPolygon", "coordinates": [ [ [ [ 8601369.612761775031686, 3526264.546625608112663 ], [ 8602468.862642908468843, 3525724.023618712555617 ], [ 8601853.210639283061028, 3524913.328804682474583 ], [ 8600853.802473071962595, 3525572.267038849182427 ], [ 8601155.305998153984547, 3525990.842438904102892 ], [ 8601369.612761775031686, 3526264.546625608112663 ] ] ] ] } },
{ "type": "Feature", "properties": { "SECTOR": "25", "CATEGORY": "RESIDENTIAL", "ZONE": "NON-CONFORMING", "TOTAL IND": 0, "GREEN": 0, "ORANGE": 0, "RED": 0, "WHITE": 0, "SEC(IN HAC": 205.98, "IND(IN HAC": 0.0, "AREA(%AGE)": 0.0 }, "geometry": { "type": "MultiPolygon", "coordinates": [ [ [ [ 8603911.552471663802862, 3527522.303272898308933 ], [ 8603332.083646912127733, 3528341.235124099068344 ], [ 8602954.402065593749285, 3528968.387121703941375 ], [ 8602994.799344602972269, 3529036.921430355869234 ], [ 8603187.041824601590633, 3529125.708241431973875 ], [ 8603728.759882966056466, 3529217.463240514043719 ], [ 8604307.497118178755045, 3529327.542032582685351 ], [ 8604474.416123747825623, 3529348.602804520633072 ], [ 8604753.32227335870266, 3529358.655940931290388 ], [ 8605024.965969143435359, 3528412.500105073209852 ], [ 8605024.593580216169357, 3528264.901713523548096 ], [ 8605051.557425687089562, 3528086.484138195868582 ], [ 8604923.307692844420671, 3528088.794691980816424 ], [ 8604925.328903071582317, 3527729.851186302024871 ], [ 8605058.372174305841327, 3527728.638462207280099 ], [ 8605054.044877842068672, 3527507.135591934900731 ], [ 8603911.552471663802862, 3527522.303272898308933 ] ] ] ] } },
{ "type": "Feature", "properties": { "SECTOR": "22", "CATEGORY": "RESIDENTIAL", "ZONE": "NON-CONFORMING", "TOTAL IND": 0, "GREEN": 0, "ORANGE": 0, "RED": 0, "WHITE": 0, "SEC(IN HAC": 70.79, "IND(IN HAC": 0.0, "AREA(%AGE)": 0.0 }, "geometry": { "type": "MultiPolygon", "coordinates": [ [ [ [ 8602626.480690808966756, 3526312.685231568291783 ], [ 8601705.236769556999207, 3526788.082612595055252 ], [ 8602021.246750624850392, 3527351.453155877999961 ], [ 8603287.917258158326149, 3527305.843868830706924 ], [ 8602703.58802954852581, 3526512.284933240618557 ], [ 8602630.852282285690308, 3526336.682006301358342 ], [ 8602626.480690808966756, 3526312.685231568291783 ] ] ] ] } },
{ "type": "Feature", "properties": { "SECTOR": "35", "CATEGORY": "TRANSPORT & COMMUNICATION", "ZONE": "NON-CONFORMING", "TOTAL IND": 45, "GREEN": 29, "ORANGE": 13, "RED": 0, "WHITE": 3, "SEC(IN HAC": 90.43, "IND(IN HAC": 5.7, "AREA(%AGE)": 6.3 }, "geometry": { "type": "MultiPolygon", "coordinates": [ [ [ [ 8606240.7045729290694, 3523565.20790593419224 ], [ 8606790.260156603530049, 3524394.482160322833806 ], [ 8607737.293427342548966, 3523755.184948107227683 ], [ 8606779.614645268768072, 3522771.361820569261909 ], [ 8606240.7045729290694, 3523565.20790593419224 ] ] ] ] } },
{ "type": "Feature", "properties": { "SECTOR": "08", "CATEGORY": "TRANSPORT & COMMUNICATION", "ZONE": "NON-CONFORMING", "TOTAL IND": 25, "GREEN": 21, "ORANGE": 3, "RED": 0, "WHITE": 1, "SEC(IN HAC": 83.62, "IND(IN HAC": 15.87, "AREA(%AGE)": 18.98 }, "geometry": { "type": "MultiPolygon", "coordinates": [ [ [ [ 8597739.822411021217704, 3518657.564995698165148 ], [ 8598618.71134808845818, 3519561.573935680557042 ], [ 8599103.77481896430254, 3519172.400357936974615 ], [ 8599399.557968875393271, 3518896.663316510152072 ], [ 8599422.005184147506952, 3518842.790712504647672 ], [ 8599412.363510066643357, 3518780.649068691302091 ], [ 8599036.218234326690435, 3518755.849766981322318 ], [ 8598935.380359729751945, 3518715.058051197323948 ], [ 8598391.472533714026213, 3518104.950256270356476 ], [ 8597739.822411021217704, 3518657.564995698165148 ] ] ] ] } }
]
}
